{"features":[{"geometry":{"coordinates":[-48.784293,-1.533245],"type":"Point"},"id":1,"properties":{"Atualizacao":"2026-09-23 17:21:11.631259496 +0000 UTC","COG":69.7,"MMSI":"564079000","Nome":"OCEAN SWAGMAN","Velocidade":0.0,"fid":1},"type":"Feature"},{"geometry":{"coordinates":[-48.689588,-1.470513],"type":"Point"},"id":2,"properties":{"Atualizacao":"2026-09-23 17:19:37.084047358 +0000 UTC","COG":90.0,"MMSI":"710000963","Nome":"MARCOS SILVA","Velocidade":0.0,"fid":2},"type":"Feature"},{"geometry":{"coordinates":[-59.991518,-3.158582],"type":"Point"},"id":3,"properties":{"Atualizacao":"2026-09-23 17:19:36.767106492 +0000 UTC","COG":117.0,"MMSI":"710001648","Nome":"JOSE.GUILHERME.VII","Velocidade":0.0,"fid":3},"type":"Feature"},{"geometry":{"coordinates":[-59.923117,-3.122733],"type":"Point"},"id":4,"properties":{"Atualizacao":"2026-09-23 17:15:14.927234658 +0000 UTC","COG":332.0,"MMSI":"636020904","Nome":"MU TELLUS","Velocidade":0.0,"fid":4},"type":"Feature"},{"geometry":{"coordinates":[-48.769223,-1.46965],"type":"Point"},"id":5,"properties":{"Atualizacao":"2026-09-23 17:15:19.801089185 +0000 UTC","COG":3.8,"MMSI":"511100869","Nome":"MAYSORA","Velocidade":0.0,"fid":5},"type":"Feature"},{"geometry":{"coordinates":[-48.762492,-1.488638],"type":"Point"},"id":6,"properties":{"Atualizacao":"2026-09-23 17:15:31.057274968 +0000 UTC","COG":305.7,"MMSI":"563323800","Nome":"RESTIO GALAXY","Velocidade":0.0,"fid":6},"type":"Feature"},{"geometry":{"coordinates":[-48.737345,-1.50842],"type":"Point"},"id":7,"properties":{"Atualizacao":"2026-09-23 17:20:48.03397547 +0000 UTC","COG":66.5,"MMSI":"710005997","Nome":"HB PORAQUE","Velocidade":2.6,"fid":7},"type":"Feature"},{"geometry":{"coordinates":[-48.738405,-1.50807],"type":"Point"},"id":8,"properties":{"Atualizacao":"2026-09-23 17:00:47.465808706 +0000 UTC","COG":289.6,"MMSI":"352003911","Nome":"OMISHIMA","Velocidade":0.0,"fid":8},"type":"Feature"},{"geometry":{"coordinates":[-48.752743,-1.536812],"type":"Point"},"id":9,"properties":{"Atualizacao":"2026-09-23 17:09:44.014022625 +0000 UTC","COG":34.4,"MMSI":"538012842","Nome":"KABATAS","Velocidade":0.0,"fid":9},"type":"Feature"},{"geometry":{"coordinates":[-48.742658,-1.427363],"type":"Point"},"id":10,"properties":{"Atualizacao":"2026-09-23 17:09:49.271732161 +0000 UTC","COG":279.5,"MMSI":"341460002","Nome":"DANUBE 1","Velocidade":0.0,"fid":10},"type":"Feature"},{"geometry":{"coordinates":[-59.991558,-3.158638],"type":"Point"},"id":11,"properties":{"Atualizacao":"2026-09-23 17:18:56.104045414 +0000 UTC","COG":16.7,"MMSI":"710007892","Nome":"JOSE GUILHERME XIV","Velocidade":0.0,"fid":11},"type":"Feature"},{"geometry":{"coordinates":[-48.737568,-1.505612],"type":"Point"},"id":12,"properties":{"Atualizacao":"2026-09-23 17:13:15.385192859 +0000 UTC","COG":197.8,"MMSI":"538007658","Nome":"CALYPSO.GR","Velocidade":0.0,"fid":12},"type":"Feature"},{"geometry":{"coordinates":[-48.769043,-1.530553],"type":"Point"},"id":13,"properties":{"Atualizacao":"2026-09-23 17:07:20.14576649 +0000 UTC","COG":356.9,"MMSI":"450421000","Nome":"FREEDOM","Velocidade":0.0,"fid":13},"type":"Feature"},{"geometry":{"coordinates":[-48.734745,-1.511468],"type":"Point"},"id":14,"properties":{"Atualizacao":"2026-09-23 17:19:14.643351635 +0000 UTC","COG":338.8,"MMSI":"710006336","Nome":"HB DOURADA","Velocidade":0.1,"fid":14},"type":"Feature"},{"geometry":{"coordinates":[-48.753077,-1.538292],"type":"Point"},"id":15,"properties":{"Atualizacao":"2026-09-23 17:15:31.829929751 +0000 UTC","COG":303.8,"MMSI":"341308002","Nome":"ALKHALIL","Velocidade":0.0,"fid":15},"type":"Feature"},{"geometry":{"coordinates":[-48.750948,-1.537303],"type":"Point"},"id":16,"properties":{"Atualizacao":"2026-09-23 17:20:35.536514977 +0000 UTC","COG":226.9,"MMSI":"710030810","Nome":"WS SAGITARIUS","Velocidade":7.0,"fid":16},"type":"Feature"},{"geometry":{"coordinates":[-48.734952,-1.511507],"type":"Point"},"id":17,"properties":{"Atualizacao":"2026-09-23 17:20:50.261858016 +0000 UTC","COG":19.8,"MMSI":"710006493","Nome":"HB ENGUIA","Velocidade":0.1,"fid":17},"type":"Feature"},{"geometry":{"coordinates":[-59.999053,-3.155943],"type":"Point"},"id":18,"properties":{"Atualizacao":"2026-09-23 17:18:39.651079681 +0000 UTC","COG":168.1,"MMSI":"710007794","Nome":"OC VALENTE","Velocidade":0.0,"fid":18},"type":"Feature"},{"geometry":{"coordinates":[-48.750603,-1.535403],"type":"Point"},"id":19,"properties":{"Atualizacao":"2026-09-23 17:19:42.797422645 +0000 UTC","COG":252.9,"MMSI":"450485000","Nome":"JULIA AK","Velocidade":0.0,"fid":19},"type":"Feature"},{"geometry":{"coordinates":[-48.785758,-1.490282],"type":"Point"},"id":20,"properties":{"Atualizacao":"2026-09-23 17:16:46.075292149 +0000 UTC","COG":263.2,"MMSI":"538011371","Nome":"BARCARENA","Velocidade":0.0,"fid":20},"type":"Feature"},{"geometry":{"coordinates":[-48.690813,-1.469983],"type":"Point"},"id":21,"properties":{"Atualizacao":"2026-09-23 17:20:43.987028827 +0000 UTC","COG":99.9,"MMSI":"710001661","Nome":"ITUPANEMA","Velocidade":4.3,"fid":21},"type":"Feature"},{"geometry":{"coordinates":[-48.756,-1.540733],"type":"Point"},"id":22,"properties":{"Atualizacao":"2026-09-23 17:13:59.501680982 +0000 UTC","COG":40.0,"MMSI":"710012230","Nome":"NS TAMBAQUI","Velocidade":0.0,"fid":22},"type":"Feature"},{"geometry":{"coordinates":[-48.624422,-1.497572],"type":"Point"},"id":23,"properties":{"Atualizacao":"2026-09-23 14:53:17.862688236 +0000 UTC","COG":128.0,"MMSI":"710003720","Nome":"SAAM TICUNA","Velocidade":0.2,"fid":23},"type":"Feature"},{"geometry":{"coordinates":[-48.733154999999996,-1.480492],"type":"Point"},"id":24,"properties":{"Atualizacao":"2026-09-23 17:02:33.591634835 +0000 UTC","COG":0.0,"MMSI":"341105002","Nome":"EPSILON K","Velocidade":0.0,"fid":24},"type":"Feature"},{"geometry":{"coordinates":[-48.735327,-1.513327],"type":"Point"},"id":25,"properties":{"Atualizacao":"2026-09-23 17:21:08.216661922 +0000 UTC","COG":218.8,"MMSI":"710001843","Nome":"HB JACUNDA","Velocidade":3.7,"fid":25},"type":"Feature"},{"geometry":{"coordinates":[-48.75964,-1.546265],"type":"Point"},"id":26,"properties":{"Atualizacao":"2026-09-23 17:17:51.395696716 +0000 UTC","COG":135.3,"MMSI":"710000020","Nome":"SN JATOBA","Velocidade":0.0,"fid":26},"type":"Feature"},{"geometry":{"coordinates":[-48.786108,-1.550638],"type":"Point"},"id":27,"properties":{"Atualizacao":"2026-09-23 17:20:45.946017628 +0000 UTC","COG":332.5,"MMSI":"255915953","Nome":"GEM STAR","Velocidade":0.0,"fid":27},"type":"Feature"},{"geometry":{"coordinates":[-48.725975,-1.447977],"type":"Point"},"id":28,"properties":{"Atualizacao":"2026-09-23 17:21:13.171077008 +0000 UTC","COG":155.3,"MMSI":"636021579","Nome":"BUNUN TREASURE","Velocidade":0.0,"fid":28},"type":"Feature"},{"geometry":{"coordinates":[-48.777402,-1.563063],"type":"Point"},"id":29,"properties":{"Atualizacao":"2026-09-23 17:18:13.968594507 +0000 UTC","COG":320.7,"MMSI":"636026486","Nome":"TOP FAIR","Velocidade":0.0,"fid":29},"type":"Feature"},{"geometry":{"coordinates":[-48.757908,-1.469027],"type":"Point"},"id":30,"properties":{"Atualizacao":"2026-09-23 17:13:24.604294465 +0000 UTC","COG":337.8,"MMSI":"636023896","Nome":"CYTA","Velocidade":0.0,"fid":30},"type":"Feature"},{"geometry":{"coordinates":[-48.765283,-1.503567],"type":"Point"},"id":31,"properties":{"Atualizacao":"2026-09-23 17:19:17.285676732 +0000 UTC","COG":49.0,"MMSI":"538012328","Nome":"PANOCEANIS","Velocidade":0.0,"fid":31},"type":"Feature"},{"geometry":{"coordinates":[-48.746425,-1.52962],"type":"Point"},"id":32,"properties":{"Atualizacao":"2026-09-23 17:19:37.766591656 +0000 UTC","COG":39.4,"MMSI":"636025452","Nome":"SARONIC WIND","Velocidade":0.0,"fid":32},"type":"Feature"},{"geometry":{"coordinates":[-60.003217,-3.15379],"type":"Point"},"id":33,"properties":{"Atualizacao":"2026-09-23 17:20:30.848745978 +0000 UTC","COG":79.7,"MMSI":"710002155","Nome":"CONFIANCA VII","Velocidade":0.5,"fid":33},"type":"Feature"},{"geometry":{"coordinates":[-48.733692,-1.438425],"type":"Point"},"id":34,"properties":{"Atualizacao":"2026-09-23 17:16:59.473407078 +0000 UTC","COG":8.4,"MMSI":"355991000","Nome":"FREESIA","Velocidade":0.0,"fid":34},"type":"Feature"},{"geometry":{"coordinates":[-48.796648,-1.543108],"type":"Point"},"id":35,"properties":{"Atualizacao":"2026-09-23 17:14:44.55879958 +0000 UTC","COG":302.7,"MMSI":"351325000","Nome":"POLARIS 3","Velocidade":0.0,"fid":35},"type":"Feature"},{"geometry":{"coordinates":[-48.770025,-1.550583],"type":"Point"},"id":36,"properties":{"Atualizacao":"2026-09-23 17:19:43.740566579 +0000 UTC","COG":248.5,"MMSI":"710003376","Nome":"LDC TAPAJOS","Velocidade":1.5,"fid":36},"type":"Feature"},{"geometry":{"coordinates":[-48.765772,-1.518875],"type":"Point"},"id":37,"properties":{"Atualizacao":"2026-09-23 17:20:22.906646622 +0000 UTC","COG":0.0,"MMSI":"450548000","Nome":"VICTORY","Velocidade":0.1,"fid":37},"type":"Feature"},{"geometry":{"coordinates":[-48.774328,-1.558602],"type":"Point"},"id":38,"properties":{"Atualizacao":"2026-09-23 17:18:11.921180625 +0000 UTC","COG":163.7,"MMSI":"255915629","Nome":"ANTHEA V","Velocidade":0.0,"fid":38},"type":"Feature"},{"geometry":{"coordinates":[-48.779757,-1.52406],"type":"Point"},"id":39,"properties":{"Atualizacao":"2026-09-23 17:07:09.47770677 +0000 UTC","COG":302.6,"MMSI":"305792000","Nome":"BBC MONT BLANC","Velocidade":0.0,"fid":39},"type":"Feature"},{"geometry":{"coordinates":[-48.738983,-1.469367],"type":"Point"},"id":40,"properties":{"Atualizacao":"2026-09-23 17:08:55.20596063 +0000 UTC","COG":292.0,"MMSI":"613445540","Nome":"GOLDEN RIO","Velocidade":0.0,"fid":40},"type":"Feature"},{"geometry":{"coordinates":[-48.775192,-1.500897],"type":"Point"},"id":41,"properties":{"Atualizacao":"2026-09-23 16:57:32.539709307 +0000 UTC","COG":281.5,"MMSI":"630001083","Nome":"W M F EXPRESS","Velocidade":0.0,"fid":41},"type":"Feature"},{"geometry":{"coordinates":[-48.730208,-1.501267],"type":"Point"},"id":42,"properties":{"Atualizacao":"2026-09-23 17:17:39.409142489 +0000 UTC","COG":209.1,"MMSI":"710002261","Nome":"E/M MIRITITUBA","Velocidade":3.1,"fid":42},"type":"Feature"},{"geometry":{"coordinates":[-59.989607,-3.162933],"type":"Point"},"id":43,"properties":{"Atualizacao":"2026-09-23 17:07:05.604378595 +0000 UTC","COG":355.0,"MMSI":"710007234","Nome":"LOG-IN EXPERIENCE","Velocidade":0.0,"fid":43},"type":"Feature"},{"geometry":{"coordinates":[-48.758778,-1.545682],"type":"Point"},"id":44,"properties":{"Atualizacao":"2026-09-23 17:16:33.273075621 +0000 UTC","COG":278.9,"MMSI":"710011990","Nome":"DELPHINUS","Velocidade":0.1,"fid":44},"type":"Feature"},{"geometry":{"coordinates":[-48.624128,-1.49698],"type":"Point"},"id":45,"properties":{"Atualizacao":"2026-09-23 17:18:59.194288874 +0000 UTC","COG":0.0,"MMSI":"710005148","Nome":"LDC_AMAZONAS","Velocidade":0.0,"fid":45},"type":"Feature"},{"geometry":{"coordinates":[-48.751207,-1.535077],"type":"Point"},"id":46,"properties":{"Atualizacao":"2026-09-23 17:17:13.041121194 +0000 UTC","COG":177.6,"MMSI":"636018378","Nome":"GSL MERCER","Velocidade":0.0,"fid":46},"type":"Feature"},{"geometry":{"coordinates":[-60.078917,-3.333483],"type":"Point"},"id":47,"properties":{"Atualizacao":"2026-09-23 17:21:09.678038368 +0000 UTC","COG":250.1,"MMSI":"710001694","Nome":"OSCAR NIEMEYER","Velocidade":10.5,"fid":47},"type":"Feature"},{"geometry":{"coordinates":[-48.77365,-1.515955],"type":"Point"},"id":48,"properties":{"Atualizacao":"2026-09-23 17:16:41.89276246 +0000 UTC","COG":0.0,"MMSI":"450511000","Nome":"FIDELITY","Velocidade":0.0,"fid":48},"type":"Feature"},{"geometry":{"coordinates":[-48.753407,-1.537662],"type":"Point"},"id":49,"properties":{"Atualizacao":"2026-09-23 17:19:33.673560586 +0000 UTC","COG":290.6,"MMSI":"538005262","Nome":"ASTURCON","Velocidade":0.0,"fid":49},"type":"Feature"},{"geometry":{"coordinates":[-59.923603,-3.143373],"type":"Point"},"id":50,"properties":{"Atualizacao":"2026-09-23 16:41:16.414199962 +0000 UTC","COG":79.0,"MMSI":"563007400","Nome":"EPIC BALUAN","Velocidade":0.0,"fid":50},"type":"Feature"},{"geometry":{"coordinates":[-48.771798,-1.561033],"type":"Point"},"id":51,"properties":{"Atualizacao":"2026-09-23 17:12:13.432883803 +0000 UTC","COG":226.7,"MMSI":"710002718","Nome":"LDC TOCANTINS","Velocidade":1.7,"fid":51},"type":"Feature"},{"geometry":{"coordinates":[-48.776628,-1.541655],"type":"Point"},"id":52,"properties":{"Atualizacao":"2026-09-23 15:54:24.384856514 +0000 UTC","COG":121.9,"MMSI":"341087002","Nome":"SEA ROSE 1","Velocidade":0.1,"fid":52},"type":"Feature"},{"geometry":{"coordinates":[-48.62432,-1.498112],"type":"Point"},"id":53,"properties":{"Atualizacao":"2026-09-23 16:28:37.085796665 +0000 UTC","COG":235.1,"MMSI":"710005388","Nome":"HB TAURUS","Velocidade":0.0,"fid":53},"type":"Feature"},{"geometry":{"coordinates":[-59.922468,-3.121588],"type":"Point"},"id":54,"properties":{"Atualizacao":"2026-09-23 17:02:47.131980142 +0000 UTC","COG":0.0,"MMSI":"710000647","Nome":"FOGAS XXXVI","Velocidade":0.0,"fid":54},"type":"Feature"},{"geometry":{"coordinates":[-48.4948,-1.432417],"type":"Point"},"id":55,"properties":{"Atualizacao":"2026-09-23 16:36:37.423884603 +0000 UTC","COG":133.2,"MMSI":"710005540","Nome":"WS ARCTURUS","Velocidade":1.6,"fid":55},"type":"Feature"},{"geometry":{"coordinates":[-48.797525,-1.534038],"type":"Point"},"id":56,"properties":{"Atualizacao":"2026-09-23 16:56:46.372419 +0000 UTC","COG":18.5,"MMSI":"341157002","Nome":"ALMAJD","Velocidade":0.0,"fid":56},"type":"Feature"},{"geometry":{"coordinates":[-48.810283,-1.568988],"type":"Point"},"id":57,"properties":{"Atualizacao":"2026-09-23 16:54:17.463823915 +0000 UTC","COG":37.5,"MMSI":"630001139","Nome":"GOODNESS 1","Velocidade":0.0,"fid":57},"type":"Feature"},{"geometry":{"coordinates":[-60.001855,-3.159447],"type":"Point"},"id":58,"properties":{"Atualizacao":"2026-09-23 17:19:53.925842655 +0000 UTC","COG":126.6,"MMSI":"710400686","Nome":"F/B JOSE LEMOS II","Velocidade":10.7,"fid":58},"type":"Feature"},{"geometry":{"coordinates":[-48.60789,-1.46093],"type":"Point"},"id":59,"properties":{"Atualizacao":"2026-09-23 17:18:37.609054992 +0000 UTC","COG":250.5,"MMSI":"710003369","Nome":"HB FILHOTE","Velocidade":3.7,"fid":59},"type":"Feature"}],"type":"FeatureCollection"}