{
"type": "FeatureCollection",
"name": "TK-2021-instalações portuaria interior nomes",
"features": [
{"type":"Feature","properties":{"idi_tuaria":300108,"idseq":0,"cdi_tuaria":"BRTO001","nome":"Porto Praia Norte","tipo":"Estação de transbordo de cargas","cdbigrama":"BR","cdtrigrama":"BRT","cdterminal":"BRTO001","situacao":"Em Operação","gestao":"Privada","modalidade":"Estação de transbordo de cargas","companhia":"PORTO PRAIA NORTE OPERAÇÕES PORTUÁRIAS E SER","cnpj":"13002778000181","legislacao":"CA 021/2014-SEP/PR","pro_didade":null,"endereco":"AVENIDA TOCANTIS","com_emento":null,"numero":1,"bairro":"INDUSTRIAL","cep":"77970000","idcidade":"1718303","cidade":null,"idestado":null,"estado":null,"idr_rafica":null,"reg_rafica":null,"loc_izacao":"Tocantins","latitude":"-33","longitude":"-33","observacao":"TLO 28/2018-SOG (operação parcial): A emissão do TLO integral fi","fonte":"Antaq","cdc_troide":null,"CP_Fluxo_I":null,"CP_Fluxo_1":null,"CP_Fluxo_2":null,"CP_Fluxo_3":null,"CP_Fluxo_4":null,"CP_Fluxo_5":null,"CP_Fluxo_6":null,"CP_Fluxo_7":null,"CP_Fluxo_8":null,"CP_Fluxo_9":null,"CP_Fluxo10":null,"CP_Fluxo11":null,"layer":"TKU-interior portos","path":"D:/Users/marcos.coelho/Desktop/calculo TKU/TKU-2022/nav interior tku 2022/SHP-TKU-interior portos origem e destino/TKU-interior portos.shp"},"geometry":{"type":"Point","coordinates":[-47.817222,-5.388611]}},
{"type":"Feature","properties":{"idi_tuaria":1288,"idseq":0,"cdi_tuaria":"BRROS","nome":"Rosana","tipo":"Porto Público","cdbigrama":"BR","cdtrigrama":"ROS","cdterminal":null,"situacao":"Operando","gestao":"Desconhecida","modalidade":null,"companhia":null,"cnpj":null,"legislacao":"Lei 11.518/07","pro_didade":null,"endereco":null,"com_emento":null,"numero":null,"bairro":null,"cep":null,"idcidade":"BR354425","cidade":"Rosana","idestado":"BR35","estado":"SP","idr_rafica":11,"reg_rafica":"Região Hidrográfica do Paraná","loc_izacao":"Rio Paranapanema","latitude":"-22.595624°","longitude":"-53.02555°","observacao":"Informação Proveniente do Estudo de Demanda de Passageiros (UFPA","fonte":"SNV/DNIT","cdc_troide":"BRROS","CP_Fluxo_I":"228","CP_Fluxo_1":"Portos","CP_Fluxo_2":"Três Lagoas - MS","CP_Fluxo_3":"Origem","CP_Fluxo_4":"0","CP_Fluxo_5":"Portos","CP_Fluxo_6":"Rosana","CP_Fluxo_7":"Destino","CP_Fluxo_8":"4","CP_Fluxo_9":"1476680","CP_Fluxo10":"t","CP_Fluxo11":"Interior","layer":"TKU-interior portos destino","path":"D:/Users/marcos.coelho/Desktop/calculo TKU/TKU-2022/nav interior tku 2022/SHP-TKU-interior portos origem e destino/TKU-interior portos destino.shp"},"geometry":{"type":"Point","coordinates":[-53.02555,-22.595624]}},
{"type":"Feature","properties":{"idi_tuaria":2038,"idseq":0,"cdi_tuaria":"PYASU","nome":"Asuncion","tipo":"Porto Internacional","cdbigrama":"PY","cdtrigrama":"ASU","cdterminal":null,"situacao":"Operando","gestao":"Desconhecida","modalidade":null,"companhia":null,"cnpj":null,"legislacao":null,"pro_didade":null,"endereco":null,"com_emento":null,"numero":null,"bairro":null,"cep":null,"idcidade":null,"cidade":null,"idestado":null,"estado":null,"idr_rafica":null,"reg_rafica":null,"loc_izacao":null,"latitude":"-25.274722°","longitude":"-57.643889°","observacao":null,"fonte":"ANTAQ","cdc_troide":null,"CP_Fluxo_I":"110","CP_Fluxo_1":"Portos","CP_Fluxo_2":"Granel Química Ladário","CP_Fluxo_3":"Origem","CP_Fluxo_4":"0","CP_Fluxo_5":"Portos","CP_Fluxo_6":"Não Identificado","CP_Fluxo_7":"Destino","CP_Fluxo_8":"4","CP_Fluxo_9":"5156","CP_Fluxo10":"t","CP_Fluxo11":"Interior","layer":"TKU-interior portos destino","path":"D:/Users/marcos.coelho/Desktop/calculo TKU/TKU-2022/nav interior tku 2022/SHP-TKU-interior portos origem e destino/TKU-interior portos destino.shp"},"geometry":{"type":"Point","coordinates":[-57.643889,-25.274722]}},
{"type":"Feature","properties":{"idi_tuaria":2054,"idseq":0,"cdi_tuaria":"UYNVP","nome":"Nueva Palmira","tipo":"Porto Internacional","cdbigrama":"UY","cdtrigrama":"NVP","cdterminal":null,"situacao":"Operando","gestao":"Desconhecida","modalidade":null,"companhia":null,"cnpj":null,"legislacao":null,"pro_didade":null,"endereco":null,"com_emento":null,"numero":null,"bairro":null,"cep":null,"idcidade":null,"cidade":null,"idestado":null,"estado":null,"idr_rafica":null,"reg_rafica":null,"loc_izacao":null,"latitude":"-33.878889°","longitude":"-58.424166°","observacao":null,"fonte":"ANTAQ","cdc_troide":null,"CP_Fluxo_I":"110","CP_Fluxo_1":"Portos","CP_Fluxo_2":"Granel Química Ladário","CP_Fluxo_3":"Origem","CP_Fluxo_4":"0","CP_Fluxo_5":"Portos","CP_Fluxo_6":"Nueva Palmira","CP_Fluxo_7":"Destino","CP_Fluxo_8":"4","CP_Fluxo_9":"233441","CP_Fluxo10":"t","CP_Fluxo11":"Interior","layer":"TKU-interior portos destino","path":"D:/Users/marcos.coelho/Desktop/calculo TKU/TKU-2022/nav interior tku 2022/SHP-TKU-interior portos origem e destino/TKU-interior portos destino.shp"},"geometry":{"type":"Point","coordinates":[-58.424166,-33.878889]}},
{"type":"Feature","properties":{"idi_tuaria":2056,"idseq":0,"cdi_tuaria":"ARIBO","nome":"Ingeniero Buitrago","tipo":"Porto Internacional","cdbigrama":"AR","cdtrigrama":"IBO","cdterminal":null,"situacao":"Operando","gestao":"Desconhecida","modalidade":null,"companhia":null,"cnpj":null,"legislacao":null,"pro_didade":null,"endereco":null,"com_emento":null,"numero":null,"bairro":null,"cep":null,"idcidade":null,"cidade":null,"idestado":null,"estado":null,"idr_rafica":null,"reg_rafica":null,"loc_izacao":null,"latitude":"-33.4525°","longitude":"-60.042499°","observacao":null,"fonte":"ANTAQ","cdc_troide":null,"CP_Fluxo_I":"110","CP_Fluxo_1":"Portos","CP_Fluxo_2":"Granel Química Ladário","CP_Fluxo_3":"Origem","CP_Fluxo_4":"0","CP_Fluxo_5":"Portos","CP_Fluxo_6":"Ingeniero Buitrago","CP_Fluxo_7":"Destino","CP_Fluxo_8":"4","CP_Fluxo_9":"28903","CP_Fluxo10":"t","CP_Fluxo11":"Interior","layer":"TKU-interior portos destino","path":"D:/Users/marcos.coelho/Desktop/calculo TKU/TKU-2022/nav interior tku 2022/SHP-TKU-interior portos origem e destino/TKU-interior portos destino.shp"},"geometry":{"type":"Point","coordinates":[-60.042499,-33.4525]}},
{"type":"Feature","properties":{"idi_tuaria":2065,"idseq":0,"cdi_tuaria":"PEIQT","nome":"Iquitos (Masusa)","tipo":"Porto Internacional","cdbigrama":"PE","cdtrigrama":"IQT","cdterminal":null,"situacao":"Operando","gestao":"Desconhecida","modalidade":null,"companhia":null,"cnpj":null,"legislacao":null,"pro_didade":null,"endereco":null,"com_emento":null,"numero":null,"bairro":null,"cep":null,"idcidade":null,"cidade":null,"idestado":null,"estado":null,"idr_rafica":null,"reg_rafica":null,"loc_izacao":null,"latitude":"-3.716671°","longitude":"-73.237886°","observacao":null,"fonte":"ANTAQ","cdc_troide":null,"CP_Fluxo_I":"24","CP_Fluxo_1":"Portos","CP_Fluxo_2":"Porto Velho","CP_Fluxo_3":"Origem","CP_Fluxo_4":"0","CP_Fluxo_5":"Portos","CP_Fluxo_6":"Iquitos","CP_Fluxo_7":"Destino","CP_Fluxo_8":"4","CP_Fluxo_9":"564,618","CP_Fluxo10":"t","CP_Fluxo11":"Interior","layer":"TKU-interior portos destino","path":"D:/Users/marcos.coelho/Desktop/calculo TKU/TKU-2022/nav interior tku 2022/SHP-TKU-interior portos origem e destino/TKU-interior portos destino.shp"},"geometry":{"type":"Point","coordinates":[-73.237886,-3.716671]}},
{"type":"Feature","properties":{"idi_tuaria":300201,"idseq":0,"cdi_tuaria":"BRPA065","nome":"Companhia Brasileira de Asfalto da Amazônia","tipo":"Estação de transbordo de cargas","cdbigrama":"BR","cdtrigrama":"BRP","cdterminal":"BRPA065","situacao":"Em Operação","gestao":"Privada","modalidade":"Estação de transbordo de cargas","companhia":"COMPANHIA BRASILEIRA DE ASFALTO DA AMAZÔNIA","cnpj":"05099585000162","legislacao":"CA 08/2016-SEP/PR","pro_didade":null,"endereco":"Distrito Industrial de Ananindeua","com_emento":"Setor C, quadra 08, Lote 3 a 6.","numero":null,"bairro":"Distrito Industrial","cep":"67033310","idcidade":"1500800","cidade":null,"idestado":null,"estado":null,"idr_rafica":null,"reg_rafica":null,"loc_izacao":"Marajó","latitude":"-1.68628","longitude":"-50.4889","observacao":"Atualizado pela GAP em 28/04/2016.\r\nCadastro atualizado com TLO","fonte":"Antaq","cdc_troide":null,"CP_Fluxo_I":"162","CP_Fluxo_1":"Portos","CP_Fluxo_2":"Terminal Sanave De Manaus","CP_Fluxo_3":"Origem","CP_Fluxo_4":"0","CP_Fluxo_5":"Portos","CP_Fluxo_6":"Companhia Brasileira De Asfalto Da Amazônia","CP_Fluxo_7":"Destino","CP_Fluxo_8":"4","CP_Fluxo_9":"1997,837","CP_Fluxo10":"t","CP_Fluxo11":"Interior","layer":"TKU-interior portos destino","path":"D:/Users/marcos.coelho/Desktop/calculo TKU/TKU-2022/nav interior tku 2022/SHP-TKU-interior portos origem e destino/TKU-interior portos destino.shp"},"geometry":{"type":"Point","coordinates":[-50.48886,-1.686277]}},
{"type":"Feature","properties":{"idi_tuaria":300228,"idseq":0,"cdi_tuaria":"BRPA066","nome":"Belo Monte Logística de Terminal","tipo":"Estação de transbordo de cargas","cdbigrama":"BR","cdtrigrama":"BRP","cdterminal":"BRPA066","situacao":"Em Operação","gestao":"Privada","modalidade":"Estação de transbordo de cargas","companhia":"DORINALDO M. DA SILVA","cnpj":"03804676000711","legislacao":"CA 11/2016-SEP/PR","pro_didade":null,"endereco":"Quadra Gleba Tubarão, lote 281, s/n.","com_emento":"Fazenda São João","numero":null,"bairro":"Interior","cep":"68383000","idcidade":"1508357","cidade":null,"idestado":null,"estado":null,"idr_rafica":null,"reg_rafica":null,"loc_izacao":"Xingu","latitude":"-3.10981","longitude":"-51.751","observacao":"Contrato de Adesão celebrado com a Filial, empresa responsável c","fonte":"Antaq","cdc_troide":null,"CP_Fluxo_I":"300232","CP_Fluxo_1":"Portos","CP_Fluxo_2":"Atem Manaus","CP_Fluxo_3":"Origem","CP_Fluxo_4":"0","CP_Fluxo_5":"Portos","CP_Fluxo_6":"Belo Monte Logística De Terminal","CP_Fluxo_7":"Destino","CP_Fluxo_8":"4","CP_Fluxo_9":"3949,309","CP_Fluxo10":"t","CP_Fluxo11":"Interior","layer":"TKU-interior portos destino","path":"D:/Users/marcos.coelho/Desktop/calculo TKU/TKU-2022/nav interior tku 2022/SHP-TKU-interior portos origem e destino/TKU-interior portos destino.shp"},"geometry":{"type":"Point","coordinates":[-51.75121,-3.109841]}},
{"type":"Feature","properties":{"idi_tuaria":300308,"idseq":0,"cdi_tuaria":"BRSP023","nome":"Estação ADM Armazéns Gerais","tipo":"Estação de transbordo de cargas","cdbigrama":"BR","cdtrigrama":"BRS","cdterminal":"BRSP023","situacao":"Em Operação","gestao":"Privada","modalidade":"Estação de transbordo de cargas","companhia":"ADM ARMAZÉNS GERAIS","cnpj":"36320794001351","legislacao":"CA 07/2018-MTPA","pro_didade":null,"endereco":"Rodovia SP 191 KM 148,5","com_emento":"S/N Barranca do rio Piracicaba","numero":null,"bairro":"Zona Rural","cep":"17370000","idcidade":"3547007","cidade":null,"idestado":null,"estado":null,"idr_rafica":null,"reg_rafica":null,"loc_izacao":"Piracicaba","latitude":"-22.6228","longitude":"-48.1728","observacao":"Cadastro atualizado pela GAP em 06/02/2019.\r\nPROCESSO DE AUTORIZ","fonte":"Antaq","cdc_troide":null,"CP_Fluxo_I":"300548","CP_Fluxo_1":"Portos","CP_Fluxo_2":"Etc Adm Armazens Gerais São Simão","CP_Fluxo_3":"Origem","CP_Fluxo_4":"0","CP_Fluxo_5":"Portos","CP_Fluxo_6":"Estação Adm Armazéns Gerais","CP_Fluxo_7":"Destino","CP_Fluxo_8":"4","CP_Fluxo_9":"102704,503","CP_Fluxo10":"t","CP_Fluxo11":"Interior","layer":"TKU-interior portos destino","path":"D:/Users/marcos.coelho/Desktop/calculo TKU/TKU-2022/nav interior tku 2022/SHP-TKU-interior portos origem e destino/TKU-interior portos destino.shp"},"geometry":{"type":"Point","coordinates":[-47.674067,-22.694911]}},
{"type":"Feature","properties":{"idi_tuaria":300563,"idseq":0,"cdi_tuaria":"BRPA208","nome":"Terminal de Munguba","tipo":"Terminal de uso privado","cdbigrama":"BR","cdtrigrama":"BRP","cdterminal":"BRPA208","situacao":"Construção Concluída","gestao":"Privada","modalidade":"Terminal de uso privado","companhia":"IPIRANGA PRODUTOS DE PETROLEO S.A.","cnpj":"33337122015230","legislacao":"CA 06/2019-MINFRA","pro_didade":null,"endereco":"Rio Jari","com_emento":null,"numero":null,"bairro":"Porto Munguba","cep":"68230000","idcidade":"1500503","cidade":null,"idestado":null,"estado":null,"idr_rafica":null,"reg_rafica":null,"loc_izacao":"Jari","latitude":"-0.917778","longitude":"-52.4258","observacao":"Cadastro GAP 05/11/2019; Processo SEI 50300.007127/2016-19","fonte":"Antaq","cdc_troide":null,"CP_Fluxo_I":"300103","CP_Fluxo_1":"Portos","CP_Fluxo_2":"Terminal Vila Do Conde","CP_Fluxo_3":"Origem","CP_Fluxo_4":"0","CP_Fluxo_5":"Portos","CP_Fluxo_6":"Terminal De Munguba","CP_Fluxo_7":"Destino","CP_Fluxo_8":"4","CP_Fluxo_9":"2114","CP_Fluxo10":"t","CP_Fluxo11":"Interior","layer":"TKU-interior portos destino","path":"D:/Users/marcos.coelho/Desktop/calculo TKU/TKU-2022/nav interior tku 2022/SHP-TKU-interior portos origem e destino/TKU-interior portos destino.shp"},"geometry":{"type":"Point","coordinates":[-52.4283,-0.917777]}},
{"type":"Feature","properties":{"idi_tuaria":300601,"idseq":0,"cdi_tuaria":"BRRR001","nome":"Base de Caracaraí - BARAC","tipo":"Estação de transbordo de cargas","cdbigrama":"BR","cdtrigrama":"BRR","cdterminal":"BRRR001","situacao":"Construção Concluída","gestao":"Privada","modalidade":"Estação de transbordo de cargas","companhia":"PETROBRAS DISTRIBUIDORA S.A.","cnpj":"34274233000102","legislacao":"CA 24/2019-MINFRA","pro_didade":null,"endereco":"Av. Doutor Zany","com_emento":null,"numero":852,"bairro":"Centro","cep":"69360000","idcidade":"1400209","cidade":null,"idestado":null,"estado":null,"idr_rafica":null,"reg_rafica":null,"loc_izacao":"Branco","latitude":"1.80469","longitude":"-61.1306","observacao":"Cadastro GAP 7/4/2020","fonte":"Antaq","cdc_troide":null,"CP_Fluxo_I":"300369","CP_Fluxo_1":"Portos","CP_Fluxo_2":"Bemar Iii","CP_Fluxo_3":"Origem","CP_Fluxo_4":"0","CP_Fluxo_5":"Portos","CP_Fluxo_6":"Base De Caracaraí - Barac","CP_Fluxo_7":"Destino","CP_Fluxo_8":"4","CP_Fluxo_9":"13604,928","CP_Fluxo10":"t","CP_Fluxo11":"Interior","layer":"TKU-interior portos destino","path":"D:/Users/marcos.coelho/Desktop/calculo TKU/TKU-2022/nav interior tku 2022/SHP-TKU-interior portos origem e destino/TKU-interior portos destino.shp"},"geometry":{"type":"Point","coordinates":[-61.13056,1.804694]}},
{"type":"Feature","properties":{"idi_tuaria":16,"idseq":0,"cdi_tuaria":"BRMCP","nome":"Macapá","tipo":"Porto Organizado","cdbigrama":"BR","cdtrigrama":"MCP","cdterminal":null,"situacao":"Operando","gestao":"SEP","modalidade":"http://www.docasdesantana.com.br/","companhia":"Companhia Docas de Santana - CDSA","cnpj":null,"legislacao":null,"pro_didade":12.0,"endereco":"Avenida Dante Micheline","com_emento":"Canal de Santana, em frente à ilha de mesmo nome","numero":5500,"bairro":"Jardim Camburi","cep":"29090900","idcidade":"BR160060","cidade":"Santana","idestado":"BR16","estado":"AP","idr_rafica":9,"reg_rafica":"Região Hidrográfica Amazônica","loc_izacao":"Margem esquerda do Rio Amazonas","latitude":"-0.055555°","longitude":"-51.166666°","observacao":null,"fonte":"ANTAQ","cdc_troide":"BRMCP","CP_Fluxo_I":"Portos","CP_Fluxo_1":"Santana","CP_Fluxo_2":"Origem","CP_Fluxo_3":"0","CP_Fluxo_4":"5","CP_Fluxo_5":"Portos","CP_Fluxo_6":"Belém","CP_Fluxo_7":"Destino","CP_Fluxo_8":"4","CP_Fluxo_9":"756,72","CP_Fluxo10":"t","CP_Fluxo11":"Interior","layer":"TKU-interior portos origem","path":"D:/Users/marcos.coelho/Desktop/calculo TKU/TKU-2022/nav interior tku 2022/SHP-TKU-interior portos origem e destino/TKU-interior portos origem.shp"},"geometry":{"type":"Point","coordinates":[-51.166666,-0.055555]}},
{"type":"Feature","properties":{"idi_tuaria":100,"idseq":0,"cdi_tuaria":"BRPA001","nome":"Terminal Trombetas","tipo":"Terminal de uso privado","cdbigrama":"BR","cdtrigrama":"BRP","cdterminal":"BRPA001","situacao":"Em Operação","gestao":"Privada","modalidade":"Terminal de uso privado","companhia":"MINERAÇÃO RIO DO NORTE","cnpj":"04932216000146","legislacao":"CA 062/2015-ANTAQ","pro_didade":null,"endereco":"PORTO TROMBETAS","com_emento":null,"numero":null,"bairro":"CENTRO","cep":"68275000","idcidade":"1505304","cidade":null,"idestado":null,"estado":null,"idr_rafica":null,"reg_rafica":null,"loc_izacao":"Trombetas","latitude":"-1.46116","longitude":"-56.3805","observacao":"Atualizado pela GAP em 27/04/2015\r\nCONTRATO DE ADESÃO Nº 062-ANT","fonte":"Antaq","cdc_troide":null,"CP_Fluxo_I":"Portos","CP_Fluxo_1":"Terminal Trombetas","CP_Fluxo_2":"Origem","CP_Fluxo_3":"0","CP_Fluxo_4":"34","CP_Fluxo_5":"Portos","CP_Fluxo_6":"Vila Do Conde","CP_Fluxo_7":"Destino","CP_Fluxo_8":"4","CP_Fluxo_9":"0,72","CP_Fluxo10":"t","CP_Fluxo11":"Interior","layer":"TKU-interior portos origem","path":"D:/Users/marcos.coelho/Desktop/calculo TKU/TKU-2022/nav interior tku 2022/SHP-TKU-interior portos origem e destino/TKU-interior portos origem.shp"},"geometry":{"type":"Point","coordinates":[-56.380277,-1.460277]}},
{"type":"Feature","properties":{"idi_tuaria":110,"idseq":0,"cdi_tuaria":"BRMS001","nome":"Granel Química Ladário","tipo":"Terminal de uso privado","cdbigrama":"BR","cdtrigrama":"BRM","cdterminal":"BRMS001","situacao":"Em Operação","gestao":"Privada","modalidade":"Terminal de uso privado","companhia":"GRANEL QUÍMICA LTDA","cnpj":"44983435000411","legislacao":"CA 068/2015-ANTAQ","pro_didade":null,"endereco":"PORTO DE LADÁRIO LOTE S/Nº","com_emento":null,"numero":null,"bairro":"CENTRO","cep":"79370000","idcidade":"5005202","cidade":null,"idestado":null,"estado":null,"idr_rafica":null,"reg_rafica":null,"loc_izacao":"Paraguai","latitude":"-19.0047","longitude":"-57.5861","observacao":"- Atualizado pela GAP em 18/06/2015\r\nAtualizado em 12/05/2015 pe","fonte":"Antaq","cdc_troide":null,"CP_Fluxo_I":"Portos","CP_Fluxo_1":"Granel Química Ladário","CP_Fluxo_2":"Origem","CP_Fluxo_3":"0","CP_Fluxo_4":"2055","CP_Fluxo_5":"Portos","CP_Fluxo_6":"San Nicolas","CP_Fluxo_7":"Destino","CP_Fluxo_8":"4","CP_Fluxo_9":"3646","CP_Fluxo10":"t","CP_Fluxo11":"Interior","layer":"TKU-interior portos origem","path":"D:/Users/marcos.coelho/Desktop/calculo TKU/TKU-2022/nav interior tku 2022/SHP-TKU-interior portos origem e destino/TKU-interior portos origem.shp"},"geometry":{"type":"Point","coordinates":[-57.586111,-19.004722]}},
{"type":"Feature","properties":{"idi_tuaria":120,"idseq":0,"cdi_tuaria":"BRRS005","nome":"Terminal Marítimo Luiz Fogliatto - Termasa","tipo":"Terminal de uso privado","cdbigrama":"BR","cdtrigrama":"BRR","cdterminal":"BRRS005","situacao":"Em Operação","gestao":"Privada","modalidade":"Terminal de uso privado","companhia":"TERMINAL MARÍTIMO LUIZ FOGLIATTO S.A. - TERM","cnpj":"74109828000119","legislacao":"CA 096/2015-ANTAQ","pro_didade":null,"endereco":"AVENIDA ALMIRANTE MAXIMIANO DA FONSECA","com_emento":null,"numero":6361,"bairro":"INDUSTRIAL","cep":"96204040","idcidade":"4315602","cidade":null,"idestado":null,"estado":null,"idr_rafica":null,"reg_rafica":null,"loc_izacao":null,"latitude":"-32.115","longitude":"-52.1031","observacao":"Atualizado pela GAP em 29/10/2015.","fonte":"Antaq","cdc_troide":null,"CP_Fluxo_I":"Portos","CP_Fluxo_1":"Terminal Marítimo Luiz Fogliatto - Termasa","CP_Fluxo_2":"Origem","CP_Fluxo_3":"0","CP_Fluxo_4":"221","CP_Fluxo_5":"Portos","CP_Fluxo_6":"Oleoplan","CP_Fluxo_7":"Destino","CP_Fluxo_8":"4","CP_Fluxo_9":"3487,68","CP_Fluxo10":"t","CP_Fluxo11":"Interior","layer":"TKU-interior portos origem","path":"D:/Users/marcos.coelho/Desktop/calculo TKU/TKU-2022/nav interior tku 2022/SHP-TKU-interior portos origem e destino/TKU-interior portos origem.shp"},"geometry":{"type":"Point","coordinates":[-52.103056,-32.115]}},
{"type":"Feature","properties":{"idi_tuaria":151,"idseq":0,"cdi_tuaria":"BRMS005","nome":"Terminal Hidroviário de Porto Murtinho","tipo":"Estação de transbordo de cargas","cdbigrama":"BR","cdtrigrama":"BRM","cdterminal":"BRMS005","situacao":"Em Operação","gestao":"Privada","modalidade":"Estação de transbordo de cargas","companhia":"AGÊNCIA PORTUÁRIA DE PORTO MURTINHO LTDA","cnpj":"04681620000194","legislacao":"CA 19/2018-ANTAQ","pro_didade":null,"endereco":"LARGO DO RIO PARAGUAI, S/Nº","com_emento":null,"numero":null,"bairro":"CENTRO","cep":"79280000","idcidade":"5006903","cidade":null,"idestado":null,"estado":null,"idr_rafica":null,"reg_rafica":null,"loc_izacao":"Paraguai","latitude":null,"longitude":null,"observacao":"Atualizado pela GAP em 03/07/2018 - Contrato de adesão (Adaptaçã","fonte":"Antaq","cdc_troide":null,"CP_Fluxo_I":"Portos","CP_Fluxo_1":"Terminal Hidroviário De Porto Murtinho","CP_Fluxo_2":"Origem","CP_Fluxo_3":"0","CP_Fluxo_4":"2038","CP_Fluxo_5":"Portos","CP_Fluxo_6":"Não Identificado","CP_Fluxo_7":"Destino","CP_Fluxo_8":"4","CP_Fluxo_9":"13314,132","CP_Fluxo10":"t","CP_Fluxo11":"Interior","layer":"TKU-interior portos origem","path":"D:/Users/marcos.coelho/Desktop/calculo TKU/TKU-2022/nav interior tku 2022/SHP-TKU-interior portos origem e destino/TKU-interior portos origem.shp"},"geometry":{"type":"Point","coordinates":[-57.883611,-21.691666]}},
{"type":"Feature","properties":{"idi_tuaria":158,"idseq":0,"cdi_tuaria":"BRAM009","nome":"Terminal Aquaviário Solimões - Coari","tipo":"Terminal de uso privado","cdbigrama":"BR","cdtrigrama":"BRA","cdterminal":"BRAM009","situacao":"Em Operação","gestao":"Privada","modalidade":"Terminal de uso privado","companhia":"PETROBRAS TRANSPORTE S/A","cnpj":"02709449004812","legislacao":"CA 073/2015-ANTAQ","pro_didade":null,"endereco":"LUGAREJO DE PORTO URUCU","com_emento":"S/Nº  MARGEM DIREITA","numero":null,"bairro":"ZONA RURAL","cep":"69460000","idcidade":"1301209","cidade":null,"idestado":null,"estado":null,"idr_rafica":null,"reg_rafica":null,"loc_izacao":"Solimões","latitude":"-3.94525","longitude":"-63.1621","observacao":"Atualizado em 14/11/2019 pela GAP","fonte":"Antaq","cdc_troide":null,"CP_Fluxo_I":"Portos","CP_Fluxo_1":"Terminal Aquaviário Solimões - Coari","CP_Fluxo_2":"Origem","CP_Fluxo_3":"0","CP_Fluxo_4":"5","CP_Fluxo_5":"Portos","CP_Fluxo_6":"Belém","CP_Fluxo_7":"Destino","CP_Fluxo_8":"4","CP_Fluxo_9":"0,68","CP_Fluxo10":"t","CP_Fluxo11":"Interior","layer":"TKU-interior portos origem","path":"D:/Users/marcos.coelho/Desktop/calculo TKU/TKU-2022/nav interior tku 2022/SHP-TKU-interior portos origem e destino/TKU-interior portos origem.shp"},"geometry":{"type":"Point","coordinates":[-63.160832,-3.944443]}},
{"type":"Feature","properties":{"idi_tuaria":221,"idseq":0,"cdi_tuaria":"BRRS015","nome":"Oleoplan","tipo":"Terminal de uso privado","cdbigrama":"BR","cdtrigrama":"BRR","cdterminal":"BRRS015","situacao":"Em Operação","gestao":"Privada","modalidade":"Terminal de uso privado","companhia":"OLEOPLAN S.A. OLEOS VEGETAIS PLANALTO","cnpj":"88676127000419","legislacao":"CA 049/2014-ANTAQ","pro_didade":null,"endereco":"RUA LUIZ HENRIQUE ROESSLER","com_emento":null,"numero":430,"bairro":"RIO BRANCO","cep":"92200640","idcidade":"4304606","cidade":null,"idestado":null,"estado":null,"idr_rafica":null,"reg_rafica":null,"loc_izacao":"Sinos","latitude":null,"longitude":null,"observacao":"atualizado pela GAP em 29/04/2015.\r\nContrato de Adesão 49/2014-A","fonte":"Antaq","cdc_troide":null,"CP_Fluxo_I":"Portos","CP_Fluxo_1":"Oleoplan","CP_Fluxo_2":"Origem","CP_Fluxo_3":"0","CP_Fluxo_4":"27","CP_Fluxo_5":"Portos","CP_Fluxo_6":"Rio Grande","CP_Fluxo_7":"Destino","CP_Fluxo_8":"4","CP_Fluxo_9":"144378,205","CP_Fluxo10":"t","CP_Fluxo11":"Interior","layer":"TKU-interior portos origem","path":"D:/Users/marcos.coelho/Desktop/calculo TKU/TKU-2022/nav interior tku 2022/SHP-TKU-interior portos origem e destino/TKU-interior portos origem.shp"},"geometry":{"type":"Point","coordinates":[-51.182361,-29.968471]}},
{"type":"Feature","properties":{"idi_tuaria":228,"idseq":0,"cdi_tuaria":"BRMS006","nome":"Terminal Intermodal Cargill - Três Lagoas","tipo":"Terminal de uso privado","cdbigrama":"BR","cdtrigrama":"BRM","cdterminal":"BRMS006","situacao":"Em Operação","gestao":"Privada","modalidade":"Terminal de uso privado","companhia":"CARGILL AGRICOLA S.A.","cnpj":"60498706029481","legislacao":"CA 055/2014-ANTAQ","pro_didade":null,"endereco":"ROD. 264 - ACESSO FERROVIÁRIO NOVO OESTE/BRASIL FERROVIAS","com_emento":null,"numero":null,"bairro":"PARQUE INDUSTRIAL","cep":"79610090","idcidade":"5008305","cidade":null,"idestado":null,"estado":null,"idr_rafica":null,"reg_rafica":null,"loc_izacao":"Paraná","latitude":"-20.8056","longitude":"-51.6419","observacao":"Atualizado pela GAP em 29/04/2015.\r\nCONTRATO DE ADESÃO Nº 55/201","fonte":"Antaq","cdc_troide":null,"CP_Fluxo_I":"Portos","CP_Fluxo_1":"Três Lagoas - MS","CP_Fluxo_2":"Origem","CP_Fluxo_3":"0","CP_Fluxo_4":"1288","CP_Fluxo_5":"Portos","CP_Fluxo_6":"Rosana","CP_Fluxo_7":"Destino","CP_Fluxo_8":"4","CP_Fluxo_9":"1476680","CP_Fluxo10":"t","CP_Fluxo11":"Interior","layer":"TKU-interior portos origem","path":"D:/Users/marcos.coelho/Desktop/calculo TKU/TKU-2022/nav interior tku 2022/SHP-TKU-interior portos origem e destino/TKU-interior portos origem.shp"},"geometry":{"type":"Point","coordinates":[-51.641944,-20.805555]}},
{"type":"Feature","properties":{"idi_tuaria":2066,"idseq":0,"cdi_tuaria":"COLET","nome":"Letícia","tipo":"Porto Internacional","cdbigrama":"CO","cdtrigrama":"LET","cdterminal":null,"situacao":"Operando","gestao":"Desconhecida","modalidade":null,"companhia":null,"cnpj":null,"legislacao":null,"pro_didade":null,"endereco":null,"com_emento":null,"numero":null,"bairro":null,"cep":null,"idcidade":null,"cidade":null,"idestado":null,"estado":null,"idr_rafica":null,"reg_rafica":null,"loc_izacao":null,"latitude":"-4.219382°","longitude":"-69.946805°","observacao":null,"fonte":"ANTAQ","cdc_troide":null,"CP_Fluxo_I":"Portos","CP_Fluxo_1":"Leticia","CP_Fluxo_2":"Origem","CP_Fluxo_3":"0","CP_Fluxo_4":"141","CP_Fluxo_5":"Portos","CP_Fluxo_6":"Porto Chibatão","CP_Fluxo_7":"Destino","CP_Fluxo_8":"4","CP_Fluxo_9":"3,31","CP_Fluxo10":"t","CP_Fluxo11":"Interior","layer":"TKU-interior portos origem","path":"D:/Users/marcos.coelho/Desktop/calculo TKU/TKU-2022/nav interior tku 2022/SHP-TKU-interior portos origem e destino/TKU-interior portos origem.shp"},"geometry":{"type":"Point","coordinates":[-69.944238,-4.235106]}},
{"type":"Feature","properties":{"idi_tuaria":300164,"idseq":0,"cdi_tuaria":"BRST1","nome":"Santarém (orla)","tipo":"IP4","cdbigrama":"BR","cdtrigrama":"ST1","cdterminal":"BRST1","situacao":"Operando","gestao":"MTPA/DNIT","modalidade":null,"companhia":null,"cnpj":null,"legislacao":"Portaria Interministerial Nº 24/2015 - SEP/MT","pro_didade":null,"endereco":null,"com_emento":null,"numero":null,"bairro":null,"cep":null,"idcidade":"BR150680","cidade":"Santarém","idestado":"BR15","estado":"PA","idr_rafica":9,"reg_rafica":"Região Hidrográfica Amazônica","loc_izacao":"SANTARÉM","latitude":"-2.447646°","longitude":"-54.670717°","observacao":"Obras concluídas","fonte":"DNIT","cdc_troide":"BRSTM","CP_Fluxo_I":"Portos","CP_Fluxo_1":"Santarém (Orla)","CP_Fluxo_2":"Origem","CP_Fluxo_3":"0","CP_Fluxo_4":"29","CP_Fluxo_5":"Portos","CP_Fluxo_6":"Santarém","CP_Fluxo_7":"Destino","CP_Fluxo_8":"4","CP_Fluxo_9":"3345,98","CP_Fluxo10":"t","CP_Fluxo11":"Interior","layer":"TKU-interior portos origem","path":"D:/Users/marcos.coelho/Desktop/calculo TKU/TKU-2022/nav interior tku 2022/SHP-TKU-interior portos origem e destino/TKU-interior portos origem.shp"},"geometry":{"type":"Point","coordinates":[-54.670717,-2.447646]}},
{"type":"Feature","properties":{"idi_tuaria":300187,"idseq":0,"cdi_tuaria":"BRAM025","nome":"Terminais Fluviais do Brasil","tipo":"Terminal de uso privado","cdbigrama":"BR","cdtrigrama":"BRA","cdterminal":"BRAM025","situacao":"Em Operação","gestao":"Privada","modalidade":"Terminal de uso privado","companhia":"TERMINAIS FLUVIAIS DO BRASIL S.A.","cnpj":"11389394000219","legislacao":"CA 013/2014-ANTAQ","pro_didade":null,"endereco":"RUA CARLOS HENRIQUE MOHERING","com_emento":null,"numero":1300,"bairro":"JAUARY II","cep":"69100000","idcidade":"1301902","cidade":null,"idestado":null,"estado":null,"idr_rafica":null,"reg_rafica":null,"loc_izacao":"Amazonas","latitude":"-3.15167","longitude":"-58.4328","observacao":"Atualizado pela GAP em 27/04/2015 - PROCESSO 50300.002252/2011-2","fonte":"Antaq","cdc_troide":null,"CP_Fluxo_I":"Portos","CP_Fluxo_1":"Terminais Fluviais Do Brasil","CP_Fluxo_2":"Origem","CP_Fluxo_3":"0","CP_Fluxo_4":"300569","CP_Fluxo_5":"Portos","CP_Fluxo_6":"Abi Miritituba","CP_Fluxo_7":"Destino","CP_Fluxo_8":"4","CP_Fluxo_9":"3439,874","CP_Fluxo10":"t","CP_Fluxo11":"Interior","layer":"TKU-interior portos origem","path":"D:/Users/marcos.coelho/Desktop/calculo TKU/TKU-2022/nav interior tku 2022/SHP-TKU-interior portos origem e destino/TKU-interior portos origem.shp"},"geometry":{"type":"Point","coordinates":[-58.432777,-3.151666]}},
{"type":"Feature","properties":{"idi_tuaria":300323,"idseq":0,"cdi_tuaria":"BRPA153","nome":"Porto de Itaituba da Caramuru Alimentos","tipo":"Estação de transbordo de cargas","cdbigrama":"BR","cdtrigrama":"BRP","cdterminal":"BRPA153","situacao":"Em Operação","gestao":"Privada","modalidade":"Estação de transbordo de cargas","companhia":"CARAMURU ALIMENTOS S/A.","cnpj":"00080671007384","legislacao":"CA nº 13/2018-MTPA","pro_didade":null,"endereco":"Rodovia Transamazônica","com_emento":"KM 28","numero":null,"bairro":"Comércio","cep":"68180010","idcidade":"1503606","cidade":null,"idestado":null,"estado":null,"idr_rafica":null,"reg_rafica":null,"loc_izacao":"Tapajós","latitude":"-4.27557","longitude":"-55.9381","observacao":"Cadastro GAP 24/01/2018\r\n","fonte":"Antaq","cdc_troide":null,"CP_Fluxo_I":"Portos","CP_Fluxo_1":"Porto De Itaituba Da Caramuru Alimentos","CP_Fluxo_2":"Origem","CP_Fluxo_3":"0","CP_Fluxo_4":"16","CP_Fluxo_5":"Portos","CP_Fluxo_6":"Santana","CP_Fluxo_7":"Destino","CP_Fluxo_8":"4","CP_Fluxo_9":"125936,452","CP_Fluxo10":"t","CP_Fluxo11":"Interior","layer":"TKU-interior portos origem","path":"D:/Users/marcos.coelho/Desktop/calculo TKU/TKU-2022/nav interior tku 2022/SHP-TKU-interior portos origem e destino/TKU-interior portos origem.shp"},"geometry":{"type":"Point","coordinates":[-56.185355,-4.352155]}},
{"type":"Feature","properties":{"idi_tuaria":300548,"idseq":0,"cdi_tuaria":"BRGO010","nome":"ETC ADM Armazens Gerais São Simão","tipo":"Estação de transbordo de cargas","cdbigrama":"BR","cdtrigrama":"BRG","cdterminal":"BRGO010","situacao":"Construção Concluída","gestao":"Privada","modalidade":"Estação de transbordo de cargas","companhia":"ADM ARMAZENS GERAIS LTDA","cnpj":"36320794003214","legislacao":"CA 11/2019-MINFRA","pro_didade":null,"endereco":"AV ELIEZER DE OLIVEIRA GUIMARAES","com_emento":null,"numero":null,"bairro":"DISTRITO AGROINDUSTRIAL","cep":"75890000","idcidade":"5220405","cidade":null,"idestado":null,"estado":null,"idr_rafica":null,"reg_rafica":null,"loc_izacao":"Paranaíba","latitude":"-19.0665","longitude":"-50.5176","observacao":"Atualizado pela GAP em 18/11/2019","fonte":"Antaq","cdc_troide":null,"CP_Fluxo_I":"Portos","CP_Fluxo_1":"Etc Adm Armazens Gerais São Simão","CP_Fluxo_2":"Origem","CP_Fluxo_3":"0","CP_Fluxo_4":"300308","CP_Fluxo_5":"Portos","CP_Fluxo_6":"Estação Adm Armazéns Gerais","CP_Fluxo_7":"Destino","CP_Fluxo_8":"4","CP_Fluxo_9":"102704,503","CP_Fluxo10":"t","CP_Fluxo11":"Interior","layer":"TKU-interior portos origem","path":"D:/Users/marcos.coelho/Desktop/calculo TKU/TKU-2022/nav interior tku 2022/SHP-TKU-interior portos origem e destino/TKU-interior portos origem.shp"},"geometry":{"type":"Point","coordinates":[-50.517,-19.065999]}},
{"type":"Feature","properties":{"idi_tuaria":300571,"idseq":0,"cdi_tuaria":"BRPA216","nome":"Trapiche de Icoaraci","tipo":"Registro - Instalação de apoio","cdbigrama":"BR","cdtrigrama":"BRP","cdterminal":"BRPA216","situacao":"Em Operação","gestao":"Privada","modalidade":"Registro - Instalação de apoio","companhia":"SUPERINTENDENCIA EXECUTIVA DE MOBILIDADE URB","cnpj":"63803100000176","legislacao":"Res. 7391/2019","pro_didade":null,"endereco":"Rua Siqueira Mendes","com_emento":null,"numero":373,"bairro":"Cruzeiro","cep":"66812460","idcidade":"1501402","cidade":null,"idestado":null,"estado":null,"idr_rafica":null,"reg_rafica":null,"loc_izacao":"Baía de Guajará","latitude":"-1.29871","longitude":"-48.4908","observacao":"Processo nº 50300.004429/2019-88.","fonte":"Antaq","cdc_troide":null,"CP_Fluxo_I":"Portos","CP_Fluxo_1":"Icoaraci","CP_Fluxo_2":"Origem","CP_Fluxo_3":"0","CP_Fluxo_4":"5","CP_Fluxo_5":"Portos","CP_Fluxo_6":"Belém","CP_Fluxo_7":"Destino","CP_Fluxo_8":"4","CP_Fluxo_9":"140,13","CP_Fluxo10":"t","CP_Fluxo11":"Interior","layer":"TKU-interior portos origem","path":"D:/Users/marcos.coelho/Desktop/calculo TKU/TKU-2022/nav interior tku 2022/SHP-TKU-interior portos origem e destino/TKU-interior portos origem.shp"},"geometry":{"type":"Point","coordinates":[-48.4908,-1.298699]}},
{"type":"Feature","properties":{"idi_tuaria":300576,"idseq":0,"cdi_tuaria":"BRRO009","nome":"Terminal de Porto Velho","tipo":"Estação de transbordo de cargas","cdbigrama":"BR","cdtrigrama":"BRR","cdterminal":"BRRO009","situacao":"Construção Concluída","gestao":"Privada","modalidade":"Estação de transbordo de cargas","companhia":"PETROBRAS DISTRIBUIDORA S/A","cnpj":"34274233009746","legislacao":"CA 8/2019-MINFRA","pro_didade":null,"endereco":"Estrada Belmont","com_emento":null,"numero":337,"bairro":"Nacional","cep":"78903400","idcidade":"1100205","cidade":null,"idestado":null,"estado":null,"idr_rafica":null,"reg_rafica":null,"loc_izacao":"Madeira","latitude":"-8.73035","longitude":"-63.919","observacao":"Atualização GAP 04/10/2019","fonte":"Antaq","cdc_troide":null,"CP_Fluxo_I":"Portos","CP_Fluxo_1":"Terminal De Porto Velho","CP_Fluxo_2":"Origem","CP_Fluxo_3":"0","CP_Fluxo_4":"300369","CP_Fluxo_5":"Portos","CP_Fluxo_6":"Bemar Iii","CP_Fluxo_7":"Destino","CP_Fluxo_8":"4","CP_Fluxo_9":"463,272","CP_Fluxo10":"t","CP_Fluxo11":"Interior","layer":"TKU-interior portos origem","path":"D:/Users/marcos.coelho/Desktop/calculo TKU/TKU-2022/nav interior tku 2022/SHP-TKU-interior portos origem e destino/TKU-interior portos origem.shp"},"geometry":{"type":"Point","coordinates":[-63.918999,-8.730299]}},
{"type":"Feature","properties":{"idi_tuaria":300599,"idseq":0,"cdi_tuaria":"BRAM088","nome":"Terminal Distribuidora Equador Manaus","tipo":"Terminal de uso privado","cdbigrama":"BR","cdtrigrama":"BRA","cdterminal":"BRAM088","situacao":"Construção Concluída","gestao":"Privada","modalidade":"Terminal de uso privado","companhia":"DISTRIBUIDORA EQUADOR DE PRODUTOS DE PETROLE","cnpj":"03128979000761","legislacao":"CA 22/2019-MINFRA","pro_didade":null,"endereco":"Rua Pajurá","com_emento":null,"numero":895,"bairro":"Vila Buriti","cep":"69072065","idcidade":"1302603","cidade":null,"idestado":null,"estado":null,"idr_rafica":null,"reg_rafica":null,"loc_izacao":"Negro","latitude":"-3.15475","longitude":"-59.9616","observacao":"Cadastro GAP 7/4/2020","fonte":"Antaq","cdc_troide":null,"CP_Fluxo_I":"Portos","CP_Fluxo_1":"Terminal Distribuidora Equador Manaus","CP_Fluxo_2":"Origem","CP_Fluxo_3":"0","CP_Fluxo_4":"300187","CP_Fluxo_5":"Portos","CP_Fluxo_6":"Terminais Fluviais Do Brasil","CP_Fluxo_7":"Destino","CP_Fluxo_8":"4","CP_Fluxo_9":"5357,744","CP_Fluxo10":"t","CP_Fluxo11":"Interior","layer":"TKU-interior portos origem","path":"D:/Users/marcos.coelho/Desktop/calculo TKU/TKU-2022/nav interior tku 2022/SHP-TKU-interior portos origem e destino/TKU-interior portos origem.shp"},"geometry":{"type":"Point","coordinates":[-59.961621,-3.154752]}}
]
}
