{
"type": "FeatureCollection",
"name": "TKU-2021-portos cabotagem",
"features": [
{"type":"Feature","properties":{"idi_tuaria":5,"idseq":0,"cdi_tuaria":"BRBEL","nome":"Belém  ","tipo":"Porto Organizado","cdbigrama":"BR","cdtrigrama":"BEL","cdterminal":null,"situacao":"Operando","gestao":"SEP","modalidade":"https://www.cdp.com.br/home","companhia":"Companhia Docas do Pará - CDP","cnpj":null,"legislacao":"Lei 5.917/73","pro_didade":9.0,"endereco":"Avenida Presidente Vargas","com_emento":"Em frente à Ilha das Onças","numero":41,"bairro":null,"cep":"66010000","idcidade":"BR150140","cidade":"Belém","idestado":"BR15","estado":"PA","idr_rafica":10,"reg_rafica":"Região Hidrográfica do Tocantins","loc_izacao":"Margem direita da Baía de Guajará","latitude":"-1.445278°","longitude":"-48.497777°","observacao":null,"fonte":"ANTAQ","cdc_troide":"BRBEL"},"geometry":{"type":"Point","coordinates":[-48.497777,-1.445278]}},
{"type":"Feature","properties":{"idi_tuaria":16,"idseq":0,"cdi_tuaria":"BRMCP","nome":"Macapá","tipo":"Porto Organizado","cdbigrama":"BR","cdtrigrama":"MCP","cdterminal":null,"situacao":"Operando","gestao":"SEP","modalidade":"http://www.docasdesantana.com.br/","companhia":"Companhia Docas de Santana - CDSA","cnpj":null,"legislacao":null,"pro_didade":12.0,"endereco":"Avenida Dante Micheline","com_emento":"Canal de Santana, em frente à ilha de mesmo nome","numero":5500,"bairro":"Jardim Camburi","cep":"29090900","idcidade":"BR160060","cidade":"Santana","idestado":"BR16","estado":"AP","idr_rafica":9,"reg_rafica":"Região Hidrográfica Amazônica","loc_izacao":"Margem esquerda do Rio Amazonas","latitude":"-0.055555°","longitude":"-51.166666°","observacao":null,"fonte":"ANTAQ","cdc_troide":"BRMCP"},"geometry":{"type":"Point","coordinates":[-51.166666,-0.055555]}},
{"type":"Feature","properties":{"idi_tuaria":18,"idseq":0,"cdi_tuaria":"BRMAO","nome":"Manaus","tipo":"Porto Organizado","cdbigrama":"BR","cdtrigrama":"MAO","cdterminal":null,"situacao":"Operando","gestao":"SEP","modalidade":"www.portodemanaus.com.br","companhia":"Sociedade de Navegação, Portos e Hidrovias d","cnpj":null,"legislacao":null,"pro_didade":13.5,"endereco":"Rua Taqueirinha","com_emento":"Distante 13 km da confluência com o Rio Solimões","numero":25,"bairro":"Centro","cep":"69005420","idcidade":"BR130260","cidade":"Manaus","idestado":"BR13","estado":"AM","idr_rafica":9,"reg_rafica":"Região Hidrográfica Amazônica","loc_izacao":"Margem esquerda do Rio Negro","latitude":"-3.1375°","longitude":"-60.026111°","observacao":null,"fonte":"ANTAQ","cdc_troide":"BRMAO"},"geometry":{"type":"Point","coordinates":[-60.026111,-3.1375]}},
{"type":"Feature","properties":{"idi_tuaria":23,"idseq":0,"cdi_tuaria":"BRPOA","nome":"Porto Alegre  ","tipo":"Porto Organizado","cdbigrama":"BR","cdtrigrama":"POA","cdterminal":null,"situacao":"Operando","gestao":"SEP","modalidade":"http://www.sph.rs.gov.br/sph_2006/content/porto_poa/porto_poa_apresentacao.php","companhia":"Superintendência de Portos e Hidrovias do Ri","cnpj":null,"legislacao":null,"pro_didade":5.2,"endereco":"Avenida Mauá","com_emento":null,"numero":1050,"bairro":"Centro","cep":"90010110","idcidade":"BR431490","cidade":"Porto Alegre","idestado":"BR43","estado":"RS","idr_rafica":2,"reg_rafica":"Região Hidrográfica Atlântico Sul","loc_izacao":"Margem esquerda do Rio Guaíba","latitude":"-30.007221°","longitude":"-51.211111°","observacao":null,"fonte":"ANTAQ","cdc_troide":"BRPOA"},"geometry":{"type":"Point","coordinates":[-51.211111,-30.007221]}},
{"type":"Feature","properties":{"idi_tuaria":29,"idseq":0,"cdi_tuaria":"BRSTM","nome":"Santarém  ","tipo":"Porto Organizado","cdbigrama":"BR","cdtrigrama":"STM","cdterminal":null,"situacao":"Operando","gestao":"SEP","modalidade":"https://www.cdp.com.br/porto-de-santarem","companhia":"Companhia Docas do Pará - CDP","cnpj":null,"legislacao":null,"pro_didade":11.5,"endereco":"Avenida Cuiabá","com_emento":"Próximo a confluência com o Rio Amazonas","numero":null,"bairro":null,"cep":"68040400","idcidade":"BR150680","cidade":"Santarém","idestado":"BR15","estado":"PA","idr_rafica":9,"reg_rafica":"Região Hidrográfica Amazônica","loc_izacao":"Margem direita do Rio Tapajós","latitude":"-2.415°","longitude":"-54.737499°","observacao":null,"fonte":"ANTAQ","cdc_troide":"BRSTM"},"geometry":{"type":"Point","coordinates":[-54.737499,-2.415]}},
{"type":"Feature","properties":{"idi_tuaria":34,"idseq":0,"cdi_tuaria":"BRVDC","nome":"Vila do Conde ","tipo":"Porto Organizado","cdbigrama":"BR","cdtrigrama":"VDC","cdterminal":null,"situacao":"Operando","gestao":"SEP","modalidade":"http://www2.cdp.com.br/forms/porto_vila_conde.aspx","companhia":"Companhia Docas do Pará - CDP","cnpj":null,"legislacao":null,"pro_didade":13.0,"endereco":"Rodovia PA483","com_emento":null,"numero":null,"bairro":"Bairro Vila do Conde","cep":null,"idcidade":"BR150130","cidade":"Barcarena","idestado":"BR15","estado":"PA","idr_rafica":10,"reg_rafica":"Região Hidrográfica do Tocantins","loc_izacao":"Rio Pará","latitude":"-1.544167°","longitude":"-48.747777°","observacao":null,"fonte":"ANTAQ","cdc_troide":"BRVDC"},"geometry":{"type":"Point","coordinates":[-48.747777,-1.544167]}},
{"type":"Feature","properties":{"idi_tuaria":104,"idseq":0,"cdi_tuaria":"BRPA004","nome":"Porto Jari - Terminal Munguba","tipo":"Terminal de uso privado","cdbigrama":"BR","cdtrigrama":"BRP","cdterminal":"BRPA004","situacao":"Em Operação","gestao":"Privada","modalidade":"Terminal de uso privado","companhia":"JARI CELULOSE S.A.","cnpj":"04815734000180","legislacao":"CA 058/2015-ANTAQ","pro_didade":null,"endereco":"VILA MUNGUBA","com_emento":"S/N (PORTO MUNGUBA)","numero":null,"bairro":"DISTRITO MONTE DOURADO","cep":"68240000","idcidade":"1500503","cidade":null,"idestado":null,"estado":null,"idr_rafica":null,"reg_rafica":null,"loc_izacao":"Jari","latitude":"-0.926062","longitude":"-52.4328","observacao":"Atualizado pela GAP em 27/04/2015 \r\nAs correspondências devem se","fonte":"Antaq","cdc_troide":null},"geometry":{"type":"Point","coordinates":[-52.42367,-0.917928]}},
{"type":"Feature","properties":{"idi_tuaria":141,"idseq":0,"cdi_tuaria":"BRAM006","nome":"Porto Chibatão","tipo":"Terminal de uso privado","cdbigrama":"BR","cdtrigrama":"BRA","cdterminal":"BRAM006","situacao":"Em Operação","gestao":"Privada","modalidade":"Terminal de uso privado","companhia":"CHIBATÃO - NAVEGAÇÃO E COMÉRCIO LTDA","cnpj":"84098383000172","legislacao":"CA 03/2018-MTPA","pro_didade":null,"endereco":"RUA ZEBU","com_emento":null,"numero":201,"bairro":"COLÔNIA OLIVEIRA MACHADO","cep":"69073670","idcidade":"1302603","cidade":null,"idestado":null,"estado":null,"idr_rafica":null,"reg_rafica":null,"loc_izacao":"Negro","latitude":"-3.15574","longitude":"-59.9897","observacao":"Atualizado GAP em 23/07/18 atualizada a área do TUP e novo TLO 2","fonte":"Antaq","cdc_troide":null},"geometry":{"type":"Point","coordinates":[-59.99111,-3.16]}},
{"type":"Feature","properties":{"idi_tuaria":163,"idseq":0,"cdi_tuaria":"BRAM011","nome":"Terminal Aquaviário de Manaus","tipo":"Terminal de uso privado","cdbigrama":"BR","cdtrigrama":"BRA","cdterminal":"BRAM011","situacao":"Em Operação","gestao":"Privada","modalidade":"Terminal de uso privado","companhia":"PETROBRAS TRANSPORTE S/A","cnpj":"02709449006270","legislacao":"CA 074/2015-ANTAQ","pro_didade":null,"endereco":"RUA RIO QUIXITO","com_emento":null,"numero":1,"bairro":"VILA BURITI","cep":"69011960","idcidade":"1302603","cidade":null,"idestado":null,"estado":null,"idr_rafica":null,"reg_rafica":null,"loc_izacao":"Negro","latitude":"-3.15139","longitude":"-59.9514","observacao":"Atualizado pela GAP em 07/07/2015","fonte":"Antaq","cdc_troide":null},"geometry":{"type":"Point","coordinates":[-59.951667,-3.149722]}},
{"type":"Feature","properties":{"idi_tuaria":164,"idseq":0,"cdi_tuaria":"BRAM012","nome":"Super Terminais Comércio e Indústria","tipo":"Terminal de uso privado","cdbigrama":"BR","cdtrigrama":"BRA","cdterminal":"BRAM012","situacao":"Em Operação","gestao":"Privada","modalidade":"Terminal de uso privado","companhia":"SUPER TERMINAIS COMERCIO E INDUSTRIA LTDA","cnpj":"04335535000255","legislacao":"CA 051/2014-ANTAQ","pro_didade":null,"endereco":"RUA PONTA GROSSA","com_emento":null,"numero":256,"bairro":"COLÔNIA OLIVEIRA MACHADO","cep":"69074190","idcidade":"1302603","cidade":null,"idestado":null,"estado":null,"idr_rafica":null,"reg_rafica":null,"loc_izacao":"Negro","latitude":"-3.15694","longitude":"-59.9986","observacao":"Atualizado em 28/04/2015 pela GAP -\r\nCONTRATO DE ADESÃO Nº 51/20","fonte":"Antaq","cdc_troide":null},"geometry":{"type":"Point","coordinates":[-59.99861,-3.156944]}},
{"type":"Feature","properties":{"idi_tuaria":170,"idseq":0,"cdi_tuaria":"BRAM013","nome":"Ocrim","tipo":"Terminal de uso privado","cdbigrama":"BR","cdtrigrama":"BRA","cdterminal":"BRAM013","situacao":"Em Operação","gestao":"Privada","modalidade":"Terminal de uso privado","companhia":"OCRIM S.A. PRODUTOS ALIMENTÍCIOS","cnpj":"61065199000635","legislacao":"CA 011/2014-ANTAQ","pro_didade":null,"endereco":"DESEMBARGADOR FELISMINO SOARES","com_emento":null,"numero":1000,"bairro":"COLÔNIA OLIVEIRA MACHADO","cep":"69070620","idcidade":"1302603","cidade":null,"idestado":null,"estado":null,"idr_rafica":null,"reg_rafica":null,"loc_izacao":"Negro","latitude":"-3.15107","longitude":"-60.0058","observacao":"Atualizado pela GAP em 28/04/2015. \r\nAtualizado em 24/03/2015 pe","fonte":"Antaq","cdc_troide":null},"geometry":{"type":"Point","coordinates":[-60.005555,-3.151388]}},
{"type":"Feature","properties":{"idi_tuaria":300103,"idseq":0,"cdi_tuaria":"BRPA043","nome":"Terminal Vila do Conde","tipo":"Terminal de uso privado","cdbigrama":"BR","cdtrigrama":"BRP","cdterminal":"BRPA043","situacao":"Em Operação","gestao":"Privada","modalidade":"Terminal de uso privado","companhia":"HIDROVIAS DO BRASIL - VILA DO CONDE S.A.","cnpj":"13574672000152","legislacao":"CA 016/2014-SEP/PR","pro_didade":null,"endereco":"Avenida Verde e Branco, Estrada de Itupanema","com_emento":null,"numero":null,"bairro":"Distrito de Vila do Conde","cep":"68445000","idcidade":"1501303","cidade":null,"idestado":null,"estado":null,"idr_rafica":null,"reg_rafica":null,"loc_izacao":"Pará","latitude":"-1.50588","longitude":"-48.7373","observacao":"Atualizado pela GAP em 14/07/2017.\r\nSEI 0903693 - Res. 7377 Conh","fonte":"Antaq","cdc_troide":null},"geometry":{"type":"Point","coordinates":[-48.736944,-1.505833]}},
{"type":"Feature","properties":{"idi_tuaria":300147,"idseq":0,"cdi_tuaria":"BR906","nome":"Bacia Sedimentar SEAL","tipo":"Plataforma Marítima","cdbigrama":"BR","cdtrigrama":null,"cdterminal":"BR906","situacao":"Operando","gestao":"Privada","modalidade":null,"companhia":"República Federativa do Brasil","cnpj":null,"legislacao":null,"pro_didade":null,"endereco":null,"com_emento":null,"numero":null,"bairro":null,"cep":null,"idcidade":null,"cidade":null,"idestado":null,"estado":null,"idr_rafica":null,"reg_rafica":null,"loc_izacao":null,"latitude":"-11.123888°","longitude":"-34.220833°","observacao":null,"fonte":"ANTAQ","cdc_troide":null},"geometry":{"type":"Point","coordinates":[-34.220833,-11.123888]}},
{"type":"Feature","properties":{"idi_tuaria":300149,"idseq":0,"cdi_tuaria":"BR913","nome":"Bacia Sedimentar do Espírito Santo","tipo":"Plataforma Marítima","cdbigrama":"BR","cdtrigrama":null,"cdterminal":"BR913","situacao":"Operando","gestao":"Privada","modalidade":null,"companhia":"República Federativa do Brasil","cnpj":null,"legislacao":null,"pro_didade":null,"endereco":null,"com_emento":null,"numero":null,"bairro":null,"cep":null,"idcidade":null,"cidade":null,"idestado":null,"estado":null,"idr_rafica":null,"reg_rafica":null,"loc_izacao":null,"latitude":"-20.514251°","longitude":"-37.537655°","observacao":null,"fonte":"ANTAQ","cdc_troide":null},"geometry":{"type":"Point","coordinates":[-37.537655,-20.514251]}},
{"type":"Feature","properties":{"idi_tuaria":300155,"idseq":0,"cdi_tuaria":"BR901","nome":"Bacia Sedimentar do Ceará","tipo":"Plataforma Marítima","cdbigrama":"BR","cdtrigrama":null,"cdterminal":"BR901","situacao":"Operando","gestao":"Privada","modalidade":null,"companhia":"República Federativa do Brasil","cnpj":null,"legislacao":null,"pro_didade":null,"endereco":null,"com_emento":null,"numero":null,"bairro":null,"cep":null,"idcidade":null,"cidade":null,"idestado":null,"estado":null,"idr_rafica":null,"reg_rafica":null,"loc_izacao":null,"latitude":"-1.293055°","longitude":"-39.531944°","observacao":null,"fonte":"ANTAQ","cdc_troide":null},"geometry":{"type":"Point","coordinates":[-39.531944,-1.293055]}},
{"type":"Feature","properties":{"idi_tuaria":300162,"idseq":0,"cdi_tuaria":"BRCAM","nome":"Bacia Sedimentar de Campos","tipo":"Plataforma Marítima","cdbigrama":"BR","cdtrigrama":null,"cdterminal":"BRCAM","situacao":"Operando","gestao":"Privada","modalidade":null,"companhia":"República Federativa do Brasil","cnpj":null,"legislacao":null,"pro_didade":null,"endereco":null,"com_emento":null,"numero":null,"bairro":null,"cep":null,"idcidade":null,"cidade":null,"idestado":null,"estado":null,"idr_rafica":null,"reg_rafica":null,"loc_izacao":null,"latitude":"-24.209444°","longitude":"-40.008513°","observacao":null,"fonte":null,"cdc_troide":null},"geometry":{"type":"Point","coordinates":[-40.008513,-24.209444]}},
{"type":"Feature","properties":{"idi_tuaria":300232,"idseq":0,"cdi_tuaria":"BRAM021","nome":"ATEM Manaus","tipo":"Terminal de uso privado","cdbigrama":"BR","cdtrigrama":"BRA","cdterminal":"BRAM021","situacao":"Em Operação","gestao":"Privada","modalidade":"Terminal de uso privado","companhia":"ATEM'S DISTRIBUIDORA DE PETRÓLEO S.A.","cnpj":"03987364000103","legislacao":"CA 21/2016-MTPA","pro_didade":null,"endereco":"Rua Pajurá","com_emento":null,"numero":103,"bairro":"Vila Buriti","cep":"69072065","idcidade":"1302603","cidade":null,"idestado":null,"estado":null,"idr_rafica":null,"reg_rafica":null,"loc_izacao":"Negro","latitude":"-3.15128","longitude":"-59.96","observacao":"Atualizado pela GAP em 09/04/2018. Emissão do TLO nº 08/2018(int","fonte":"Antaq","cdc_troide":null},"geometry":{"type":"Point","coordinates":[-59.958911,-3.1485]}},
{"type":"Feature","properties":{"idi_tuaria":300232,"idseq":0,"cdi_tuaria":"BRAM021","nome":"TNA ATEM MANAUS","tipo":"TNA","cdbigrama":"BR","cdtrigrama":null,"cdterminal":"BRAM021","situacao":"Operando","gestao":"Privada","modalidade":null,"companhia":null,"cnpj":null,"legislacao":null,"pro_didade":null,"endereco":null,"com_emento":null,"numero":null,"bairro":null,"cep":null,"idcidade":null,"cidade":null,"idestado":null,"estado":null,"idr_rafica":9,"reg_rafica":"Região Hidrográfica Amazônica","loc_izacao":"Manaus","latitude":"-3.148501°","longitude":"-59.958912°","observacao":null,"fonte":"ANTAQ","cdc_troide":"BRMAO"},"geometry":{"type":"Point","coordinates":[-59.958911,-3.1485]}},
{"type":"Feature","properties":{"idi_tuaria":300496,"idseq":0,"cdi_tuaria":"BRPE003","nome":"Porto de Santo Antônio (IP4 Fernando de Noronha)","tipo":"Registro - Instalação portuária pública","cdbigrama":"BR","cdtrigrama":"BRP","cdterminal":"BRPE003","situacao":"Em Operação","gestao":"Privada","modalidade":"Registro - Instalação portuária pública de pequeno porte","companhia":"PORTO DE SANTO ANTONIO - AUTARQUIA TERRITORI","cnpj":"40817926000199","legislacao":"Res. 5594/2017","pro_didade":null,"endereco":"Bairro de Santo Antônio","com_emento":null,"numero":null,"bairro":"Vila do Porto","cep":"53990000","idcidade":"2605459","cidade":null,"idestado":null,"estado":null,"idr_rafica":null,"reg_rafica":null,"loc_izacao":null,"latitude":"-3.83407","longitude":"-32.4009","observacao":null,"fonte":"Antaq","cdc_troide":null},"geometry":{"type":"Point","coordinates":[-32.401017,-3.834019]}}
]
}
