{
"type": "FeatureCollection",
"name": "TKU-2021-porto organizado",
"features": [
{"type":"Feature","properties":{"idi_tuaria":1,"idseq":0,"cdi_tuaria":"BRADR","nome":"Angra dos Reis  ","tipo":"Porto Organizado","cdbigrama":"BR","cdtrigrama":"ADR","cdterminal":null,"situacao":"Operando","gestao":"SEP","modalidade":"http://www.portosrio.gov.br","companhia":"TPAR - Terminal Portuário de Angra dos Reis","cnpj":null,"legislacao":"Lei 5.917/73","pro_didade":10.0,"endereco":"Avenida dos Reis Magos","com_emento":null,"numero":null,"bairro":null,"cep":"23900215","idcidade":"BR330010","cidade":"Angra dos Reis","idestado":"BR33","estado":"RJ","idr_rafica":12,"reg_rafica":"Região Hidrográfica Atlântico  Sudeste","loc_izacao":"Baía da Ilha Grande","latitude":"-23.011943°","longitude":"-44.316389°","observacao":null,"fonte":"ANTAQ","cdc_troide":"BRADR"},"geometry":{"type":"Point","coordinates":[-44.316389,-23.011943]}},
{"type":"Feature","properties":{"idi_tuaria":2,"idseq":0,"cdi_tuaria":"BRANT","nome":"Antonina","tipo":"Porto Organizado","cdbigrama":"BR","cdtrigrama":"ANT","cdterminal":null,"situacao":"Operando","gestao":"SEP","modalidade":"http://www.portosdoparana.pr.gov.br/","companhia":"Administração dos Portos de Paranaguá e Anto","cnpj":null,"legislacao":"Lei 5.917/73","pro_didade":6.0,"endereco":"Avenida Conde de Matarazzo","com_emento":null,"numero":2500,"bairro":null,"cep":"83370000","idcidade":"BR410120","cidade":"Antonina","idestado":"BR41","estado":"PR","idr_rafica":2,"reg_rafica":"Região Hidrográfica Atlântico Sul","loc_izacao":"Noroeste da Baia de Paranaguá","latitude":"-25.444167°","longitude":"-48.69333300000001°","observacao":null,"fonte":"ANTAQ","cdc_troide":"BRANT"},"geometry":{"type":"Point","coordinates":[-48.693333,-25.444167]}},
{"type":"Feature","properties":{"idi_tuaria":3,"idseq":0,"cdi_tuaria":"BRARB","nome":"Aratu  ","tipo":"Porto Organizado","cdbigrama":"BR","cdtrigrama":"ARB","cdterminal":null,"situacao":"Operando","gestao":"SEP","modalidade":"http://www.codeba.com.br/","companhia":"Companhia Docas do Estado da Bahia - Codeba","cnpj":null,"legislacao":"Lei 5.917/73","pro_didade":10.0,"endereco":"Via Matoin","com_emento":"Enseado do Caboto, próximo à entrada do canal de Cotegipe, em frente à costa leste da Ilha da Maré","numero":null,"bairro":"Baía de Aratu","cep":"43800000","idcidade":"BR290650","cidade":"Candeias","idestado":"BR29","estado":"BA","idr_rafica":5,"reg_rafica":"Região Hidrográfica Atlântico Leste","loc_izacao":"Baía de Todos os Santos","latitude":"-12.78111°","longitude":"-38.496943°","observacao":null,"fonte":"ANTAQ","cdc_troide":"BRARB"},"geometry":{"type":"Point","coordinates":[-38.496943,-12.78111]}},
{"type":"Feature","properties":{"idi_tuaria":4,"idseq":0,"cdi_tuaria":"BRARE","nome":"Areia Branca  ","tipo":"Porto Organizado","cdbigrama":"BR","cdtrigrama":"ARE","cdterminal":null,"situacao":"Operando","gestao":"SEP","modalidade":"http://codern.com.br/","companhia":"Companhia Docas do Rio Grande do Norte - COD","cnpj":null,"legislacao":null,"pro_didade":7.0,"endereco":"Cais Tertuliano Fernandes","com_emento":"Porto-ilha cerca de 14km distante da costa","numero":81,"bairro":null,"cep":"59655000","idcidade":"BR240110","cidade":"Areia Branca","idestado":"BR24","estado":"RN","idr_rafica":6,"reg_rafica":"Região Hidrográfica Atlântico Nordeste Oriental","loc_izacao":"Localizado a 26km a nordeste da cidade de Areia Branca","latitude":"-4.817777°","longitude":"-37.044722°","observacao":null,"fonte":"ANTAQ","cdc_troide":"BRARE"},"geometry":{"type":"Point","coordinates":[-37.044722,-4.817777]}},
{"type":"Feature","properties":{"idi_tuaria":6,"idseq":0,"cdi_tuaria":"BRCDO","nome":"Cabedelo  ","tipo":"Porto Organizado","cdbigrama":"BR","cdtrigrama":"CDO","cdterminal":null,"situacao":"Operando","gestao":"SEP","modalidade":"http://www.portodecabedelo.com.br/","companhia":"Companhia Docas da Paraíba - Docas PB","cnpj":null,"legislacao":"Lei 5.917/73","pro_didade":7.5,"endereco":"Rua Presidente João Pessoa","com_emento":"Em frente à Ilha da Restinga","numero":null,"bairro":"Centro","cep":"58310000","idcidade":"BR250320","cidade":"Cabedelo","idestado":"BR25","estado":"PB","idr_rafica":6,"reg_rafica":"Região Hidrográfica Atlântico Nordeste Oriental","loc_izacao":"Margem direita do estuário do Rio Paraíba do Norte","latitude":"-6.973055°","longitude":"-34.838611°","observacao":null,"fonte":"ANTAQ","cdc_troide":"BRCDO"},"geometry":{"type":"Point","coordinates":[-34.838611,-6.973055]}},
{"type":"Feature","properties":{"idi_tuaria":7,"idseq":0,"cdi_tuaria":"BRETL","nome":"Estrela","tipo":"Porto Organizado","cdbigrama":"BR","cdtrigrama":"ETL","cdterminal":null,"situacao":"Operando","gestao":"SEP","modalidade":"http://www.portodeestrela.com.br/","companhia":"Administração do Porto de Estrela, Vinculada","cnpj":null,"legislacao":"Lei 5.917/73","pro_didade":3.2,"endereco":"Avenida Augusto Frederico Markus","com_emento":null,"numero":null,"bairro":null,"cep":"95880000","idcidade":"BR430780","cidade":"Estrela","idestado":"BR43","estado":"RS","idr_rafica":2,"reg_rafica":"Região Hidrográfica Atlântico Sul","loc_izacao":"Margem esquerda do Rio Taquari","latitude":"-29.47361°","longitude":"-51.959443°","observacao":"Tem estrutura portuaria organizada.","fonte":"ANTAQ","cdc_troide":"BRETL"},"geometry":{"type":"Point","coordinates":[-51.959443,-29.47361]}},
{"type":"Feature","properties":{"idi_tuaria":8,"idseq":0,"cdi_tuaria":"BRFNO","nome":"Forno ","tipo":"Porto Organizado","cdbigrama":"BR","cdtrigrama":"FNO","cdterminal":null,"situacao":"Operando","gestao":"SEP","modalidade":"http://www.portodoforno.com.br/","companhia":"Companhia Municipal de Administração Portuár","cnpj":null,"legislacao":"Lei 5.917/73","pro_didade":11.0,"endereco":"Rua Santa Cruz","com_emento":null,"numero":100,"bairro":null,"cep":"28930000","idcidade":"BR330025","cidade":"Arraial do Cabo","idestado":"BR33","estado":"RJ","idr_rafica":12,"reg_rafica":"Região Hidrográfica Atlântico  Sudeste","loc_izacao":"Extremidade norte da Praia dos Anjos, junto ao Morro da Fortaleza","latitude":"-22.970278°","longitude":"-42.015555°","observacao":null,"fonte":"ANTAQ","cdc_troide":"BRFNO"},"geometry":{"type":"Point","coordinates":[-42.015555,-22.970278]}},
{"type":"Feature","properties":{"idi_tuaria":9,"idseq":0,"cdi_tuaria":"BRFOR","nome":"Fortaleza  ","tipo":"Porto Organizado","cdbigrama":"BR","cdtrigrama":"FOR","cdterminal":null,"situacao":"Operando","gestao":"SEP","modalidade":"http://www.docasdoceara.com.br/o-porto","companhia":"Companhia Docas do Ceará - CDC","cnpj":null,"legislacao":"Lei 5.917/73","pro_didade":8.0,"endereco":"Praça Amigos da Marinha","com_emento":null,"numero":null,"bairro":"Mucuripe","cep":"60182640","idcidade":"BR230440","cidade":"Fortaleza","idestado":"BR23","estado":"CE","idr_rafica":6,"reg_rafica":"Região Hidrográfica Atlântico Nordeste Oriental","loc_izacao":"Enseada de Mucuripe","latitude":"-3.709722000000001°","longitude":"-38.47361°","observacao":null,"fonte":"ANTAQ","cdc_troide":"BRFOR"},"geometry":{"type":"Point","coordinates":[-38.47361,-3.709722]}},
{"type":"Feature","properties":{"idi_tuaria":10,"idseq":0,"cdi_tuaria":"BRIOS","nome":"Ilhéus  ","tipo":"Porto Organizado","cdbigrama":"BR","cdtrigrama":"IOS","cdterminal":null,"situacao":"Operando","gestao":"SEP","modalidade":"http://www.codeba.com.br/","companhia":"Companhia Docas do Estado da Bahia - Codeba","cnpj":null,"legislacao":"Lei 5.917/73","pro_didade":10.0,"endereco":"Avenida Almirante Aurélio Linhares","com_emento":null,"numero":432,"bairro":null,"cep":"45660000","idcidade":"BR291360","cidade":"Ilhéus","idestado":"BR29","estado":"BA","idr_rafica":5,"reg_rafica":"Região Hidrográfica Atlântico Leste","loc_izacao":"Ponta do Malhado","latitude":"-14.778332°","longitude":"-39.026389°","observacao":null,"fonte":"ANTAQ","cdc_troide":"BRIOS"},"geometry":{"type":"Point","coordinates":[-39.026389,-14.778332]}},
{"type":"Feature","properties":{"idi_tuaria":11,"idseq":0,"cdi_tuaria":"BRIBB","nome":"Imbituba  ","tipo":"Porto Organizado","cdbigrama":"BR","cdtrigrama":"IBB","cdterminal":null,"situacao":"Operando","gestao":"SEP","modalidade":"http://www.portodeimbituba.com.br/site/index.php","companhia":"Companhia Docas de Imbituba - CDI","cnpj":null,"legislacao":"Lei 5.917/73","pro_didade":9.5,"endereco":"Avenida Presidente Vargas","com_emento":null,"numero":100,"bairro":null,"cep":"88780000","idcidade":"BR420730","cidade":"Imbituba","idestado":"BR42","estado":"SC","idr_rafica":2,"reg_rafica":"Região Hidrográfica Atlântico Sul","loc_izacao":"Localizado numa enseada aberta, junto à ponta de Imbituba","latitude":"-28.231389°","longitude":"-48.65416700000001°","observacao":null,"fonte":"ANTAQ","cdc_troide":"BRIBB"},"geometry":{"type":"Point","coordinates":[-48.654167,-28.231389]}},
{"type":"Feature","properties":{"idi_tuaria":13,"idseq":0,"cdi_tuaria":"BRITJ","nome":"Itajaí ","tipo":"Porto Organizado","cdbigrama":"BR","cdtrigrama":"ITJ","cdterminal":null,"situacao":"Operando","gestao":"SEP","modalidade":"http://www.portoitajai.com.br/novo/","companhia":"Superintendência do Porto de Itajaí","cnpj":null,"legislacao":"Lei 5.917/73","pro_didade":10.5,"endereco":"Rua Blumenau","com_emento":"Distante cerca de 3,2 quilômetros de sua foz, no Litoral Norte do estado de Santa Catarina","numero":5,"bairro":null,"cep":"88305101","idcidade":"BR420820","cidade":"Itajaí","idestado":"BR42","estado":"SC","idr_rafica":2,"reg_rafica":"Região Hidrográfica Atlântico Sul","loc_izacao":"Margem direita do Rio Itajaí-Açu","latitude":"-26.90083200000001°","longitude":"-48.666389°","observacao":null,"fonte":"ANTAQ","cdc_troide":"BRITJ"},"geometry":{"type":"Point","coordinates":[-48.666389,-26.900832]}},
{"type":"Feature","properties":{"idi_tuaria":15,"idseq":0,"cdi_tuaria":"BRLAG","nome":"Laguna","tipo":"Porto Organizado","cdbigrama":"BR","cdtrigrama":"LAG","cdterminal":null,"situacao":"Operando","gestao":"SEP","modalidade":"http://www.portodesantos.com.br/","companhia":null,"cnpj":null,"legislacao":"Lei 5.917/73","pro_didade":null,"endereco":null,"com_emento":null,"numero":null,"bairro":null,"cep":null,"idcidade":"BR420940","cidade":"Laguna","idestado":"BR42","estado":"SC","idr_rafica":2,"reg_rafica":"Região Hidrográfica Atlântico Sul","loc_izacao":null,"latitude":"-28.496666°","longitude":"-48.76972199999999°","observacao":null,"fonte":"ANTAQ","cdc_troide":null},"geometry":{"type":"Point","coordinates":[-48.769722,-28.496666]}},
{"type":"Feature","properties":{"idi_tuaria":17,"idseq":0,"cdi_tuaria":"BRMCZ","nome":"Maceió","tipo":"Porto Organizado","cdbigrama":"BR","cdtrigrama":"MCZ","cdterminal":null,"situacao":"Operando","gestao":"SEP","modalidade":"www.portodemaceio.com.br","companhia":"Companhia Docas do Rio Grande do Norte - COD","cnpj":null,"legislacao":null,"pro_didade":10.0,"endereco":"Rua Sá e Albuquerque","com_emento":null,"numero":null,"bairro":"Jaraguá","cep":"57025180","idcidade":"BR270430","cidade":"Maceió","idestado":"BR27","estado":"AL","idr_rafica":6,"reg_rafica":"Região Hidrográfica Atlântico Nordeste Oriental","loc_izacao":"Entre as praias de Pajuçara e Jaraguá","latitude":"-9.683056000000001°","longitude":"-35.726388°","observacao":null,"fonte":"ANTAQ","cdc_troide":"BRMCZ"},"geometry":{"type":"Point","coordinates":[-35.726388,-9.683056]}},
{"type":"Feature","properties":{"idi_tuaria":19,"idseq":0,"cdi_tuaria":"BRNAT","nome":"Natal","tipo":"Porto Organizado","cdbigrama":"BR","cdtrigrama":"NAT","cdterminal":null,"situacao":"Operando","gestao":"SEP","modalidade":"http://codern.com.br/porto-de-natal/","companhia":"Companhia Docas do Rio Grande do Norte - COD","cnpj":null,"legislacao":null,"pro_didade":10.0,"endereco":"Avenida Engenheiro Hildebrando de Góis","com_emento":"Distante 3km da sua foz","numero":220,"bairro":"Ribeira","cep":"59010700","idcidade":"BR240810","cidade":"Natal","idestado":"BR24","estado":"RN","idr_rafica":6,"reg_rafica":"Região Hidrográfica Atlântico Nordeste Oriental","loc_izacao":"Margem direita do Rio Potengi","latitude":"-5.772777°","longitude":"-35.204999°","observacao":null,"fonte":"ANTAQ","cdc_troide":"BRNAT"},"geometry":{"type":"Point","coordinates":[-35.204999,-5.772777]}},
{"type":"Feature","properties":{"idi_tuaria":20,"idseq":0,"cdi_tuaria":"BRNTR","nome":"Niterói  ","tipo":"Porto Organizado","cdbigrama":"BR","cdtrigrama":"NTR","cdterminal":null,"situacao":"Operando","gestao":"SEP","modalidade":"http://www.portosrio.gov.br/","companhia":"Companhia Docas do Rio de Janeiro - CDRJ","cnpj":null,"legislacao":null,"pro_didade":6.0,"endereco":"Avenida Feliciano Sodré","com_emento":null,"numero":215,"bairro":"Centro","cep":"24012030","idcidade":"BR330330","cidade":"Niterói","idestado":"BR33","estado":"RJ","idr_rafica":12,"reg_rafica":"Região Hidrográfica Atlântico  Sudeste","loc_izacao":"Costa leste da Baía de Guanabara","latitude":"-22.882221°","longitude":"-43.11611°","observacao":null,"fonte":"ANTAQ","cdc_troide":"BRNTR"},"geometry":{"type":"Point","coordinates":[-43.11611,-22.882221]}},
{"type":"Feature","properties":{"idi_tuaria":21,"idseq":0,"cdi_tuaria":"BRPNG","nome":"Paranaguá","tipo":"Porto Organizado","cdbigrama":"BR","cdtrigrama":"PNG","cdterminal":null,"situacao":"Operando","gestao":"SEP","modalidade":"http://www.portosdoparana.pr.gov.br/","companhia":"Administração dos Portos de Paranaguá e Anto","cnpj":null,"legislacao":null,"pro_didade":12.0,"endereco":"Rua Antonio Pereira","com_emento":null,"numero":161,"bairro":null,"cep":"83221030","idcidade":"BR411820","cidade":"Paranaguá","idestado":"BR41","estado":"PR","idr_rafica":2,"reg_rafica":"Região Hidrográfica Atlântico Sul","loc_izacao":"Parte sul da Baía de Paranaguá","latitude":"-25.502221°","longitude":"-48.505555°","observacao":null,"fonte":"ANTAQ","cdc_troide":"BRPNG"},"geometry":{"type":"Point","coordinates":[-48.505555,-25.502221]}},
{"type":"Feature","properties":{"idi_tuaria":22,"idseq":0,"cdi_tuaria":"BRPET","nome":"Pelotas  ","tipo":"Porto Organizado","cdbigrama":"BR","cdtrigrama":"PET","cdterminal":null,"situacao":"Operando","gestao":"SEP","modalidade":"http://www.sph.rs.gov.br/sph_2006/content/porto_pel/porto_pel_apresentacao.php","companhia":null,"cnpj":null,"legislacao":null,"pro_didade":null,"endereco":null,"com_emento":null,"numero":null,"bairro":null,"cep":null,"idcidade":"BR431440","cidade":"Pelotas","idestado":"BR43","estado":"RS","idr_rafica":2,"reg_rafica":"Região Hidrográfica Atlântico Sul","loc_izacao":null,"latitude":"-31.781943°","longitude":"-52.333888°","observacao":null,"fonte":"ANTAQ","cdc_troide":"BRPET"},"geometry":{"type":"Point","coordinates":[-52.333888,-31.781943]}},
{"type":"Feature","properties":{"idi_tuaria":23,"idseq":0,"cdi_tuaria":"BRPOA","nome":"Porto Alegre  ","tipo":"Porto Organizado","cdbigrama":"BR","cdtrigrama":"POA","cdterminal":null,"situacao":"Operando","gestao":"SEP","modalidade":"http://www.sph.rs.gov.br/sph_2006/content/porto_poa/porto_poa_apresentacao.php","companhia":"Superintendência de Portos e Hidrovias do Ri","cnpj":null,"legislacao":null,"pro_didade":5.2,"endereco":"Avenida Mauá","com_emento":null,"numero":1050,"bairro":"Centro","cep":"90010110","idcidade":"BR431490","cidade":"Porto Alegre","idestado":"BR43","estado":"RS","idr_rafica":2,"reg_rafica":"Região Hidrográfica Atlântico Sul","loc_izacao":"Margem esquerda do Rio Guaíba","latitude":"-30.007221°","longitude":"-51.211111°","observacao":null,"fonte":"ANTAQ","cdc_troide":"BRPOA"},"geometry":{"type":"Point","coordinates":[-51.211111,-30.007221]}},
{"type":"Feature","properties":{"idi_tuaria":25,"idseq":0,"cdi_tuaria":"BRREC","nome":"Recife  ","tipo":"Porto Organizado","cdbigrama":"BR","cdtrigrama":"REC","cdterminal":null,"situacao":"Operando","gestao":"SEP","modalidade":"http://www.portodorecife.pe.gov.br/","companhia":"Porto do Recife SA - Estado de Pernambuco","cnpj":null,"legislacao":null,"pro_didade":9.5,"endereco":"Praça Artur Oscar","com_emento":null,"numero":null,"bairro":"Encruzilhada","cep":"50030370","idcidade":"BR261160","cidade":"Recife","idestado":"BR26","estado":"PE","idr_rafica":6,"reg_rafica":"Região Hidrográfica Atlântico Nordeste Oriental","loc_izacao":"Confluência e às margens dos rios Capibaribe, ao sul, e Beberibe, no local onde desaguam no oceano Atlântico","latitude":"-8.053888000000001°","longitude":"-34.868332°","observacao":null,"fonte":"ANTAQ","cdc_troide":"BRREC"},"geometry":{"type":"Point","coordinates":[-34.868332,-8.053888]}},
{"type":"Feature","properties":{"idi_tuaria":26,"idseq":0,"cdi_tuaria":"BRRIO","nome":"Rio de Janeiro ","tipo":"Porto Organizado","cdbigrama":"BR","cdtrigrama":"RIO","cdterminal":null,"situacao":"Operando","gestao":"SEP","modalidade":"http://www.portosrio.gov.br/","companhia":"Companhia Docas do Rio de Janeiro - CDRJ","cnpj":null,"legislacao":null,"pro_didade":12.0,"endereco":"Avenida Rodrigues Alves","com_emento":null,"numero":20,"bairro":"Praça Mauá","cep":"20081000","idcidade":"BR330455","cidade":"Rio de Janeiro","idestado":"BR33","estado":"RJ","idr_rafica":12,"reg_rafica":"Região Hidrográfica Atlântico  Sudeste","loc_izacao":"Costa oeste da Baía de Guanabara","latitude":"-22.892222°","longitude":"-43.195278°","observacao":null,"fonte":"ANTAQ","cdc_troide":"BRRIO"},"geometry":{"type":"Point","coordinates":[-43.195278,-22.892222]}},
{"type":"Feature","properties":{"idi_tuaria":27,"idseq":0,"cdi_tuaria":"BRRIG","nome":"Rio Grande  ","tipo":"Porto Organizado","cdbigrama":"BR","cdtrigrama":"RIG","cdterminal":null,"situacao":"Operando","gestao":"SEP","modalidade":"http://www.portoriogrande.com.br/site/index.php","companhia":"Superintendência de Portos e Hidrovias do Ri","cnpj":null,"legislacao":null,"pro_didade":14.0,"endereco":"Avenida Honório Bicalho","com_emento":"Caixa Postal 198. Liga a Lagoa dos Patos ao oceano Atlântico","numero":null,"bairro":null,"cep":"96201020","idcidade":"BR431560","cidade":"Rio Grande","idestado":"BR43","estado":"RS","idr_rafica":2,"reg_rafica":"Região Hidrográfica Atlântico Sul","loc_izacao":"Margem direita do Canal do Norte","latitude":"-32.042499°","longitude":"-52.075555°","observacao":null,"fonte":"ANTAQ","cdc_troide":"BRRIG"},"geometry":{"type":"Point","coordinates":[-52.075555,-32.042499]}},
{"type":"Feature","properties":{"idi_tuaria":28,"idseq":0,"cdi_tuaria":"BRSSA","nome":"Salvador ","tipo":"Porto Organizado","cdbigrama":"BR","cdtrigrama":"SSA","cdterminal":null,"situacao":"Operando","gestao":"SEP","modalidade":"http://www.codeba.com.br/eficiente/sites/portalcodeba/pt-br/home.php","companhia":"Companhia Docas do Estado da Bahia - Codeba","cnpj":null,"legislacao":null,"pro_didade":8.2,"endereco":"Avenida da França","com_emento":"Entre a Ponta do Monte Serrat, ao norte, e a ponta de Santo Antônio, ao sul","numero":1551,"bairro":"Estação Marítima / Comércio","cep":"40010000","idcidade":"BR292740","cidade":"Salvador","idestado":"BR29","estado":"BA","idr_rafica":5,"reg_rafica":"Região Hidrográfica Atlântico Leste","loc_izacao":"Baía de Todos os Santos","latitude":"-12.965277°","longitude":"-38.509444°","observacao":null,"fonte":"ANTAQ","cdc_troide":"BRSSA"},"geometry":{"type":"Point","coordinates":[-38.509444,-12.965277]}},
{"type":"Feature","properties":{"idi_tuaria":30,"idseq":0,"cdi_tuaria":"BRSSZ","nome":"Santos  ","tipo":"Porto Organizado","cdbigrama":"BR","cdtrigrama":"SSZ","cdterminal":null,"situacao":"Operando","gestao":"SEP","modalidade":"www.portodesantos.com.br/","companhia":"Companhia Docas do Estado de São Paulo - Cod","cnpj":null,"legislacao":null,"pro_didade":14.0,"endereco":"Avenida Conselheiro Rodrigues Alves","com_emento":null,"numero":null,"bairro":"Macuco","cep":"11015900","idcidade":"BR351870","cidade":"Guarujá","idestado":"BR35","estado":"SP","idr_rafica":12,"reg_rafica":"Região Hidrográfica Atlântico  Sudeste","loc_izacao":null,"latitude":"-23.966053°","longitude":"-46.301939°","observacao":null,"fonte":"ANTAQ","cdc_troide":"BRSSZ"},"geometry":{"type":"Point","coordinates":[-46.291944,-23.961666]}},
{"type":"Feature","properties":{"idi_tuaria":31,"idseq":0,"cdi_tuaria":"BRSSO","nome":"São Sebastião ","tipo":"Porto Organizado","cdbigrama":"BR","cdtrigrama":"SSO","cdterminal":null,"situacao":"Operando","gestao":"SEP","modalidade":"http://www.portoss.sp.gov.br","companhia":"Companhia Docas de São Sebastião - CDSS","cnpj":null,"legislacao":null,"pro_didade":8.2,"endereco":"Avenida Guarda-Mor Lobo Viana","com_emento":"Ilhabela, litoral norte do Estado de São Paulo","numero":1111,"bairro":"Centro","cep":null,"idcidade":"BR355070","cidade":"São Sebastião","idestado":"BR35","estado":"SP","idr_rafica":12,"reg_rafica":"Região Hidrográfica Atlântico  Sudeste","loc_izacao":"Em frente à Ilha de São Sebastião","latitude":"-23.811111°","longitude":"-45.39749999999999°","observacao":null,"fonte":"ANTAQ","cdc_troide":"BRSSO"},"geometry":{"type":"Point","coordinates":[-45.3975,-23.811111]}},
{"type":"Feature","properties":{"idi_tuaria":32,"idseq":0,"cdi_tuaria":"BRSFS","nome":"São Francisco do Sul  ","tipo":"Porto Organizado","cdbigrama":"BR","cdtrigrama":"SFS","cdterminal":null,"situacao":"Operando","gestao":"SEP","modalidade":"http://www.apsfs.sc.gov.br/","companhia":"Administração do Porto de São Francisco do S","cnpj":null,"legislacao":null,"pro_didade":10.0,"endereco":"Avenida Engenheiro Leite Ribeiro","com_emento":null,"numero":782,"bairro":null,"cep":"89240000","idcidade":"BR421620","cidade":"São Francisco do Sul","idestado":"BR42","estado":"SC","idr_rafica":2,"reg_rafica":"Região Hidrográfica Atlântico Sul","loc_izacao":"Parte leste da Baía da Babitonga","latitude":"-26.238889°","longitude":"-48.634721°","observacao":null,"fonte":"ANTAQ","cdc_troide":"BRSFS"},"geometry":{"type":"Point","coordinates":[-48.634721,-26.238889]}},
{"type":"Feature","properties":{"idi_tuaria":33,"idseq":0,"cdi_tuaria":"BRSUA","nome":"Suape  ","tipo":"Porto Organizado","cdbigrama":"BR","cdtrigrama":"SUA","cdterminal":null,"situacao":"Operando","gestao":"SEP","modalidade":"http://www.suape.pe.gov.br/home/index.php","companhia":"Governo do Estado de Pernambuco","cnpj":null,"legislacao":null,"pro_didade":14.0,"endereco":"Rodovia PE060","com_emento":"Avenida Portuária - Km 10. Próximo à foz dos rios Tatuoca e Masangana","numero":null,"bairro":"Engenho Massangana","cep":null,"idcidade":"BR260720","cidade":"Ipojuca","idestado":"BR26","estado":"PE","idr_rafica":6,"reg_rafica":"Região Hidrográfica Atlântico Nordeste Oriental","loc_izacao":"Litoral sul do estado de Pernambuco","latitude":"-8.391944000000001°","longitude":"-34.968611°","observacao":null,"fonte":"ANTAQ","cdc_troide":"BRSUA"},"geometry":{"type":"Point","coordinates":[-34.968611,-8.391944]}},
{"type":"Feature","properties":{"idi_tuaria":35,"idseq":0,"cdi_tuaria":"BRVIX","nome":"Vitória  ","tipo":"Porto Organizado","cdbigrama":"BR","cdtrigrama":"VIX","cdterminal":null,"situacao":"Operando","gestao":"SEP","modalidade":"http://www.codesa.gov.br/site/","companhia":"Companhia Docas do Espírito Santo - Codesa","cnpj":null,"legislacao":null,"pro_didade":11.0,"endereco":"Avenida Getúlio Vargas","com_emento":"Ocupa parte da cidade de Vitória e de Vila Velha","numero":556,"bairro":"Centro","cep":"29010040","idcidade":"BR320530","cidade":"Vitória","idestado":"BR32","estado":"ES","idr_rafica":12,"reg_rafica":"Região Hidrográfica Atlântico  Sudeste","loc_izacao":"Distribuído em ambos os lados da Baía de Vitória","latitude":"-20.3225°","longitude":"-40.339444°","observacao":null,"fonte":"ANTAQ","cdc_troide":"BRVIX"},"geometry":{"type":"Point","coordinates":[-40.339444,-20.3225]}},
{"type":"Feature","properties":{"idi_tuaria":37,"idseq":0,"cdi_tuaria":"BRPCL","nome":"Barra do Riacho","tipo":"Porto Organizado","cdbigrama":"BR","cdtrigrama":"PCL","cdterminal":null,"situacao":"Operando","gestao":"SEP","modalidade":"http://www.portocel.com.br/pt/index.htm","companhia":null,"cnpj":null,"legislacao":"Lei 5.917/73","pro_didade":null,"endereco":null,"com_emento":null,"numero":null,"bairro":null,"cep":null,"idcidade":"BR320060","cidade":"Aracruz","idestado":"BR32","estado":"ES","idr_rafica":12,"reg_rafica":"Região Hidrográfica Atlântico  Sudeste","loc_izacao":null,"latitude":"-19.838499°","longitude":"-40.058399°","observacao":null,"fonte":"ANTAQ","cdc_troide":"BRPCL"},"geometry":{"type":"Point","coordinates":[-40.058399,-19.838499]}},
{"type":"Feature","properties":{"idi_tuaria":1229,"idseq":0,"cdi_tuaria":"BRQDB","nome":"Cachoeira do Sul","tipo":"Porto Organizado","cdbigrama":"BR","cdtrigrama":"QDB","cdterminal":null,"situacao":"Inoperante","gestao":"SEP","modalidade":null,"companhia":"SPH","cnpj":null,"legislacao":"Lei 11.297/06","pro_didade":null,"endereco":null,"com_emento":null,"numero":null,"bairro":null,"cep":null,"idcidade":"BR430300","cidade":"Cachoeira do Sul","idestado":"BR43","estado":"RS","idr_rafica":2,"reg_rafica":"Região Hidrográfica Atlântico Sul","loc_izacao":"Rio Jacuí","latitude":"-30.0518°","longitude":"-52.87899899999999°","observacao":null,"fonte":"SNV/DNIT","cdc_troide":"BRQDB"},"geometry":{"type":"Point","coordinates":[-52.878999,-30.0518]}},
{"type":"Feature","properties":{"idi_tuaria":300237,"idseq":0,"cdi_tuaria":"BRIGI","nome":"Itaguaí (Sepetiba) ","tipo":"Porto Organizado","cdbigrama":"BR","cdtrigrama":"IGI","cdterminal":null,"situacao":"Operando","gestao":"SEP","modalidade":"http://itaguai.portosrio.gov.br/","companhia":null,"cnpj":null,"legislacao":"Lei 5.917/73","pro_didade":null,"endereco":null,"com_emento":null,"numero":null,"bairro":null,"cep":null,"idcidade":"BR330200","cidade":"Itaguaí","idestado":"BR33","estado":"RJ","idr_rafica":12,"reg_rafica":"Região Hidrográfica Atlântico  Sudeste","loc_izacao":null,"latitude":"-22.930278°","longitude":"-43.837778°","observacao":null,"fonte":"ANTAQ","cdc_troide":"BRSPB"},"geometry":{"type":"Point","coordinates":[-43.840555,-22.918888]}}
]
}
