{
"type": "FeatureCollection",
"name": "TKU-2021-cabotagem portos destino",
"features": [
{"type":"Feature","properties":{"idi_tuaria":1,"idseq":0,"cdi_tuaria":"BRADR","nome":"Angra dos Reis  ","tipo":"Porto Organizado","cdbigrama":"BR","cdtrigrama":"ADR","cdterminal":null,"situacao":"Operando","gestao":"SEP","modalidade":"http://www.portosrio.gov.br","companhia":"TPAR - Terminal Portuário de Angra dos Reis","cnpj":null,"legislacao":"Lei 5.917/73","pro_didade":10.0,"endereco":"Avenida dos Reis Magos","com_emento":null,"numero":null,"bairro":null,"cep":"23900215","idcidade":"BR330010","cidade":"Angra dos Reis","idestado":"BR33","estado":"RJ","idr_rafica":12,"reg_rafica":"Região Hidrográfica Atlântico  Sudeste","loc_izacao":"Baía da Ilha Grande","latitude":"-23.011943°","longitude":"-44.316389°","observacao":null,"fonte":"ANTAQ","cdc_troide":"BRADR","CP_Fluxo_c":"300161","CP_Fluxo_1":"Portos","CP_Fluxo_2":"FPSO PETROBRAS 66","CP_Fluxo_3":"Origem","CP_Fluxo_4":"0","CP_Fluxo_5":"Portos","CP_Fluxo_6":"Angra dos Reis","CP_Fluxo_7":"Destino","CP_Fluxo_8":"4","CP_Fluxo_9":"15000","CP_Fluxo10":"t","CP_Fluxo11":"carga"},"geometry":{"type":"Point","coordinates":[-44.316389,-23.011943]}},
{"type":"Feature","properties":{"idi_tuaria":2,"idseq":0,"cdi_tuaria":"BRANT","nome":"Antonina","tipo":"Porto Organizado","cdbigrama":"BR","cdtrigrama":"ANT","cdterminal":null,"situacao":"Operando","gestao":"SEP","modalidade":"http://www.portosdoparana.pr.gov.br/","companhia":"Administração dos Portos de Paranaguá e Anto","cnpj":null,"legislacao":"Lei 5.917/73","pro_didade":6.0,"endereco":"Avenida Conde de Matarazzo","com_emento":null,"numero":2500,"bairro":null,"cep":"83370000","idcidade":"BR410120","cidade":"Antonina","idestado":"BR41","estado":"PR","idr_rafica":2,"reg_rafica":"Região Hidrográfica Atlântico Sul","loc_izacao":"Noroeste da Baia de Paranaguá","latitude":"-25.444167°","longitude":"-48.69333300000001°","observacao":null,"fonte":"ANTAQ","cdc_troide":"BRANT","CP_Fluxo_c":"17","CP_Fluxo_1":"Portos","CP_Fluxo_2":"Maceió","CP_Fluxo_3":"Origem","CP_Fluxo_4":"0","CP_Fluxo_5":"Portos","CP_Fluxo_6":"Antonina","CP_Fluxo_7":"Destino","CP_Fluxo_8":"4","CP_Fluxo_9":"14935,58","CP_Fluxo10":"t","CP_Fluxo11":"carga"},"geometry":{"type":"Point","coordinates":[-48.693333,-25.444167]}},
{"type":"Feature","properties":{"idi_tuaria":3,"idseq":0,"cdi_tuaria":"BRARB","nome":"Aratu  ","tipo":"Porto Organizado","cdbigrama":"BR","cdtrigrama":"ARB","cdterminal":null,"situacao":"Operando","gestao":"SEP","modalidade":"http://www.codeba.com.br/","companhia":"Companhia Docas do Estado da Bahia - Codeba","cnpj":null,"legislacao":"Lei 5.917/73","pro_didade":10.0,"endereco":"Via Matoin","com_emento":"Enseado do Caboto, próximo à entrada do canal de Cotegipe, em frente à costa leste da Ilha da Maré","numero":null,"bairro":"Baía de Aratu","cep":"43800000","idcidade":"BR290650","cidade":"Candeias","idestado":"BR29","estado":"BA","idr_rafica":5,"reg_rafica":"Região Hidrográfica Atlântico Leste","loc_izacao":"Baía de Todos os Santos","latitude":"-12.78111°","longitude":"-38.496943°","observacao":null,"fonte":"ANTAQ","cdc_troide":"BRARB","CP_Fluxo_c":"30","CP_Fluxo_1":"Portos","CP_Fluxo_2":"Santos","CP_Fluxo_3":"Origem","CP_Fluxo_4":"0","CP_Fluxo_5":"Portos","CP_Fluxo_6":"Aratu","CP_Fluxo_7":"Destino","CP_Fluxo_8":"4","CP_Fluxo_9":"1005,88","CP_Fluxo10":"t","CP_Fluxo11":"carga"},"geometry":{"type":"Point","coordinates":[-38.496943,-12.78111]}},
{"type":"Feature","properties":{"idi_tuaria":4,"idseq":0,"cdi_tuaria":"BRARE","nome":"Areia Branca  ","tipo":"Porto Organizado","cdbigrama":"BR","cdtrigrama":"ARE","cdterminal":null,"situacao":"Operando","gestao":"SEP","modalidade":"http://codern.com.br/","companhia":"Companhia Docas do Rio Grande do Norte - COD","cnpj":null,"legislacao":null,"pro_didade":7.0,"endereco":"Cais Tertuliano Fernandes","com_emento":"Porto-ilha cerca de 14km distante da costa","numero":81,"bairro":null,"cep":"59655000","idcidade":"BR240110","cidade":"Areia Branca","idestado":"BR24","estado":"RN","idr_rafica":6,"reg_rafica":"Região Hidrográfica Atlântico Nordeste Oriental","loc_izacao":"Localizado a 26km a nordeste da cidade de Areia Branca","latitude":"-4.817777°","longitude":"-37.044722°","observacao":null,"fonte":"ANTAQ","cdc_troide":"BRARE","CP_Fluxo_c":"300327","CP_Fluxo_1":"Portos","CP_Fluxo_2":"Terminal de Embarque Marítimo da Salina Diamante Branco","CP_Fluxo_3":"Origem","CP_Fluxo_4":"0","CP_Fluxo_5":"Portos","CP_Fluxo_6":"Areia Branca","CP_Fluxo_7":"Destino","CP_Fluxo_8":"4","CP_Fluxo_9":"156775,8","CP_Fluxo10":"t","CP_Fluxo11":"carga"},"geometry":{"type":"Point","coordinates":[-37.044722,-4.817777]}},
{"type":"Feature","properties":{"idi_tuaria":5,"idseq":0,"cdi_tuaria":"BRBEL","nome":"Belém  ","tipo":"Porto Organizado","cdbigrama":"BR","cdtrigrama":"BEL","cdterminal":null,"situacao":"Operando","gestao":"SEP","modalidade":"https://www.cdp.com.br/home","companhia":"Companhia Docas do Pará - CDP","cnpj":null,"legislacao":"Lei 5.917/73","pro_didade":9.0,"endereco":"Avenida Presidente Vargas","com_emento":"Em frente à Ilha das Onças","numero":41,"bairro":null,"cep":"66010000","idcidade":"BR150140","cidade":"Belém","idestado":"BR15","estado":"PA","idr_rafica":10,"reg_rafica":"Região Hidrográfica do Tocantins","loc_izacao":"Margem direita da Baía de Guajará","latitude":"-1.445278°","longitude":"-48.497777°","observacao":null,"fonte":"ANTAQ","cdc_troide":"BRBEL","CP_Fluxo_c":"9","CP_Fluxo_1":"Portos","CP_Fluxo_2":"Fortaleza","CP_Fluxo_3":"Origem","CP_Fluxo_4":"0","CP_Fluxo_5":"Portos","CP_Fluxo_6":"Belém","CP_Fluxo_7":"Destino","CP_Fluxo_8":"4","CP_Fluxo_9":"0,01","CP_Fluxo10":"t","CP_Fluxo11":"carga"},"geometry":{"type":"Point","coordinates":[-48.497777,-1.445278]}},
{"type":"Feature","properties":{"idi_tuaria":6,"idseq":0,"cdi_tuaria":"BRCDO","nome":"Cabedelo  ","tipo":"Porto Organizado","cdbigrama":"BR","cdtrigrama":"CDO","cdterminal":null,"situacao":"Operando","gestao":"SEP","modalidade":"http://www.portodecabedelo.com.br/","companhia":"Companhia Docas da Paraíba - Docas PB","cnpj":null,"legislacao":"Lei 5.917/73","pro_didade":7.5,"endereco":"Rua Presidente João Pessoa","com_emento":"Em frente à Ilha da Restinga","numero":null,"bairro":"Centro","cep":"58310000","idcidade":"BR250320","cidade":"Cabedelo","idestado":"BR25","estado":"PB","idr_rafica":6,"reg_rafica":"Região Hidrográfica Atlântico Nordeste Oriental","loc_izacao":"Margem direita do estuário do Rio Paraíba do Norte","latitude":"-6.973055°","longitude":"-34.838611°","observacao":null,"fonte":"ANTAQ","cdc_troide":"BRCDO","CP_Fluxo_c":"33","CP_Fluxo_1":"Portos","CP_Fluxo_2":"Suape","CP_Fluxo_3":"Origem","CP_Fluxo_4":"0","CP_Fluxo_5":"Portos","CP_Fluxo_6":"Cabedelo","CP_Fluxo_7":"Destino","CP_Fluxo_8":"4","CP_Fluxo_9":"13743,631","CP_Fluxo10":"t","CP_Fluxo11":"carga"},"geometry":{"type":"Point","coordinates":[-34.838611,-6.973055]}},
{"type":"Feature","properties":{"idi_tuaria":8,"idseq":0,"cdi_tuaria":"BRFNO","nome":"Forno ","tipo":"Porto Organizado","cdbigrama":"BR","cdtrigrama":"FNO","cdterminal":null,"situacao":"Operando","gestao":"SEP","modalidade":"http://www.portodoforno.com.br/","companhia":"Companhia Municipal de Administração Portuár","cnpj":null,"legislacao":"Lei 5.917/73","pro_didade":11.0,"endereco":"Rua Santa Cruz","com_emento":null,"numero":100,"bairro":null,"cep":"28930000","idcidade":"BR330025","cidade":"Arraial do Cabo","idestado":"BR33","estado":"RJ","idr_rafica":12,"reg_rafica":"Região Hidrográfica Atlântico  Sudeste","loc_izacao":"Extremidade norte da Praia dos Anjos, junto ao Morro da Fortaleza","latitude":"-22.970278°","longitude":"-42.015555°","observacao":null,"fonte":"ANTAQ","cdc_troide":"BRFNO","CP_Fluxo_c":"4","CP_Fluxo_1":"Portos","CP_Fluxo_2":"Areia Branca","CP_Fluxo_3":"Origem","CP_Fluxo_4":"0","CP_Fluxo_5":"Portos","CP_Fluxo_6":"Forno","CP_Fluxo_7":"Destino","CP_Fluxo_8":"4","CP_Fluxo_9":"19300","CP_Fluxo10":"t","CP_Fluxo11":"carga"},"geometry":{"type":"Point","coordinates":[-42.015555,-22.970278]}},
{"type":"Feature","properties":{"idi_tuaria":9,"idseq":0,"cdi_tuaria":"BRFOR","nome":"Fortaleza  ","tipo":"Porto Organizado","cdbigrama":"BR","cdtrigrama":"FOR","cdterminal":null,"situacao":"Operando","gestao":"SEP","modalidade":"http://www.docasdoceara.com.br/o-porto","companhia":"Companhia Docas do Ceará - CDC","cnpj":null,"legislacao":"Lei 5.917/73","pro_didade":8.0,"endereco":"Praça Amigos da Marinha","com_emento":null,"numero":null,"bairro":"Mucuripe","cep":"60182640","idcidade":"BR230440","cidade":"Fortaleza","idestado":"BR23","estado":"CE","idr_rafica":6,"reg_rafica":"Região Hidrográfica Atlântico Nordeste Oriental","loc_izacao":"Enseada de Mucuripe","latitude":"-3.709722000000001°","longitude":"-38.47361°","observacao":null,"fonte":"ANTAQ","cdc_troide":"BRFOR","CP_Fluxo_c":"166","CP_Fluxo_1":"Portos","CP_Fluxo_2":"Portonave - Terminais Portuários de Navegantes","CP_Fluxo_3":"Origem","CP_Fluxo_4":"0","CP_Fluxo_5":"Portos","CP_Fluxo_6":"Fortaleza","CP_Fluxo_7":"Destino","CP_Fluxo_8":"4","CP_Fluxo_9":"4,5","CP_Fluxo10":"t","CP_Fluxo11":"carga"},"geometry":{"type":"Point","coordinates":[-38.47361,-3.709722]}},
{"type":"Feature","properties":{"idi_tuaria":11,"idseq":0,"cdi_tuaria":"BRIBB","nome":"Imbituba  ","tipo":"Porto Organizado","cdbigrama":"BR","cdtrigrama":"IBB","cdterminal":null,"situacao":"Operando","gestao":"SEP","modalidade":"http://www.portodeimbituba.com.br/site/index.php","companhia":"Companhia Docas de Imbituba - CDI","cnpj":null,"legislacao":"Lei 5.917/73","pro_didade":9.5,"endereco":"Avenida Presidente Vargas","com_emento":null,"numero":100,"bairro":null,"cep":"88780000","idcidade":"BR420730","cidade":"Imbituba","idestado":"BR42","estado":"SC","idr_rafica":2,"reg_rafica":"Região Hidrográfica Atlântico Sul","loc_izacao":"Localizado numa enseada aberta, junto à ponta de Imbituba","latitude":"-28.231389°","longitude":"-48.65416700000001°","observacao":null,"fonte":"ANTAQ","cdc_troide":"BRIBB","CP_Fluxo_c":"27","CP_Fluxo_1":"Portos","CP_Fluxo_2":"Rio Grande","CP_Fluxo_3":"Origem","CP_Fluxo_4":"0","CP_Fluxo_5":"Portos","CP_Fluxo_6":"Imbituba","CP_Fluxo_7":"Destino","CP_Fluxo_8":"4","CP_Fluxo_9":"186,9","CP_Fluxo10":"t","CP_Fluxo11":"carga"},"geometry":{"type":"Point","coordinates":[-48.654167,-28.231389]}},
{"type":"Feature","properties":{"idi_tuaria":13,"idseq":0,"cdi_tuaria":"BRITJ","nome":"Itajaí ","tipo":"Porto Organizado","cdbigrama":"BR","cdtrigrama":"ITJ","cdterminal":null,"situacao":"Operando","gestao":"SEP","modalidade":"http://www.portoitajai.com.br/novo/","companhia":"Superintendência do Porto de Itajaí","cnpj":null,"legislacao":"Lei 5.917/73","pro_didade":10.5,"endereco":"Rua Blumenau","com_emento":"Distante cerca de 3,2 quilômetros de sua foz, no Litoral Norte do estado de Santa Catarina","numero":5,"bairro":null,"cep":"88305101","idcidade":"BR420820","cidade":"Itajaí","idestado":"BR42","estado":"SC","idr_rafica":2,"reg_rafica":"Região Hidrográfica Atlântico Sul","loc_izacao":"Margem direita do Rio Itajaí-Açu","latitude":"-26.90083200000001°","longitude":"-48.666389°","observacao":null,"fonte":"ANTAQ","cdc_troide":"BRITJ","CP_Fluxo_c":"21","CP_Fluxo_1":"Portos","CP_Fluxo_2":"Paranaguá","CP_Fluxo_3":"Origem","CP_Fluxo_4":"0","CP_Fluxo_5":"Portos","CP_Fluxo_6":"Itajaí","CP_Fluxo_7":"Destino","CP_Fluxo_8":"4","CP_Fluxo_9":"4416,556","CP_Fluxo10":"t","CP_Fluxo11":"carga"},"geometry":{"type":"Point","coordinates":[-48.666389,-26.900832]}},
{"type":"Feature","properties":{"idi_tuaria":17,"idseq":0,"cdi_tuaria":"BRMCZ","nome":"Maceió","tipo":"Porto Organizado","cdbigrama":"BR","cdtrigrama":"MCZ","cdterminal":null,"situacao":"Operando","gestao":"SEP","modalidade":"www.portodemaceio.com.br","companhia":"Companhia Docas do Rio Grande do Norte - COD","cnpj":null,"legislacao":null,"pro_didade":10.0,"endereco":"Rua Sá e Albuquerque","com_emento":null,"numero":null,"bairro":"Jaraguá","cep":"57025180","idcidade":"BR270430","cidade":"Maceió","idestado":"BR27","estado":"AL","idr_rafica":6,"reg_rafica":"Região Hidrográfica Atlântico Nordeste Oriental","loc_izacao":"Entre as praias de Pajuçara e Jaraguá","latitude":"-9.683056000000001°","longitude":"-35.726388°","observacao":null,"fonte":"ANTAQ","cdc_troide":"BRMCZ","CP_Fluxo_c":"28","CP_Fluxo_1":"Portos","CP_Fluxo_2":"Salvador","CP_Fluxo_3":"Origem","CP_Fluxo_4":"0","CP_Fluxo_5":"Portos","CP_Fluxo_6":"Maceió","CP_Fluxo_7":"Destino","CP_Fluxo_8":"4","CP_Fluxo_9":"1764,883","CP_Fluxo10":"t","CP_Fluxo11":"carga"},"geometry":{"type":"Point","coordinates":[-35.726388,-9.683056]}},
{"type":"Feature","properties":{"idi_tuaria":18,"idseq":0,"cdi_tuaria":"BRMAO","nome":"Manaus","tipo":"Porto Organizado","cdbigrama":"BR","cdtrigrama":"MAO","cdterminal":null,"situacao":"Operando","gestao":"SEP","modalidade":"www.portodemanaus.com.br","companhia":"Sociedade de Navegação, Portos e Hidrovias d","cnpj":null,"legislacao":null,"pro_didade":13.5,"endereco":"Rua Taqueirinha","com_emento":"Distante 13 km da confluência com o Rio Solimões","numero":25,"bairro":"Centro","cep":"69005420","idcidade":"BR130260","cidade":"Manaus","idestado":"BR13","estado":"AM","idr_rafica":9,"reg_rafica":"Região Hidrográfica Amazônica","loc_izacao":"Margem esquerda do Rio Negro","latitude":"-3.1375°","longitude":"-60.026111°","observacao":null,"fonte":"ANTAQ","cdc_troide":"BRMAO","CP_Fluxo_c":"180","CP_Fluxo_1":"Portos","CP_Fluxo_2":"Porto Itapoá Terminais Portuários","CP_Fluxo_3":"Origem","CP_Fluxo_4":"0","CP_Fluxo_5":"Portos","CP_Fluxo_6":"Manaus","CP_Fluxo_7":"Destino","CP_Fluxo_8":"4","CP_Fluxo_9":"28,67","CP_Fluxo10":"t","CP_Fluxo11":"carga"},"geometry":{"type":"Point","coordinates":[-60.026111,-3.1375]}},
{"type":"Feature","properties":{"idi_tuaria":19,"idseq":0,"cdi_tuaria":"BRNAT","nome":"Natal","tipo":"Porto Organizado","cdbigrama":"BR","cdtrigrama":"NAT","cdterminal":null,"situacao":"Operando","gestao":"SEP","modalidade":"http://codern.com.br/porto-de-natal/","companhia":"Companhia Docas do Rio Grande do Norte - COD","cnpj":null,"legislacao":null,"pro_didade":10.0,"endereco":"Avenida Engenheiro Hildebrando de Góis","com_emento":"Distante 3km da sua foz","numero":220,"bairro":"Ribeira","cep":"59010700","idcidade":"BR240810","cidade":"Natal","idestado":"BR24","estado":"RN","idr_rafica":6,"reg_rafica":"Região Hidrográfica Atlântico Nordeste Oriental","loc_izacao":"Margem direita do Rio Potengi","latitude":"-5.772777°","longitude":"-35.204999°","observacao":null,"fonte":"ANTAQ","cdc_troide":"BRNAT","CP_Fluxo_c":"34","CP_Fluxo_1":"Portos","CP_Fluxo_2":"Vila do Conde","CP_Fluxo_3":"Origem","CP_Fluxo_4":"0","CP_Fluxo_5":"Portos","CP_Fluxo_6":"Natal","CP_Fluxo_7":"Destino","CP_Fluxo_8":"4","CP_Fluxo_9":"426,438","CP_Fluxo10":"t","CP_Fluxo11":"carga"},"geometry":{"type":"Point","coordinates":[-35.204999,-5.772777]}},
{"type":"Feature","properties":{"idi_tuaria":21,"idseq":0,"cdi_tuaria":"BRPNG","nome":"Paranaguá","tipo":"Porto Organizado","cdbigrama":"BR","cdtrigrama":"PNG","cdterminal":null,"situacao":"Operando","gestao":"SEP","modalidade":"http://www.portosdoparana.pr.gov.br/","companhia":"Administração dos Portos de Paranaguá e Anto","cnpj":null,"legislacao":null,"pro_didade":12.0,"endereco":"Rua Antonio Pereira","com_emento":null,"numero":161,"bairro":null,"cep":"83221030","idcidade":"BR411820","cidade":"Paranaguá","idestado":"BR41","estado":"PR","idr_rafica":2,"reg_rafica":"Região Hidrográfica Atlântico Sul","loc_izacao":"Parte sul da Baía de Paranaguá","latitude":"-25.502221°","longitude":"-48.505555°","observacao":null,"fonte":"ANTAQ","cdc_troide":"BRPNG","CP_Fluxo_c":"30","CP_Fluxo_1":"Portos","CP_Fluxo_2":"Santos","CP_Fluxo_3":"Origem","CP_Fluxo_4":"0","CP_Fluxo_5":"Portos","CP_Fluxo_6":"Paranaguá","CP_Fluxo_7":"Destino","CP_Fluxo_8":"4","CP_Fluxo_9":"178,719","CP_Fluxo10":"t","CP_Fluxo11":"carga"},"geometry":{"type":"Point","coordinates":[-48.505555,-25.502221]}},
{"type":"Feature","properties":{"idi_tuaria":23,"idseq":0,"cdi_tuaria":"BRPOA","nome":"Porto Alegre  ","tipo":"Porto Organizado","cdbigrama":"BR","cdtrigrama":"POA","cdterminal":null,"situacao":"Operando","gestao":"SEP","modalidade":"http://www.sph.rs.gov.br/sph_2006/content/porto_poa/porto_poa_apresentacao.php","companhia":"Superintendência de Portos e Hidrovias do Ri","cnpj":null,"legislacao":null,"pro_didade":5.2,"endereco":"Avenida Mauá","com_emento":null,"numero":1050,"bairro":"Centro","cep":"90010110","idcidade":"BR431490","cidade":"Porto Alegre","idestado":"BR43","estado":"RS","idr_rafica":2,"reg_rafica":"Região Hidrográfica Atlântico Sul","loc_izacao":"Margem esquerda do Rio Guaíba","latitude":"-30.007221°","longitude":"-51.211111°","observacao":null,"fonte":"ANTAQ","cdc_troide":"BRPOA","CP_Fluxo_c":"4","CP_Fluxo_1":"Portos","CP_Fluxo_2":"Areia Branca","CP_Fluxo_3":"Origem","CP_Fluxo_4":"0","CP_Fluxo_5":"Portos","CP_Fluxo_6":"Porto Alegre","CP_Fluxo_7":"Destino","CP_Fluxo_8":"4","CP_Fluxo_9":"38359,81","CP_Fluxo10":"t","CP_Fluxo11":"carga"},"geometry":{"type":"Point","coordinates":[-51.211111,-30.007221]}},
{"type":"Feature","properties":{"idi_tuaria":25,"idseq":0,"cdi_tuaria":"BRREC","nome":"Recife  ","tipo":"Porto Organizado","cdbigrama":"BR","cdtrigrama":"REC","cdterminal":null,"situacao":"Operando","gestao":"SEP","modalidade":"http://www.portodorecife.pe.gov.br/","companhia":"Porto do Recife SA - Estado de Pernambuco","cnpj":null,"legislacao":null,"pro_didade":9.5,"endereco":"Praça Artur Oscar","com_emento":null,"numero":null,"bairro":"Encruzilhada","cep":"50030370","idcidade":"BR261160","cidade":"Recife","idestado":"BR26","estado":"PE","idr_rafica":6,"reg_rafica":"Região Hidrográfica Atlântico Nordeste Oriental","loc_izacao":"Confluência e às margens dos rios Capibaribe, ao sul, e Beberibe, no local onde desaguam no oceano Atlântico","latitude":"-8.053888000000001°","longitude":"-34.868332°","observacao":null,"fonte":"ANTAQ","cdc_troide":"BRREC","CP_Fluxo_c":"1253","CP_Fluxo_1":"Portos","CP_Fluxo_2":"Porto de Santo Antônio (IP4 Fernando de Noronha)","CP_Fluxo_3":"Origem","CP_Fluxo_4":"0","CP_Fluxo_5":"Portos","CP_Fluxo_6":"Recife","CP_Fluxo_7":"Destino","CP_Fluxo_8":"4","CP_Fluxo_9":"121,32","CP_Fluxo10":"t","CP_Fluxo11":"carga"},"geometry":{"type":"Point","coordinates":[-34.868332,-8.053888]}},
{"type":"Feature","properties":{"idi_tuaria":26,"idseq":0,"cdi_tuaria":"BRRIO","nome":"Rio de Janeiro ","tipo":"Porto Organizado","cdbigrama":"BR","cdtrigrama":"RIO","cdterminal":null,"situacao":"Operando","gestao":"SEP","modalidade":"http://www.portosrio.gov.br/","companhia":"Companhia Docas do Rio de Janeiro - CDRJ","cnpj":null,"legislacao":null,"pro_didade":12.0,"endereco":"Avenida Rodrigues Alves","com_emento":null,"numero":20,"bairro":"Praça Mauá","cep":"20081000","idcidade":"BR330455","cidade":"Rio de Janeiro","idestado":"BR33","estado":"RJ","idr_rafica":12,"reg_rafica":"Região Hidrográfica Atlântico  Sudeste","loc_izacao":"Costa oeste da Baía de Guanabara","latitude":"-22.892222°","longitude":"-43.195278°","observacao":null,"fonte":"ANTAQ","cdc_troide":"BRRIO","CP_Fluxo_c":"35","CP_Fluxo_1":"Portos","CP_Fluxo_2":"Vitória","CP_Fluxo_3":"Origem","CP_Fluxo_4":"0","CP_Fluxo_5":"Portos","CP_Fluxo_6":"Rio de Janeiro","CP_Fluxo_7":"Destino","CP_Fluxo_8":"4","CP_Fluxo_9":"29,4","CP_Fluxo10":"t","CP_Fluxo11":"carga"},"geometry":{"type":"Point","coordinates":[-43.195278,-22.892222]}},
{"type":"Feature","properties":{"idi_tuaria":27,"idseq":0,"cdi_tuaria":"BRRIG","nome":"Rio Grande  ","tipo":"Porto Organizado","cdbigrama":"BR","cdtrigrama":"RIG","cdterminal":null,"situacao":"Operando","gestao":"SEP","modalidade":"http://www.portoriogrande.com.br/site/index.php","companhia":"Superintendência de Portos e Hidrovias do Ri","cnpj":null,"legislacao":null,"pro_didade":14.0,"endereco":"Avenida Honório Bicalho","com_emento":"Caixa Postal 198. Liga a Lagoa dos Patos ao oceano Atlântico","numero":null,"bairro":null,"cep":"96201020","idcidade":"BR431560","cidade":"Rio Grande","idestado":"BR43","estado":"RS","idr_rafica":2,"reg_rafica":"Região Hidrográfica Atlântico Sul","loc_izacao":"Margem direita do Canal do Norte","latitude":"-32.042499°","longitude":"-52.075555°","observacao":null,"fonte":"ANTAQ","cdc_troide":"BRRIG","CP_Fluxo_c":"11","CP_Fluxo_1":"Portos","CP_Fluxo_2":"Imbituba","CP_Fluxo_3":"Origem","CP_Fluxo_4":"0","CP_Fluxo_5":"Portos","CP_Fluxo_6":"Rio Grande","CP_Fluxo_7":"Destino","CP_Fluxo_8":"4","CP_Fluxo_9":"231,817","CP_Fluxo10":"t","CP_Fluxo11":"carga"},"geometry":{"type":"Point","coordinates":[-52.075555,-32.042499]}},
{"type":"Feature","properties":{"idi_tuaria":28,"idseq":0,"cdi_tuaria":"BRSSA","nome":"Salvador ","tipo":"Porto Organizado","cdbigrama":"BR","cdtrigrama":"SSA","cdterminal":null,"situacao":"Operando","gestao":"SEP","modalidade":"http://www.codeba.com.br/eficiente/sites/portalcodeba/pt-br/home.php","companhia":"Companhia Docas do Estado da Bahia - Codeba","cnpj":null,"legislacao":null,"pro_didade":8.2,"endereco":"Avenida da França","com_emento":"Entre a Ponta do Monte Serrat, ao norte, e a ponta de Santo Antônio, ao sul","numero":1551,"bairro":"Estação Marítima / Comércio","cep":"40010000","idcidade":"BR292740","cidade":"Salvador","idestado":"BR29","estado":"BA","idr_rafica":5,"reg_rafica":"Região Hidrográfica Atlântico Leste","loc_izacao":"Baía de Todos os Santos","latitude":"-12.965277°","longitude":"-38.509444°","observacao":null,"fonte":"ANTAQ","cdc_troide":"BRSSA","CP_Fluxo_c":"166","CP_Fluxo_1":"Portos","CP_Fluxo_2":"Portonave - Terminais Portuários de Navegantes","CP_Fluxo_3":"Origem","CP_Fluxo_4":"0","CP_Fluxo_5":"Portos","CP_Fluxo_6":"Salvador","CP_Fluxo_7":"Destino","CP_Fluxo_8":"4","CP_Fluxo_9":"2958,264","CP_Fluxo10":"t","CP_Fluxo11":"carga"},"geometry":{"type":"Point","coordinates":[-38.509444,-12.965277]}},
{"type":"Feature","properties":{"idi_tuaria":29,"idseq":0,"cdi_tuaria":"BRSTM","nome":"Santarém  ","tipo":"Porto Organizado","cdbigrama":"BR","cdtrigrama":"STM","cdterminal":null,"situacao":"Operando","gestao":"SEP","modalidade":"https://www.cdp.com.br/porto-de-santarem","companhia":"Companhia Docas do Pará - CDP","cnpj":null,"legislacao":null,"pro_didade":11.5,"endereco":"Avenida Cuiabá","com_emento":"Próximo a confluência com o Rio Amazonas","numero":null,"bairro":null,"cep":"68040400","idcidade":"BR150680","cidade":"Santarém","idestado":"BR15","estado":"PA","idr_rafica":9,"reg_rafica":"Região Hidrográfica Amazônica","loc_izacao":"Margem direita do Rio Tapajós","latitude":"-2.415°","longitude":"-54.737499°","observacao":null,"fonte":"ANTAQ","cdc_troide":"BRSTM","CP_Fluxo_c":"300189","CP_Fluxo_1":"Portos","CP_Fluxo_2":"Porto Veleiro Búzios","CP_Fluxo_3":"Origem","CP_Fluxo_4":"0","CP_Fluxo_5":"Portos","CP_Fluxo_6":"Santarém","CP_Fluxo_7":"Destino","CP_Fluxo_8":"4","CP_Fluxo_9":"2354,01","CP_Fluxo10":"t","CP_Fluxo11":"carga"},"geometry":{"type":"Point","coordinates":[-54.737499,-2.415]}},
{"type":"Feature","properties":{"idi_tuaria":30,"idseq":0,"cdi_tuaria":"BRSSZ","nome":"Santos  ","tipo":"Porto Organizado","cdbigrama":"BR","cdtrigrama":"SSZ","cdterminal":null,"situacao":"Operando","gestao":"SEP","modalidade":"www.portodesantos.com.br/","companhia":"Companhia Docas do Estado de São Paulo - Cod","cnpj":null,"legislacao":null,"pro_didade":14.0,"endereco":"Avenida Conselheiro Rodrigues Alves","com_emento":null,"numero":null,"bairro":"Macuco","cep":"11015900","idcidade":"BR351870","cidade":"Guarujá","idestado":"BR35","estado":"SP","idr_rafica":12,"reg_rafica":"Região Hidrográfica Atlântico  Sudeste","loc_izacao":null,"latitude":"-23.966053°","longitude":"-46.301939°","observacao":null,"fonte":"ANTAQ","cdc_troide":"BRSSZ","CP_Fluxo_c":"26","CP_Fluxo_1":"Portos","CP_Fluxo_2":"Rio de Janeiro","CP_Fluxo_3":"Origem","CP_Fluxo_4":"0","CP_Fluxo_5":"Portos","CP_Fluxo_6":"Santos","CP_Fluxo_7":"Destino","CP_Fluxo_8":"4","CP_Fluxo_9":"109,88","CP_Fluxo10":"t","CP_Fluxo11":"carga"},"geometry":{"type":"Point","coordinates":[-46.291944,-23.961666]}},
{"type":"Feature","properties":{"idi_tuaria":32,"idseq":0,"cdi_tuaria":"BRSFS","nome":"São Francisco do Sul  ","tipo":"Porto Organizado","cdbigrama":"BR","cdtrigrama":"SFS","cdterminal":null,"situacao":"Operando","gestao":"SEP","modalidade":"http://www.apsfs.sc.gov.br/","companhia":"Administração do Porto de São Francisco do S","cnpj":null,"legislacao":null,"pro_didade":10.0,"endereco":"Avenida Engenheiro Leite Ribeiro","com_emento":null,"numero":782,"bairro":null,"cep":"89240000","idcidade":"BR421620","cidade":"São Francisco do Sul","idestado":"BR42","estado":"SC","idr_rafica":2,"reg_rafica":"Região Hidrográfica Atlântico Sul","loc_izacao":"Parte leste da Baía da Babitonga","latitude":"-26.238889°","longitude":"-48.634721°","observacao":null,"fonte":"ANTAQ","cdc_troide":"BRSFS","CP_Fluxo_c":"21","CP_Fluxo_1":"Portos","CP_Fluxo_2":"Paranaguá","CP_Fluxo_3":"Origem","CP_Fluxo_4":"0","CP_Fluxo_5":"Portos","CP_Fluxo_6":"São Francisco do Sul","CP_Fluxo_7":"Destino","CP_Fluxo_8":"4","CP_Fluxo_9":"6738,56","CP_Fluxo10":"t","CP_Fluxo11":"carga"},"geometry":{"type":"Point","coordinates":[-48.634721,-26.238889]}},
{"type":"Feature","properties":{"idi_tuaria":33,"idseq":0,"cdi_tuaria":"BRSUA","nome":"Suape  ","tipo":"Porto Organizado","cdbigrama":"BR","cdtrigrama":"SUA","cdterminal":null,"situacao":"Operando","gestao":"SEP","modalidade":"http://www.suape.pe.gov.br/home/index.php","companhia":"Governo do Estado de Pernambuco","cnpj":null,"legislacao":null,"pro_didade":14.0,"endereco":"Rodovia PE060","com_emento":"Avenida Portuária - Km 10. Próximo à foz dos rios Tatuoca e Masangana","numero":null,"bairro":"Engenho Massangana","cep":null,"idcidade":"BR260720","cidade":"Ipojuca","idestado":"BR26","estado":"PE","idr_rafica":6,"reg_rafica":"Região Hidrográfica Atlântico Nordeste Oriental","loc_izacao":"Litoral sul do estado de Pernambuco","latitude":"-8.391944000000001°","longitude":"-34.968611°","observacao":null,"fonte":"ANTAQ","cdc_troide":"BRSUA","CP_Fluxo_c":"30","CP_Fluxo_1":"Portos","CP_Fluxo_2":"Santos","CP_Fluxo_3":"Origem","CP_Fluxo_4":"0","CP_Fluxo_5":"Portos","CP_Fluxo_6":"Suape","CP_Fluxo_7":"Destino","CP_Fluxo_8":"4","CP_Fluxo_9":"27","CP_Fluxo10":"t","CP_Fluxo11":"carga"},"geometry":{"type":"Point","coordinates":[-34.968611,-8.391944]}},
{"type":"Feature","properties":{"idi_tuaria":34,"idseq":0,"cdi_tuaria":"BRVDC","nome":"Vila do Conde ","tipo":"Porto Organizado","cdbigrama":"BR","cdtrigrama":"VDC","cdterminal":null,"situacao":"Operando","gestao":"SEP","modalidade":"http://www2.cdp.com.br/forms/porto_vila_conde.aspx","companhia":"Companhia Docas do Pará - CDP","cnpj":null,"legislacao":null,"pro_didade":13.0,"endereco":"Rodovia PA483","com_emento":null,"numero":null,"bairro":"Bairro Vila do Conde","cep":null,"idcidade":"BR150130","cidade":"Barcarena","idestado":"BR15","estado":"PA","idr_rafica":10,"reg_rafica":"Região Hidrográfica do Tocantins","loc_izacao":"Rio Pará","latitude":"-1.544167°","longitude":"-48.747777°","observacao":null,"fonte":"ANTAQ","cdc_troide":"BRVDC","CP_Fluxo_c":"26","CP_Fluxo_1":"Portos","CP_Fluxo_2":"Rio de Janeiro","CP_Fluxo_3":"Origem","CP_Fluxo_4":"0","CP_Fluxo_5":"Portos","CP_Fluxo_6":"Vila do Conde","CP_Fluxo_7":"Destino","CP_Fluxo_8":"4","CP_Fluxo_9":"1,31","CP_Fluxo10":"t","CP_Fluxo11":"carga"},"geometry":{"type":"Point","coordinates":[-48.747777,-1.544167]}},
{"type":"Feature","properties":{"idi_tuaria":35,"idseq":0,"cdi_tuaria":"BRVIX","nome":"Vitória  ","tipo":"Porto Organizado","cdbigrama":"BR","cdtrigrama":"VIX","cdterminal":null,"situacao":"Operando","gestao":"SEP","modalidade":"http://www.codesa.gov.br/site/","companhia":"Companhia Docas do Espírito Santo - Codesa","cnpj":null,"legislacao":null,"pro_didade":11.0,"endereco":"Avenida Getúlio Vargas","com_emento":"Ocupa parte da cidade de Vitória e de Vila Velha","numero":556,"bairro":"Centro","cep":"29010040","idcidade":"BR320530","cidade":"Vitória","idestado":"BR32","estado":"ES","idr_rafica":12,"reg_rafica":"Região Hidrográfica Atlântico  Sudeste","loc_izacao":"Distribuído em ambos os lados da Baía de Vitória","latitude":"-20.3225°","longitude":"-40.339444°","observacao":null,"fonte":"ANTAQ","cdc_troide":"BRVIX","CP_Fluxo_c":"300046","CP_Fluxo_1":"Portos","CP_Fluxo_2":"Flexibrás Açu","CP_Fluxo_3":"Origem","CP_Fluxo_4":"0","CP_Fluxo_5":"Portos","CP_Fluxo_6":"Vitória","CP_Fluxo_7":"Destino","CP_Fluxo_8":"4","CP_Fluxo_9":"34","CP_Fluxo10":"t","CP_Fluxo11":"carga"},"geometry":{"type":"Point","coordinates":[-40.339444,-20.3225]}},
{"type":"Feature","properties":{"idi_tuaria":101,"idseq":0,"cdi_tuaria":"BRES001","nome":"Terminal de Tubarão","tipo":"Terminal de uso privado","cdbigrama":"BR","cdtrigrama":"BRE","cdterminal":"BRES001","situacao":"Em Operação","gestao":"Privada","modalidade":"Terminal de uso privado","companhia":"VALE S.A.","cnpj":"33592510002106","legislacao":"CA 026/2014-ANTAQ","pro_didade":null,"endereco":"AV DANTE MICHELINE","com_emento":"PONTA DE TUBARÃO","numero":5500,"bairro":"JARDIM CAMBURI","cep":"29090900","idcidade":"3205309","cidade":null,"idestado":null,"estado":null,"idr_rafica":null,"reg_rafica":null,"loc_izacao":null,"latitude":"-20.2881","longitude":"-40.2489","observacao":"Atualizado pela GAP em 27/04/2015\r\nSEI 0915699 - Comunicado de a","fonte":"Antaq","cdc_troide":null,"CP_Fluxo_c":"30","CP_Fluxo_1":"Portos","CP_Fluxo_2":"Santos","CP_Fluxo_3":"Origem","CP_Fluxo_4":"0","CP_Fluxo_5":"Portos","CP_Fluxo_6":"Terminal de Tubarão","CP_Fluxo_7":"Destino","CP_Fluxo_8":"4","CP_Fluxo_9":"624125,022","CP_Fluxo10":"t","CP_Fluxo11":"carga"},"geometry":{"type":"Point","coordinates":[-40.248888,-20.288056]}},
{"type":"Feature","properties":{"idi_tuaria":104,"idseq":0,"cdi_tuaria":"BRPA004","nome":"Porto Jari - Terminal Munguba","tipo":"Terminal de uso privado","cdbigrama":"BR","cdtrigrama":"BRP","cdterminal":"BRPA004","situacao":"Em Operação","gestao":"Privada","modalidade":"Terminal de uso privado","companhia":"JARI CELULOSE S.A.","cnpj":"04815734000180","legislacao":"CA 058/2015-ANTAQ","pro_didade":null,"endereco":"VILA MUNGUBA","com_emento":"S/N (PORTO MUNGUBA)","numero":null,"bairro":"DISTRITO MONTE DOURADO","cep":"68240000","idcidade":"1500503","cidade":null,"idestado":null,"estado":null,"idr_rafica":null,"reg_rafica":null,"loc_izacao":"Jari","latitude":"-0.926062","longitude":"-52.4328","observacao":"Atualizado pela GAP em 27/04/2015 \r\nAs correspondências devem se","fonte":"Antaq","cdc_troide":null,"CP_Fluxo_c":"9","CP_Fluxo_1":"Portos","CP_Fluxo_2":"Fortaleza","CP_Fluxo_3":"Origem","CP_Fluxo_4":"0","CP_Fluxo_5":"Portos","CP_Fluxo_6":"Porto Jari - Terminal Munguba","CP_Fluxo_7":"Destino","CP_Fluxo_8":"4","CP_Fluxo_9":"7002,65","CP_Fluxo10":"t","CP_Fluxo11":"carga"},"geometry":{"type":"Point","coordinates":[-52.42367,-0.917928]}},
{"type":"Feature","properties":{"idi_tuaria":108,"idseq":0,"cdi_tuaria":"BRSE001","nome":"Terminal Marítimo Inácio Barbosa - TMIB","tipo":"Terminal de uso privado","cdbigrama":"BR","cdtrigrama":"BRS","cdterminal":"BRSE001","situacao":"Em Operação","gestao":"Privada","modalidade":"Terminal de uso privado","companhia":"CONSÓRCIO TMIB","cnpj":"20989549000168","legislacao":"CA 082/2015-ANTAQ","pro_didade":null,"endereco":"RODOVIA SE-226","com_emento":"KM 22","numero":null,"bairro":"POVOADO JATOBÁ","cep":"49140000","idcidade":"2800605","cidade":null,"idestado":null,"estado":null,"idr_rafica":null,"reg_rafica":null,"loc_izacao":null,"latitude":"-10.8439","longitude":"-36.9192","observacao":"Cadastro atualizado pela GAP em 01/02/2018.\r\nPrimeiro Termo Adit","fonte":"Antaq","cdc_troide":null,"CP_Fluxo_c":"300147","CP_Fluxo_1":"Portos","CP_Fluxo_2":"Bacia Sedimentar SEAL","CP_Fluxo_3":"Origem","CP_Fluxo_4":"0","CP_Fluxo_5":"Portos","CP_Fluxo_6":"Terminal Marítimo Inácio Barbosa - TMIB","CP_Fluxo_7":"Destino","CP_Fluxo_8":"4","CP_Fluxo_9":"4096,105","CP_Fluxo10":"t","CP_Fluxo11":"carga"},"geometry":{"type":"Point","coordinates":[-36.919167,-10.843889]}},
{"type":"Feature","properties":{"idi_tuaria":114,"idseq":0,"cdi_tuaria":"BRRS003","nome":"Terminal Santa Clara","tipo":"Terminal de uso privado","cdbigrama":"BR","cdtrigrama":"BRR","cdterminal":"BRRS003","situacao":"Em Operação","gestao":"Privada","modalidade":"Terminal de uso privado","companhia":"BRASKEM S.A.","cnpj":"42150391003862","legislacao":"CA 043/2014-ANTAQ","pro_didade":null,"endereco":"BR-386 - RODOVIA TABAÍ/CANOAS KM 419","com_emento":"PÓLO PETROQUÍMICO - VIA CONTORNO","numero":850,"bairro":"PASSO RASO","cep":"95853000","idcidade":"4322004","cidade":null,"idestado":null,"estado":null,"idr_rafica":null,"reg_rafica":null,"loc_izacao":"Canal Santa Clara","latitude":"-29.9014","longitude":"-51.3744","observacao":"Atualizado em 28/04/2015 pela GAP\r\nA Copesul S/A foi incorporada","fonte":"Antaq","cdc_troide":null,"CP_Fluxo_c":"30","CP_Fluxo_1":"Portos","CP_Fluxo_2":"Santos","CP_Fluxo_3":"Origem","CP_Fluxo_4":"0","CP_Fluxo_5":"Portos","CP_Fluxo_6":"Terminal Santa Clara","CP_Fluxo_7":"Destino","CP_Fluxo_8":"4","CP_Fluxo_9":"8239,939","CP_Fluxo10":"t","CP_Fluxo11":"carga"},"geometry":{"type":"Point","coordinates":[-51.374443,-29.901389]}},
{"type":"Feature","properties":{"idi_tuaria":116,"idseq":0,"cdi_tuaria":"BRES003","nome":"Terminal de Praia Mole","tipo":"Terminal de uso privado","cdbigrama":"BR","cdtrigrama":"BRE","cdterminal":"BRES003","situacao":"Em Operação","gestao":"Privada","modalidade":"Terminal de uso privado","companhia":"VALE S.A.","cnpj":"33592510021909","legislacao":"CA 025/2014-ANTAQ","pro_didade":null,"endereco":"AV DANTE MICHELINE","com_emento":"PONTA DE TUBARÃO","numero":5500,"bairro":"JARDIM CAMBURI","cep":"29090900","idcidade":"3205309","cidade":null,"idestado":null,"estado":null,"idr_rafica":null,"reg_rafica":null,"loc_izacao":null,"latitude":"-20.2964","longitude":"-40.2333","observacao":"Atualizado pela GAP em 28/04/2015 - CONTRATO DE ADESÃO Nº 25/201","fonte":"Antaq","cdc_troide":null,"CP_Fluxo_c":"168","CP_Fluxo_1":"Portos","CP_Fluxo_2":"Terminal Marítimo de Ponta da Madeira","CP_Fluxo_3":"Origem","CP_Fluxo_4":"0","CP_Fluxo_5":"Portos","CP_Fluxo_6":"Terminal de Praia Mole","CP_Fluxo_7":"Destino","CP_Fluxo_8":"4","CP_Fluxo_9":"931275","CP_Fluxo10":"t","CP_Fluxo11":"carga"},"geometry":{"type":"Point","coordinates":[-40.233333,-20.296389]}},
{"type":"Feature","properties":{"idi_tuaria":117,"idseq":0,"cdi_tuaria":"BRES004","nome":"Terminal Marítimo Alfandegado Privativo de Uso Misto de Praia Mole","tipo":"Terminal de uso privado","cdbigrama":"BR","cdtrigrama":"BRE","cdterminal":"BRES004","situacao":"Em Operação","gestao":"Privada","modalidade":"Terminal de uso privado","companhia":"ARCELORMITTAL BRASIL S.A.","cnpj":"17469701016928","legislacao":"CA 112/2016-ANTAQ","pro_didade":null,"endereco":"ESTRADA COMPLEXO SIDERÚRGICO DE TUBARÃO","com_emento":"PARQUE INDUSTRIAL","numero":6100,"bairro":"PONTA DE TUBARÃO","cep":"29090870","idcidade":"3205309","cidade":null,"idestado":null,"estado":null,"idr_rafica":null,"reg_rafica":null,"loc_izacao":null,"latitude":"-20.2939","longitude":"-40.2347","observacao":"- Atualizado pela GAP em 09/08/2016\r\nTerminal pertence a ARCELOR","fonte":"Antaq","cdc_troide":null,"CP_Fluxo_c":"140","CP_Fluxo_1":"Portos","CP_Fluxo_2":"Terminal Portuário do Pecém","CP_Fluxo_3":"Origem","CP_Fluxo_4":"0","CP_Fluxo_5":"Portos","CP_Fluxo_6":"Terminal Marítimo Alfandegado Privativo de Uso Misto de Praia Mole","CP_Fluxo_7":"Destino","CP_Fluxo_8":"4","CP_Fluxo_9":"238187,771","CP_Fluxo10":"t","CP_Fluxo11":"carga"},"geometry":{"type":"Point","coordinates":[-40.234721,-20.293889]}},
{"type":"Feature","properties":{"idi_tuaria":118,"idseq":0,"cdi_tuaria":"BRSP002","nome":"Terminal Marítimo Privativo de Cubatão - TMPC","tipo":"Terminal de uso privado","cdbigrama":"BR","cdtrigrama":"BRS","cdterminal":"BRSP002","situacao":"Em Operação","gestao":"Privada","modalidade":"Terminal de uso privado","companhia":"USINAS SIDERÚRGICAS DE MINAS GERAIS S/A. USI","cnpj":"60894730000296","legislacao":"CA 107/2016-ANTAQ","pro_didade":null,"endereco":"Rodovia Cônego Domêncio Rangoni","com_emento":"S/Nº - KM 06","numero":null,"bairro":"Jardim Indústrias","cep":"11573900","idcidade":"3513504","cidade":null,"idestado":null,"estado":null,"idr_rafica":null,"reg_rafica":null,"loc_izacao":null,"latitude":"-23.8708","longitude":"-46.3764","observacao":"Atualizado em 14/01/2020 pela GAP.\r\nHabilitação de Terminal ao T","fonte":"Antaq","cdc_troide":null,"CP_Fluxo_c":"140","CP_Fluxo_1":"Portos","CP_Fluxo_2":"Terminal Portuário do Pecém","CP_Fluxo_3":"Origem","CP_Fluxo_4":"0","CP_Fluxo_5":"Portos","CP_Fluxo_6":"Terminal Marítimo Privativo de Cubatão - TMPC","CP_Fluxo_7":"Destino","CP_Fluxo_8":"4","CP_Fluxo_9":"505949,869","CP_Fluxo10":"t","CP_Fluxo11":"carga"},"geometry":{"type":"Point","coordinates":[-46.376389,-23.870833]}},
{"type":"Feature","properties":{"idi_tuaria":119,"idseq":0,"cdi_tuaria":"BRES005","nome":"Companhia Portuária Vila Velha - CPVV","tipo":"Terminal de uso privado","cdbigrama":"BR","cdtrigrama":"BRE","cdterminal":"BRES005","situacao":"Em Operação","gestao":"Privada","modalidade":"Terminal de uso privado","companhia":"COMPANHIA PORTUÁRIA VILA VELHA","cnpj":"39826482000179","legislacao":"CA 054/2014-ANTAQ","pro_didade":null,"endereco":"ESTRADA DE CAPUABA, S/Nº","com_emento":null,"numero":null,"bairro":"ARIBIRI","cep":"29119000","idcidade":"3205200","cidade":null,"idestado":null,"estado":null,"idr_rafica":null,"reg_rafica":null,"loc_izacao":null,"latitude":null,"longitude":null,"observacao":"Atualizado pela GAP em 28/04/2015. CONTRATO DE ADESÃO Nº 54/2014","fonte":"Antaq","cdc_troide":null,"CP_Fluxo_c":"300149","CP_Fluxo_1":"Portos","CP_Fluxo_2":"Bacia Sedimentar do Espírito Santo","CP_Fluxo_3":"Origem","CP_Fluxo_4":"0","CP_Fluxo_5":"Portos","CP_Fluxo_6":"Companhia Portuária Vila Velha - CPVV","CP_Fluxo_7":"Destino","CP_Fluxo_8":"4","CP_Fluxo_9":"508,715","CP_Fluxo10":"t","CP_Fluxo11":"carga"},"geometry":{"type":"Point","coordinates":[-40.321389,-20.323889]}},
{"type":"Feature","properties":{"idi_tuaria":124,"idseq":0,"cdi_tuaria":"BRPR002","nome":"Cattalini Terminais Marítimos","tipo":"Terminal de uso privado","cdbigrama":"BR","cdtrigrama":"BRP","cdterminal":"BRPR002","situacao":"Em Operação","gestao":"Privada","modalidade":"Terminal de uso privado","companhia":"CATTALINI TERMINAIS MARÍTIMOS LTDA","cnpj":"75633560000182","legislacao":"CA 065/2015-ANTAQ","pro_didade":null,"endereco":"AVENIDA CORONEL SANTA RITA","com_emento":null,"numero":2677,"bairro":"ROCIO","cep":"83221675","idcidade":"4118204","cidade":null,"idestado":null,"estado":null,"idr_rafica":null,"reg_rafica":null,"loc_izacao":null,"latitude":"-25.5018","longitude":"-48.5352","observacao":"GAP em 04/04/2018: Empresa informa avarias no terminal devido a","fonte":"Antaq","cdc_troide":null,"CP_Fluxo_c":"30","CP_Fluxo_1":"Portos","CP_Fluxo_2":"Santos","CP_Fluxo_3":"Origem","CP_Fluxo_4":"0","CP_Fluxo_5":"Portos","CP_Fluxo_6":"Cattalini Terminais Marítimos","CP_Fluxo_7":"Destino","CP_Fluxo_8":"4","CP_Fluxo_9":"7401,106","CP_Fluxo10":"t","CP_Fluxo11":"carga"},"geometry":{"type":"Point","coordinates":[-48.5375,-25.500833]}},
{"type":"Feature","properties":{"idi_tuaria":132,"idseq":0,"cdi_tuaria":"BRAL001","nome":"Terminal Braskem","tipo":"Terminal de uso privado","cdbigrama":"BR","cdtrigrama":"BRA","cdterminal":"BRAL001","situacao":"Em Operação","gestao":"Privada","modalidade":"Terminal de uso privado","companhia":"BRASKEM S/A","cnpj":"42150391002203","legislacao":"CA 101/2015-ANTAQ","pro_didade":null,"endereco":"AV. ASSIS CHATEAUBRIAND","com_emento":"Praia do Pontal da Barra","numero":5260,"bairro":"PONTAL DA BARRA","cep":"57010900","idcidade":"2704302","cidade":null,"idestado":null,"estado":null,"idr_rafica":null,"reg_rafica":null,"loc_izacao":null,"latitude":"-9.69389","longitude":"-35.7592","observacao":"Atualizado pela GAP em 25/02/2016. \r\nAtualizado pela GEA em 07/0","fonte":"Antaq","cdc_troide":null,"CP_Fluxo_c":"3","CP_Fluxo_1":"Portos","CP_Fluxo_2":"Aratu","CP_Fluxo_3":"Origem","CP_Fluxo_4":"0","CP_Fluxo_5":"Portos","CP_Fluxo_6":"Terminal Braskem","CP_Fluxo_7":"Destino","CP_Fluxo_8":"4","CP_Fluxo_9":"2003,629","CP_Fluxo10":"t","CP_Fluxo11":"carga"},"geometry":{"type":"Point","coordinates":[-35.759166,-9.693889]}},
{"type":"Feature","properties":{"idi_tuaria":135,"idseq":0,"cdi_tuaria":"BRAM003","nome":"Cimento Vencemos","tipo":"Terminal de uso privado","cdbigrama":"BR","cdtrigrama":"BRA","cdterminal":"BRAM003","situacao":"Em Operação","gestao":"Privada","modalidade":"Terminal de uso privado","companhia":"CIMENTO VENCEMOS DO AMAZONAS LTDA","cnpj":"00013314000129","legislacao":"CA 110/2016-ANTAQ","pro_didade":null,"endereco":"RUA DESEMBARGADOR CESAR DO REGO","com_emento":null,"numero":2,"bairro":"COLONIA ANTONIO ALEIXO","cep":"69054260","idcidade":"1302603","cidade":null,"idestado":null,"estado":null,"idr_rafica":null,"reg_rafica":null,"loc_izacao":"Negro","latitude":"-3.11694","longitude":"-59.9206","observacao":"Atualizado pela GAP em 06/04/2016.","fonte":"Antaq","cdc_troide":null,"CP_Fluxo_c":"108","CP_Fluxo_1":"Portos","CP_Fluxo_2":"Terminal Marítimo Inácio Barbosa - TMIB","CP_Fluxo_3":"Origem","CP_Fluxo_4":"0","CP_Fluxo_5":"Portos","CP_Fluxo_6":"Cimento Vencemos","CP_Fluxo_7":"Destino","CP_Fluxo_8":"4","CP_Fluxo_9":"246981,722","CP_Fluxo10":"t","CP_Fluxo11":"carga"},"geometry":{"type":"Point","coordinates":[-59.923611,-3.122777]}},
{"type":"Feature","properties":{"idi_tuaria":136,"idseq":0,"cdi_tuaria":"BRBA002","nome":"Terminal Marítimo Dow Aratu - Bahia","tipo":"Terminal de uso privado","cdbigrama":"BR","cdtrigrama":"BRB","cdterminal":"BRBA002","situacao":"Em Operação","gestao":"Privada","modalidade":"Terminal de uso privado","companhia":"DOW BRASIL INDUSTRIA E COMERCIO DE PRODUTOS","cnpj":"60435351001714","legislacao":"CA 041/2014-ANTAQ","pro_didade":null,"endereco":"VIA MATOIM - RÓTULA 3","com_emento":"S/Nº","numero":null,"bairro":"ZIP - CIA","cep":"43813000","idcidade":"2906501","cidade":null,"idestado":null,"estado":null,"idr_rafica":null,"reg_rafica":null,"loc_izacao":null,"latitude":null,"longitude":null,"observacao":"- Atualizado pela GAP em 28/04/2015. \r\n- Contrato de Adesão 041/","fonte":"Antaq","cdc_troide":null,"CP_Fluxo_c":"217","CP_Fluxo_1":"Portos","CP_Fluxo_2":"Terminal Marítimo Dow","CP_Fluxo_3":"Origem","CP_Fluxo_4":"0","CP_Fluxo_5":"Portos","CP_Fluxo_6":"Terminal Marítimo Dow Aratu - Bahia","CP_Fluxo_7":"Destino","CP_Fluxo_8":"4","CP_Fluxo_9":"402,211","CP_Fluxo10":"t","CP_Fluxo11":"carga"},"geometry":{"type":"Point","coordinates":[-38.476388,-12.783056]}},
{"type":"Feature","properties":{"idi_tuaria":140,"idseq":0,"cdi_tuaria":"BRCE001","nome":"Terminal Portuário do Pecém","tipo":"Terminal de uso privado","cdbigrama":"BR","cdtrigrama":"BRC","cdterminal":"BRCE001","situacao":"Em Operação","gestao":"Privada","modalidade":"Terminal de uso privado","companhia":"COMPANHIA DE DESENVOLVIMENTO DO COMPLEXO IND","cnpj":"01256678000100","legislacao":"CA 113/2016-ANTAQ","pro_didade":null,"endereco":"ESPLANADA DO PECÉM","com_emento":"s/ nº","numero":null,"bairro":"DISTRITO DO PECÉM","cep":"62674906","idcidade":"2312403","cidade":null,"idestado":null,"estado":null,"idr_rafica":null,"reg_rafica":null,"loc_izacao":null,"latitude":"-33","longitude":"-33","observacao":"Atualizado em 29/10/2018. TLO 32/2018: operação integral do TUP.","fonte":"Antaq","cdc_troide":null,"CP_Fluxo_c":"9","CP_Fluxo_1":"Portos","CP_Fluxo_2":"Fortaleza","CP_Fluxo_3":"Origem","CP_Fluxo_4":"0","CP_Fluxo_5":"Portos","CP_Fluxo_6":"Terminal Portuário do Pecém","CP_Fluxo_7":"Destino","CP_Fluxo_8":"4","CP_Fluxo_9":"54","CP_Fluxo10":"t","CP_Fluxo11":"carga"},"geometry":{"type":"Point","coordinates":[-38.796388,-3.526667]}},
{"type":"Feature","properties":{"idi_tuaria":141,"idseq":0,"cdi_tuaria":"BRAM006","nome":"Porto Chibatão","tipo":"Terminal de uso privado","cdbigrama":"BR","cdtrigrama":"BRA","cdterminal":"BRAM006","situacao":"Em Operação","gestao":"Privada","modalidade":"Terminal de uso privado","companhia":"CHIBATÃO - NAVEGAÇÃO E COMÉRCIO LTDA","cnpj":"84098383000172","legislacao":"CA 03/2018-MTPA","pro_didade":null,"endereco":"RUA ZEBU","com_emento":null,"numero":201,"bairro":"COLÔNIA OLIVEIRA MACHADO","cep":"69073670","idcidade":"1302603","cidade":null,"idestado":null,"estado":null,"idr_rafica":null,"reg_rafica":null,"loc_izacao":"Negro","latitude":"-3.15574","longitude":"-59.9897","observacao":"Atualizado GAP em 23/07/18 atualizada a área do TUP e novo TLO 2","fonte":"Antaq","cdc_troide":null,"CP_Fluxo_c":"300236","CP_Fluxo_1":"Portos","CP_Fluxo_2":"Itaqui","CP_Fluxo_3":"Origem","CP_Fluxo_4":"0","CP_Fluxo_5":"Portos","CP_Fluxo_6":"Porto Chibatão","CP_Fluxo_7":"Destino","CP_Fluxo_8":"4","CP_Fluxo_9":"272,118","CP_Fluxo10":"t","CP_Fluxo11":"carga"},"geometry":{"type":"Point","coordinates":[-59.99111,-3.16]}},
{"type":"Feature","properties":{"idi_tuaria":142,"idseq":0,"cdi_tuaria":"BRSP006","nome":"Terminal Aquaviário de São Sebastião (Almirante Barroso)","tipo":"Terminal de uso privado","cdbigrama":"BR","cdtrigrama":"BRS","cdterminal":"BRSP006","situacao":"Em Operação","gestao":"Privada","modalidade":"Terminal de uso privado","companhia":"PETROBRAS TRANSPORTE S/A","cnpj":"02709449004065","legislacao":"CA 071/2015-ANTAQ","pro_didade":null,"endereco":"AV. GUARDA-MOR LOBO VIANA","com_emento":null,"numero":1111,"bairro":"CENTRO","cep":"11600000","idcidade":"3550704","cidade":null,"idestado":null,"estado":null,"idr_rafica":null,"reg_rafica":null,"loc_izacao":null,"latitude":"-23.8039","longitude":"-45.3861","observacao":"Atualizado pela GAP em 18/06/2015","fonte":"Antaq","cdc_troide":null,"CP_Fluxo_c":"30","CP_Fluxo_1":"Portos","CP_Fluxo_2":"Santos","CP_Fluxo_3":"Origem","CP_Fluxo_4":"0","CP_Fluxo_5":"Portos","CP_Fluxo_6":"Terminal Aquaviário de São Sebastião (Almirante Barroso)","CP_Fluxo_7":"Destino","CP_Fluxo_8":"4","CP_Fluxo_9":"1249,22","CP_Fluxo10":"t","CP_Fluxo11":"carga"},"geometry":{"type":"Point","coordinates":[-45.38611,-23.803889]}},
{"type":"Feature","properties":{"idi_tuaria":144,"idseq":0,"cdi_tuaria":"BRRS009","nome":"Terminal Aquaviário de Osório","tipo":"Terminal de uso privado","cdbigrama":"BR","cdtrigrama":"BRR","cdterminal":"BRRS009","situacao":"Em Operação","gestao":"Privada","modalidade":"Terminal de uso privado","companhia":"PETROBRAS TRANSPORTE S.A - TRANSPETRO","cnpj":"02709449005894","legislacao":"CA 072/2015-ANTAQ","pro_didade":null,"endereco":"RODOVIA CRISTOVÃO PEREIRA DE ABREU","com_emento":"KM 103 - S/Nº","numero":null,"bairro":"CRESCÊNCIO","cep":"95520000","idcidade":"4313508","cidade":null,"idestado":null,"estado":null,"idr_rafica":null,"reg_rafica":null,"loc_izacao":null,"latitude":"-30.0119","longitude":"-50.0952","observacao":"Atualizado em 18/06/2015 pela GAP","fonte":"Antaq","cdc_troide":null,"CP_Fluxo_c":"300161","CP_Fluxo_1":"Portos","CP_Fluxo_2":"Bacia Sedimentar de Santos","CP_Fluxo_3":"Origem","CP_Fluxo_4":"0","CP_Fluxo_5":"Portos","CP_Fluxo_6":"Terminal Aquaviário de Osório","CP_Fluxo_7":"Destino","CP_Fluxo_8":"4","CP_Fluxo_9":"105962,94","CP_Fluxo10":"t","CP_Fluxo11":"carga"},"geometry":{"type":"Point","coordinates":[-50.095193,-30.011903]}},
{"type":"Feature","properties":{"idi_tuaria":145,"idseq":0,"cdi_tuaria":"BRSC007","nome":"Terminal Aquaviário de São Francisco do Sul","tipo":"Terminal de uso privado","cdbigrama":"BR","cdtrigrama":"BRS","cdterminal":"BRSC007","situacao":"Em Operação","gestao":"Privada","modalidade":"Terminal de uso privado","companhia":"PETROBRAS TRANSPORTE S.A - TRANSPETRO","cnpj":"02709449002011","legislacao":"CA 079/2015-ANTAQ","pro_didade":null,"endereco":"RUA FELIPE MUSSE","com_emento":"CAIXA POSTAL Nº1101","numero":803,"bairro":"UBATUBA","cep":"89240000","idcidade":"4216206","cidade":null,"idestado":null,"estado":null,"idr_rafica":null,"reg_rafica":null,"loc_izacao":null,"latitude":"-26.2174","longitude":"-48.501","observacao":"Atualizado pela GAP em 07/07/2015 ( área 1.549.504,33m²)","fonte":"Antaq","cdc_troide":null,"CP_Fluxo_c":"142","CP_Fluxo_1":"Portos","CP_Fluxo_2":"Terminal Aquaviário de São Sebastião (Almirante Barroso)","CP_Fluxo_3":"Origem","CP_Fluxo_4":"0","CP_Fluxo_5":"Portos","CP_Fluxo_6":"Terminal Aquaviário de São Francisco do Sul","CP_Fluxo_7":"Destino","CP_Fluxo_8":"4","CP_Fluxo_9":"119148,4","CP_Fluxo10":"t","CP_Fluxo11":"carga"},"geometry":{"type":"Point","coordinates":[-48.500971,-26.217361]}},
{"type":"Feature","properties":{"idi_tuaria":146,"idseq":0,"cdi_tuaria":"BRRJ008","nome":"Terminal Aquaviário de Ilha Redonda","tipo":"Terminal de uso privado","cdbigrama":"BR","cdtrigrama":"BRR","cdterminal":"BRRJ008","situacao":"Construção Concluída","gestao":"Privada","modalidade":"Terminal de uso privado","companhia":"PETROBRAS TRANSPORTE S.A - TERMINAL DA ILHA","cnpj":"02709449001040","legislacao":"CA 01/2020-MINFRA","pro_didade":null,"endereco":"RUA CHAPOT PREVOST","com_emento":"FREGUESIA","numero":200,"bairro":"ILHA DO GOVERNADOR","cep":"21910030","idcidade":"3304557","cidade":null,"idestado":null,"estado":null,"idr_rafica":null,"reg_rafica":null,"loc_izacao":null,"latitude":"-22.8036","longitude":"-43.1189","observacao":"Atualização GAP 08/04/2020\r\nAtualizado em 28/04/2015 pela GAP","fonte":"Antaq","cdc_troide":null,"CP_Fluxo_c":"236","CP_Fluxo_1":"Portos","CP_Fluxo_2":"Terminal Aquaviário de Barra do Riacho","CP_Fluxo_3":"Origem","CP_Fluxo_4":"0","CP_Fluxo_5":"Portos","CP_Fluxo_6":"Terminal Aquaviário de Ilha Redonda e Terminal Aquaviário da Ilha Comprida","CP_Fluxo_7":"Destino","CP_Fluxo_8":"4","CP_Fluxo_9":"1800,15","CP_Fluxo10":"t","CP_Fluxo11":"carga"},"geometry":{"type":"Point","coordinates":[-43.120417,-22.802361]}},
{"type":"Feature","properties":{"idi_tuaria":147,"idseq":0,"cdi_tuaria":"BRRJ009","nome":"Terminal Aquaviário de Angra dos Reis","tipo":"Terminal de uso privado","cdbigrama":"BR","cdtrigrama":"BRR","cdterminal":"BRRJ009","situacao":"Em Operação","gestao":"Privada","modalidade":"Terminal de uso privado","companhia":"PETROBRAS TRANSPORTE S/A - TRANSPETRO","cnpj":"02709449000310","legislacao":"CA 070/2015-ANTAQ","pro_didade":null,"endereco":"RODOVIA GOV. MARIO COVAS","com_emento":"KM 467, S/Nº","numero":null,"bairro":"MONSUABA","cep":"23916000","idcidade":"3300100","cidade":null,"idestado":null,"estado":null,"idr_rafica":null,"reg_rafica":null,"loc_izacao":null,"latitude":"-23.0601","longitude":"-44.2312","observacao":"Atualizado em 07/07/2015 pela GAP ( área 858.758,57 m²)\r\nAtualiz","fonte":"Antaq","cdc_troide":null,"CP_Fluxo_c":"31","CP_Fluxo_1":"Portos","CP_Fluxo_2":"São Sebastião","CP_Fluxo_3":"Origem","CP_Fluxo_4":"0","CP_Fluxo_5":"Portos","CP_Fluxo_6":"Terminal Aquaviário de Angra dos Reis","CP_Fluxo_7":"Destino","CP_Fluxo_8":"4","CP_Fluxo_9":"5729,434","CP_Fluxo10":"t","CP_Fluxo11":"carga"},"geometry":{"type":"Point","coordinates":[-44.228889,-23.061388]}},
{"type":"Feature","properties":{"idi_tuaria":148,"idseq":0,"cdi_tuaria":"BRRJ010","nome":"Terminal Aquaviário da Ilha D'Água","tipo":"Terminal de uso privado","cdbigrama":"BR","cdtrigrama":"BRR","cdterminal":"BRRJ010","situacao":"Em Operação","gestao":"Privada","modalidade":"Terminal de uso privado","companhia":"PETROBRAS TRANSPORTE S/A.","cnpj":"02709449000582","legislacao":"CA 078/2015-ANTAQ","pro_didade":null,"endereco":"RUA CHAPOT PREVOST","com_emento":"FREGUESIA","numero":200,"bairro":"ILHA DO GOVERNADOR","cep":"21910030","idcidade":"3304557","cidade":null,"idestado":null,"estado":null,"idr_rafica":null,"reg_rafica":null,"loc_izacao":null,"latitude":"-22.8104","longitude":"-43.1625","observacao":"Atualizado em 07/07/2015 pela GAP (área 97.873,47m 2)","fonte":"Antaq","cdc_troide":null,"CP_Fluxo_c":"33","CP_Fluxo_1":"Portos","CP_Fluxo_2":"Suape","CP_Fluxo_3":"Origem","CP_Fluxo_4":"0","CP_Fluxo_5":"Portos","CP_Fluxo_6":"Terminal Aquaviário da Ilha D'Água","CP_Fluxo_7":"Destino","CP_Fluxo_8":"4","CP_Fluxo_9":"193,067","CP_Fluxo10":"t","CP_Fluxo11":"carga"},"geometry":{"type":"Point","coordinates":[-43.1625,-22.810417]}},
{"type":"Feature","properties":{"idi_tuaria":149,"idseq":0,"cdi_tuaria":"BRBA003","nome":"Terminal Aquaviário de Madre de Deus","tipo":"Terminal de uso privado","cdbigrama":"BR","cdtrigrama":"BRB","cdterminal":"BRBA003","situacao":"Em Operação","gestao":"Privada","modalidade":"Terminal de uso privado","companhia":"PETROBRAS TRANSPORTE S.A - TRANSPETRO","cnpj":"02709449000825","legislacao":"CA 076/2015-ANTAQ","pro_didade":null,"endereco":"Av. Milton Bahia Ribeiro","com_emento":null,"numero":2477,"bairro":"Mirim","cep":"42600000","idcidade":"2919926","cidade":null,"idestado":null,"estado":null,"idr_rafica":null,"reg_rafica":null,"loc_izacao":null,"latitude":"-12.7539","longitude":"-38.6243","observacao":"Atualizado em 28/04/2015 pela GAP (área 846.851,22 m²","fonte":"Antaq","cdc_troide":null,"CP_Fluxo_c":"148","CP_Fluxo_1":"Portos","CP_Fluxo_2":"Terminal Aquaviário da Ilha D'Água","CP_Fluxo_3":"Origem","CP_Fluxo_4":"0","CP_Fluxo_5":"Portos","CP_Fluxo_6":"Terminal Aquaviário de Madre de Deus","CP_Fluxo_7":"Destino","CP_Fluxo_8":"4","CP_Fluxo_9":"1,689","CP_Fluxo10":"t","CP_Fluxo11":"carga"},"geometry":{"type":"Point","coordinates":[-38.624305,-12.753888]}},
{"type":"Feature","properties":{"idi_tuaria":156,"idseq":0,"cdi_tuaria":"BRRN001","nome":"Terminal Aquaviário de Guamaré","tipo":"Terminal de uso privado","cdbigrama":"BR","cdtrigrama":"BRR","cdterminal":"BRRN001","situacao":"Em Operação","gestao":"Privada","modalidade":"Terminal de uso privado","companhia":"PETROBRAS TRANSPORTE S/A","cnpj":"02709449006351","legislacao":"CA 069/2015-ANTAQ","pro_didade":null,"endereco":"RODOVIA RN 221","com_emento":"S/Nº, KM 02","numero":null,"bairro":"ZONA RURAL","cep":"59598000","idcidade":"2404507","cidade":null,"idestado":null,"estado":null,"idr_rafica":null,"reg_rafica":null,"loc_izacao":null,"latitude":"-4.87361","longitude":"-36.3742","observacao":"Atualizado em 18/06/2015 pela GAP.","fonte":"Antaq","cdc_troide":null,"CP_Fluxo_c":"149","CP_Fluxo_1":"Portos","CP_Fluxo_2":"Terminal Aquaviário de Madre de Deus","CP_Fluxo_3":"Origem","CP_Fluxo_4":"0","CP_Fluxo_5":"Portos","CP_Fluxo_6":"Terminal Aquaviário de Guamaré","CP_Fluxo_7":"Destino","CP_Fluxo_8":"4","CP_Fluxo_9":"490,774","CP_Fluxo10":"t","CP_Fluxo11":"carga"},"geometry":{"type":"Point","coordinates":[-36.374166,-4.873611]}},
{"type":"Feature","properties":{"idi_tuaria":163,"idseq":0,"cdi_tuaria":"BRAM011","nome":"Terminal Aquaviário de Manaus","tipo":"Terminal de uso privado","cdbigrama":"BR","cdtrigrama":"BRA","cdterminal":"BRAM011","situacao":"Em Operação","gestao":"Privada","modalidade":"Terminal de uso privado","companhia":"PETROBRAS TRANSPORTE S/A","cnpj":"02709449006270","legislacao":"CA 074/2015-ANTAQ","pro_didade":null,"endereco":"RUA RIO QUIXITO","com_emento":null,"numero":1,"bairro":"VILA BURITI","cep":"69011960","idcidade":"1302603","cidade":null,"idestado":null,"estado":null,"idr_rafica":null,"reg_rafica":null,"loc_izacao":"Negro","latitude":"-3.15139","longitude":"-59.9514","observacao":"Atualizado pela GAP em 07/07/2015","fonte":"Antaq","cdc_troide":null,"CP_Fluxo_c":"6","CP_Fluxo_1":"Portos","CP_Fluxo_2":"Cabedelo","CP_Fluxo_3":"Origem","CP_Fluxo_4":"0","CP_Fluxo_5":"Portos","CP_Fluxo_6":"Terminal Aquaviário de Manaus","CP_Fluxo_7":"Destino","CP_Fluxo_8":"4","CP_Fluxo_9":"6825,478","CP_Fluxo10":"t","CP_Fluxo11":"carga"},"geometry":{"type":"Point","coordinates":[-59.951667,-3.149722]}},
{"type":"Feature","properties":{"idi_tuaria":166,"idseq":0,"cdi_tuaria":"BRSC008","nome":"Portonave - Terminais Portuários de Navegantes","tipo":"Terminal de uso privado","cdbigrama":"BR","cdtrigrama":"BRS","cdterminal":"BRSC008","situacao":"Em Operação","gestao":"Privada","modalidade":"Terminal de uso privado","companhia":"PORTONAVE S.A TERMINAIS PORTUÁRIOS DE NAVEGA","cnpj":"01335341000180","legislacao":"CA 060/2015-ANTAQ","pro_didade":null,"endereco":"AVENIDA PORTUÁRIA VICENTE COELHO","com_emento":null,"numero":1,"bairro":"CENTRO","cep":"88375000","idcidade":"4211306","cidade":null,"idestado":null,"estado":null,"idr_rafica":null,"reg_rafica":null,"loc_izacao":null,"latitude":"-26.8942","longitude":"-48.66","observacao":"Atualizado pela GAP em 28/04/2015.\r\nA empresa informou alteração","fonte":"Antaq","cdc_troide":null,"CP_Fluxo_c":"300237","CP_Fluxo_1":"Portos","CP_Fluxo_2":"Itaguaí","CP_Fluxo_3":"Origem","CP_Fluxo_4":"0","CP_Fluxo_5":"Portos","CP_Fluxo_6":"Portonave - Terminais Portuários de Navegantes","CP_Fluxo_7":"Destino","CP_Fluxo_8":"4","CP_Fluxo_9":"178,65","CP_Fluxo10":"t","CP_Fluxo11":"carga"},"geometry":{"type":"Point","coordinates":[-48.662221,-26.897777]}},
{"type":"Feature","properties":{"idi_tuaria":179,"idseq":0,"cdi_tuaria":"BRRJ014","nome":"Mac Laren Oil Estaleiros","tipo":"Terminal de uso privado","cdbigrama":"BR","cdtrigrama":"BRR","cdterminal":"BRRJ014","situacao":"Em Operação","gestao":"Privada","modalidade":"Terminal de uso privado","companhia":"MAC LAREN OIL ESTALEIROS EIRELI","cnpj":"05646148000111","legislacao":"CA 010/2014-ANTAQ","pro_didade":null,"endereco":"RUA MIGUEL LEMOS","com_emento":"S/Nº, LOTE 616 - PARTE","numero":null,"bairro":"PONTA D'AREIA","cep":"24040260","idcidade":"3303302","cidade":null,"idestado":null,"estado":null,"idr_rafica":null,"reg_rafica":null,"loc_izacao":null,"latitude":null,"longitude":null,"observacao":"Atualizado pela GAP em 28/04/2015. \r\nAtualizado em 27/03/2015 pe","fonte":"Antaq","cdc_troide":null,"CP_Fluxo_c":"300162","CP_Fluxo_1":"Portos","CP_Fluxo_2":"Bacia Sedimentar de Campos","CP_Fluxo_3":"Origem","CP_Fluxo_4":"0","CP_Fluxo_5":"Portos","CP_Fluxo_6":"Mac Laren Estaleiros","CP_Fluxo_7":"Destino","CP_Fluxo_8":"4","CP_Fluxo_9":"5,142","CP_Fluxo10":"t","CP_Fluxo11":"carga"},"geometry":{"type":"Point","coordinates":[-43.119861,-22.880693]}},
{"type":"Feature","properties":{"idi_tuaria":180,"idseq":0,"cdi_tuaria":"BRSC011","nome":"Porto Itapoá Terminais Portuários","tipo":"Terminal de uso privado","cdbigrama":"BR","cdtrigrama":"BRS","cdterminal":"BRSC011","situacao":"Em Operação","gestao":"Privada","modalidade":"Terminal de uso privado","companhia":"ITAPOÁ TERMINAIS PORTUÁRIOS S.A.","cnpj":"01317277000105","legislacao":"CA 031/2014-SEP/PR","pro_didade":null,"endereco":"Ave. Beira Mar 5","com_emento":null,"numero":2900,"bairro":"FIGUEIRA DO PONTAL","cep":"89249000","idcidade":"4208450","cidade":null,"idestado":null,"estado":null,"idr_rafica":null,"reg_rafica":null,"loc_izacao":null,"latitude":"-26.1829","longitude":"-48.6061","observacao":"SEI 0893209 - alt. tabela preços e servi 2019\r\nGAP em 03/04/2018","fonte":"Antaq","cdc_troide":null,"CP_Fluxo_c":"13","CP_Fluxo_1":"Portos","CP_Fluxo_2":"Itajaí","CP_Fluxo_3":"Origem","CP_Fluxo_4":"0","CP_Fluxo_5":"Portos","CP_Fluxo_6":"Porto Itapoá Terminais Portuários","CP_Fluxo_7":"Destino","CP_Fluxo_8":"4","CP_Fluxo_9":"181,52","CP_Fluxo10":"t","CP_Fluxo11":"carga"},"geometry":{"type":"Point","coordinates":[-48.606138,-26.182916]}},
{"type":"Feature","properties":{"idi_tuaria":185,"idseq":0,"cdi_tuaria":"BRSC012","nome":"Teporti","tipo":"Terminal de uso privado","cdbigrama":"BR","cdtrigrama":"BRS","cdterminal":"BRSC012","situacao":"Construção Concluída","gestao":"Privada","modalidade":"Terminal de uso privado","companhia":"TEPORTI TERMINAL PORTUARIO DE ITAJAI LTDA","cnpj":"03788529000100","legislacao":"CA 03/2020-MINFRA","pro_didade":null,"endereco":"AVENIDA NEREU RAMOS","com_emento":null,"numero":600,"bairro":"SALSEIROS","cep":"88311400","idcidade":"4208203","cidade":null,"idestado":null,"estado":null,"idr_rafica":null,"reg_rafica":null,"loc_izacao":"Itajaí-Açu","latitude":"-26.8776","longitude":"-48.7133","observacao":"Atualização GAP 8/4/2020\r\nSEI 0949900 - Relatório de Acompanhame","fonte":"Antaq","cdc_troide":null,"CP_Fluxo_c":"35","CP_Fluxo_1":"Portos","CP_Fluxo_2":"Vitória","CP_Fluxo_3":"Origem","CP_Fluxo_4":"0","CP_Fluxo_5":"Portos","CP_Fluxo_6":"Teporti","CP_Fluxo_7":"Destino","CP_Fluxo_8":"4","CP_Fluxo_9":"23240,538","CP_Fluxo10":"t","CP_Fluxo11":"carga"},"geometry":{"type":"Point","coordinates":[-48.711388,-26.876667]}},
{"type":"Feature","properties":{"idi_tuaria":188,"idseq":0,"cdi_tuaria":"BRES007","nome":"Terminal de Barcaças Oceânicas","tipo":"Terminal de uso privado","cdbigrama":"BR","cdtrigrama":"BRE","cdterminal":"BRES007","situacao":"Em Operação","gestao":"Privada","modalidade":"Terminal de uso privado","companhia":"ARCELORMITTAL BRASIL S.A.","cnpj":"17469701010482","legislacao":"CA 063/2015-ANTAQ","pro_didade":null,"endereco":"AV BRIGADEIRO EDUARDO GOMES","com_emento":null,"numero":930,"bairro":"JARDIM LIMOEIRO","cep":"29164072","idcidade":"3205002","cidade":null,"idestado":null,"estado":null,"idr_rafica":null,"reg_rafica":null,"loc_izacao":null,"latitude":"-20.2583","longitude":"-40.2211","observacao":"Atualizado pela GAP em 28/04/2015.\r\nEm 10/03/2015: CONTRATO DE A","fonte":"Antaq","cdc_troide":null,"CP_Fluxo_c":"32","CP_Fluxo_1":"Portos","CP_Fluxo_2":"São Francisco do Sul","CP_Fluxo_3":"Origem","CP_Fluxo_4":"0","CP_Fluxo_5":"Portos","CP_Fluxo_6":"Terminal de Barcaças Oceânicas","CP_Fluxo_7":"Destino","CP_Fluxo_8":"4","CP_Fluxo_9":"48425,023","CP_Fluxo10":"t","CP_Fluxo11":"carga"},"geometry":{"type":"Point","coordinates":[-40.221111,-20.258333]}},
{"type":"Feature","properties":{"idi_tuaria":189,"idseq":0,"cdi_tuaria":"BRSP008","nome":"DP World Santos","tipo":"Terminal de uso privado","cdbigrama":"BR","cdtrigrama":"BRS","cdterminal":"BRSP008","situacao":"Em Operação","gestao":"Privada","modalidade":"Terminal de uso privado","companhia":"EMBRAPORT EMPRESA BRASILEIRA DE TERMINAIS PO","cnpj":"02805610000279","legislacao":"CA 017/2014-ANTAQ","pro_didade":null,"endereco":"ESTRADA PARTICULAR DA CODESP","com_emento":"Ilha Barnabé","numero":null,"bairro":"CODESP","cep":"11095700","idcidade":"3548500","cidade":null,"idestado":null,"estado":null,"idr_rafica":null,"reg_rafica":null,"loc_izacao":null,"latitude":"-23.9088","longitude":"-46.3131","observacao":"-Atualizado o me do terminal, em 21/06/2018.\r\n- Atualizado em 24","fonte":"Antaq","cdc_troide":null,"CP_Fluxo_c":"33","CP_Fluxo_1":"Portos","CP_Fluxo_2":"Suape","CP_Fluxo_3":"Origem","CP_Fluxo_4":"0","CP_Fluxo_5":"Portos","CP_Fluxo_6":"DP World Santos","CP_Fluxo_7":"Destino","CP_Fluxo_8":"4","CP_Fluxo_9":"0,12","CP_Fluxo10":"t","CP_Fluxo11":"carga"},"geometry":{"type":"Point","coordinates":[-46.318055,-23.924444]}},
{"type":"Feature","properties":{"idi_tuaria":192,"idseq":0,"cdi_tuaria":"BRMA001","nome":"Terminal Portuário Privativo da Alumar","tipo":"Terminal de uso privado","cdbigrama":"BR","cdtrigrama":"BRM","cdterminal":"BRMA001","situacao":"Em Operação","gestao":"Privada","modalidade":"Terminal de uso privado","companhia":"CONSÓRCIO DE ALUMÍNIO DO MARANHÃO - CONSÓRCI","cnpj":"00655209000193","legislacao":"CA 057/2015-ANTAQ","pro_didade":null,"endereco":"RODOVIA BR 135","com_emento":"KM 18","numero":null,"bairro":"PEDRINHAS -DISTRITO INDUSTRIAL DE ESTIVA","cep":"65095604","idcidade":"2111300","cidade":null,"idestado":null,"estado":null,"idr_rafica":null,"reg_rafica":null,"loc_izacao":null,"latitude":"-2.67833","longitude":"-44.3606","observacao":"Atualizado pela GAP em 28/04/2015.\r\n","fonte":"Antaq","cdc_troide":null,"CP_Fluxo_c":"26","CP_Fluxo_1":"Portos","CP_Fluxo_2":"Rio de Janeiro","CP_Fluxo_3":"Origem","CP_Fluxo_4":"0","CP_Fluxo_5":"Portos","CP_Fluxo_6":"Terminal Portuário Privativo da Alumar","CP_Fluxo_7":"Destino","CP_Fluxo_8":"4","CP_Fluxo_9":"873","CP_Fluxo10":"t","CP_Fluxo11":"carga"},"geometry":{"type":"Point","coordinates":[-44.360556,-2.678332]}},
{"type":"Feature","properties":{"idi_tuaria":200,"idseq":0,"cdi_tuaria":"BRES006","nome":"Portocel - Terminal Especializado de Barra do Riacho","tipo":"Terminal de uso privado","cdbigrama":"BR","cdtrigrama":"BRE","cdterminal":"BRES006","situacao":"Em Operação","gestao":"Privada","modalidade":"Terminal de uso privado","companhia":"FIBRIA CELULOSE S/A","cnpj":"60643228000121","legislacao":"CA 106/2016-ANTAQ","pro_didade":null,"endereco":"CAMINHO DA BARRA DO RIACHO","com_emento":"S/Nº","numero":null,"bairro":"BARRA DO RIACHO","cep":"29190000","idcidade":"3200607","cidade":null,"idestado":null,"estado":null,"idr_rafica":null,"reg_rafica":null,"loc_izacao":null,"latitude":"-19.8408","longitude":"-40.0575","observacao":"SEI 0899465 - Ata de Assembleia Geral Ext.  que altera estatuto","fonte":"Antaq","cdc_troide":null,"CP_Fluxo_c":"155","CP_Fluxo_1":"Portos","CP_Fluxo_2":"Terminal de Barcaças Luciano Villas Boas Machado","CP_Fluxo_3":"Origem","CP_Fluxo_4":"0","CP_Fluxo_5":"Portos","CP_Fluxo_6":"Portocel - Terminal Especializado de Barra do Riacho","CP_Fluxo_7":"Destino","CP_Fluxo_8":"4","CP_Fluxo_9":"160165,88","CP_Fluxo10":"t","CP_Fluxo11":"carga"},"geometry":{"type":"Point","coordinates":[-40.057499,-19.840832]}},
{"type":"Feature","properties":{"idi_tuaria":203,"idseq":0,"cdi_tuaria":"BRRJ016","nome":"TERNIUM BR","tipo":"Terminal de uso privado","cdbigrama":"BR","cdtrigrama":"BRR","cdterminal":"BRRJ016","situacao":"Em Operação","gestao":"Privada","modalidade":"Terminal de uso privado","companhia":"TERNIUM BRASIL LTDA.","cnpj":"07005330000119","legislacao":"CA 081/2015-ANTAQ","pro_didade":null,"endereco":"AV JOÃO XXIII","com_emento":null,"numero":2891,"bairro":"SANTA CRUZ","cep":"23560352","idcidade":"3304557","cidade":null,"idestado":null,"estado":null,"idr_rafica":null,"reg_rafica":null,"loc_izacao":null,"latitude":"-22.9311","longitude":"-43.7769","observacao":"Atualizado pela GAP em 01/06/2015.\r\nOUTORGA ANTERIOR: TA 283-ANT","fonte":"Antaq","cdc_troide":null,"CP_Fluxo_c":"101","CP_Fluxo_1":"Portos","CP_Fluxo_2":"Terminal de Tubarão","CP_Fluxo_3":"Origem","CP_Fluxo_4":"0","CP_Fluxo_5":"Portos","CP_Fluxo_6":"TERNIUM BR","CP_Fluxo_7":"Destino","CP_Fluxo_8":"4","CP_Fluxo_9":"74005","CP_Fluxo10":"t","CP_Fluxo11":"carga"},"geometry":{"type":"Point","coordinates":[-43.776944,-22.931111]}},
{"type":"Feature","properties":{"idi_tuaria":206,"idseq":0,"cdi_tuaria":"BRRJ019","nome":"Terminal Marítimo Braskem","tipo":"Terminal de uso privado","cdbigrama":"BR","cdtrigrama":"BRR","cdterminal":"BRRJ019","situacao":"Em Operação","gestao":"Privada","modalidade":"Terminal de uso privado","companhia":"BRASKEM PETROQUIMICA LTDA","cnpj":"04705090000509","legislacao":"CA 102/2016-ANTAQ","pro_didade":null,"endereco":"AVENIDA MARUMBI","com_emento":"Jardim Ana Clara","numero":1400,"bairro":"CAMPOS ELÍSEOS","cep":"25221000","idcidade":"3301702","cidade":null,"idestado":null,"estado":null,"idr_rafica":null,"reg_rafica":null,"loc_izacao":null,"latitude":"-22.7639","longitude":"-43.1538","observacao":"Atualizado pela GAP em 05/02/2016. Resolução 6978/2019 - Reconhe","fonte":"Antaq","cdc_troide":null,"CP_Fluxo_c":"3","CP_Fluxo_1":"Portos","CP_Fluxo_2":"Aratu","CP_Fluxo_3":"Origem","CP_Fluxo_4":"0","CP_Fluxo_5":"Portos","CP_Fluxo_6":"Terminal Marítimo Braskem","CP_Fluxo_7":"Destino","CP_Fluxo_8":"4","CP_Fluxo_9":"133229,389","CP_Fluxo10":"t","CP_Fluxo11":"carga"},"geometry":{"type":"Point","coordinates":[-43.15375,-22.763888]}},
{"type":"Feature","properties":{"idi_tuaria":207,"idseq":0,"cdi_tuaria":"BRSC017","nome":"Poly Terminais Portuários","tipo":"Terminal de uso privado","cdbigrama":"BR","cdtrigrama":"BRS","cdterminal":"BRSC017","situacao":"Em Operação","gestao":"Privada","modalidade":"Terminal de uso privado","companhia":"POLY TERMINAIS PORTUÁRIOS S/A","cnpj":"10341742000134","legislacao":"CA 012/2014-ANTAQ","pro_didade":null,"endereco":"RUA JOSÉ LUIZ MARCELINO","com_emento":null,"numero":1400,"bairro":"MURTA","cep":"88311300","idcidade":"4208203","cidade":null,"idestado":null,"estado":null,"idr_rafica":null,"reg_rafica":null,"loc_izacao":"Itajaí-Açu","latitude":"-28.2343","longitude":"-48.6552","observacao":"Atualizado pela GAP em 28/04/2015.\r\nAtualizado em 24/03/2015 pel","fonte":"Antaq","cdc_troide":null,"CP_Fluxo_c":"136","CP_Fluxo_1":"Portos","CP_Fluxo_2":"Terminal Marítimo Dow Aratu - Bahia","CP_Fluxo_3":"Origem","CP_Fluxo_4":"0","CP_Fluxo_5":"Portos","CP_Fluxo_6":"Poly Terminais Portuários","CP_Fluxo_7":"Destino","CP_Fluxo_8":"4","CP_Fluxo_9":"59198,938","CP_Fluxo10":"t","CP_Fluxo11":"carga"},"geometry":{"type":"Point","coordinates":[-48.70611,-26.87]}},
{"type":"Feature","properties":{"idi_tuaria":209,"idseq":0,"cdi_tuaria":"BRRJ018","nome":"Terminal Flexível de GNL da Baía da Guanabara","tipo":"Terminal de uso privado","cdbigrama":"BR","cdtrigrama":"BRR","cdterminal":"BRRJ018","situacao":"Em Operação","gestao":"Privada","modalidade":"Terminal de uso privado","companhia":"PETROLEO BRASILEIRO S A PETROBRAS","cnpj":"33000167014242","legislacao":"CA 109/2016-ANTAQ","pro_didade":null,"endereco":"RUA CHAPOT PREVOST","com_emento":"Baía de Guanabara","numero":200,"bairro":"FREGUESIA - I.GOVERNADOR","cep":"21910030","idcidade":"3304557","cidade":null,"idestado":null,"estado":null,"idr_rafica":null,"reg_rafica":null,"loc_izacao":null,"latitude":null,"longitude":null,"observacao":"Atualizado pela GAP em 28/03/2018: A empresa informou substituiç","fonte":"Antaq","cdc_troide":null,"CP_Fluxo_c":"3","CP_Fluxo_1":"Portos","CP_Fluxo_2":"Aratu","CP_Fluxo_3":"Origem","CP_Fluxo_4":"0","CP_Fluxo_5":"Portos","CP_Fluxo_6":"Terminal Flexível de GNL da Baía da Guanabara","CP_Fluxo_7":"Destino","CP_Fluxo_8":"4","CP_Fluxo_9":"38198,107","CP_Fluxo10":"t","CP_Fluxo11":"carga"},"geometry":{"type":"Point","coordinates":[-43.132083,-22.783055]}},
{"type":"Feature","properties":{"idi_tuaria":213,"idseq":0,"cdi_tuaria":"BRRJ020","nome":"Porto do Açu - Terminal de Minério","tipo":"Terminal de uso privado","cdbigrama":"BR","cdtrigrama":"BRR","cdterminal":"BRRJ020","situacao":"Em Operação","gestao":"Privada","modalidade":"Terminal de uso privado","companhia":"FERROPORT LOGISTICA COMERCIAL EXPORTADORA S.","cnpj":"08807683000286","legislacao":"CA 002/2014-ANTAQ","pro_didade":null,"endereco":"RUA JOAO BENEDITO","com_emento":"CENTRO","numero":173,"bairro":"CENTRO","cep":"28200000","idcidade":"3305000","cidade":null,"idestado":null,"estado":null,"idr_rafica":null,"reg_rafica":null,"loc_izacao":null,"latitude":"-21.8229","longitude":"-41.0206","observacao":"Atualizado pela GAP em 28/04/2015.\r\nAtualizado em 27/03/2015 pel","fonte":"Antaq","cdc_troide":null,"CP_Fluxo_c":"300162","CP_Fluxo_1":"Portos","CP_Fluxo_2":"FPSO Brasil","CP_Fluxo_3":"Origem","CP_Fluxo_4":"0","CP_Fluxo_5":"Portos","CP_Fluxo_6":"Terminal Dome","CP_Fluxo_7":"Destino","CP_Fluxo_8":"4","CP_Fluxo_9":"61,9","CP_Fluxo10":"t","CP_Fluxo11":"carga"},"geometry":{"type":"Point","coordinates":[-40.998333,-21.814444]}},
{"type":"Feature","properties":{"idi_tuaria":217,"idseq":0,"cdi_tuaria":"BRSP005","nome":"Terminal Marítimo Dow","tipo":"Terminal de uso privado","cdbigrama":"BR","cdtrigrama":"BRS","cdterminal":"BRSP005","situacao":"Em Operação","gestao":"Privada","modalidade":"Terminal de uso privado","companhia":"DOW BRASIL SUDESTE INDUSTRIAL LTDA","cnpj":"53877627000949","legislacao":"CA 050/2014-ANTAQ","pro_didade":null,"endereco":"AV SANTOS DUMONT","com_emento":null,"numero":4444,"bairro":"CONCEIÇÃOZINHA","cep":"11460902","idcidade":"3518701","cidade":null,"idestado":null,"estado":null,"idr_rafica":null,"reg_rafica":null,"loc_izacao":null,"latitude":"-23.9771","longitude":"-46.2734","observacao":"Atualizado pela GAP em 16/04/2018 - O doc. SEI 0428717 informou","fonte":"Antaq","cdc_troide":null,"CP_Fluxo_c":"2","CP_Fluxo_1":"Portos","CP_Fluxo_2":"Antonina","CP_Fluxo_3":"Origem","CP_Fluxo_4":"0","CP_Fluxo_5":"Portos","CP_Fluxo_6":"Terminal Marítimo Dow","CP_Fluxo_7":"Destino","CP_Fluxo_8":"4","CP_Fluxo_9":"1710","CP_Fluxo10":"t","CP_Fluxo11":"carga"},"geometry":{"type":"Point","coordinates":[-46.286667,-23.982222]}},
{"type":"Feature","properties":{"idi_tuaria":220,"idseq":0,"cdi_tuaria":"BRRS014","nome":"Supergasbrás","tipo":"Terminal de uso privado","cdbigrama":"BR","cdtrigrama":"BRR","cdterminal":"BRRS014","situacao":"Em Operação","gestao":"Privada","modalidade":"Terminal de uso privado","companhia":"SUPERGASBRAS ENERGIA LTDA .","cnpj":"19791896011803","legislacao":"CA 059/2015-ANTAQ","pro_didade":null,"endereco":"RUA PRIMAVERA","com_emento":null,"numero":2710,"bairro":"VILA RIO BRANCO","cep":"92200300","idcidade":"4304606","cidade":null,"idestado":null,"estado":null,"idr_rafica":null,"reg_rafica":null,"loc_izacao":"Sinos","latitude":null,"longitude":null,"observacao":"Atualizado pela GAP em 28/04/2015.\r\nPROCESSO Nº 50300.000413/200","fonte":"Antaq","cdc_troide":null,"CP_Fluxo_c":"33","CP_Fluxo_1":"Portos","CP_Fluxo_2":"Suape","CP_Fluxo_3":"Origem","CP_Fluxo_4":"0","CP_Fluxo_5":"Portos","CP_Fluxo_6":"Supergasbrás","CP_Fluxo_7":"Destino","CP_Fluxo_8":"4","CP_Fluxo_9":"776,385","CP_Fluxo10":"t","CP_Fluxo11":"carga"},"geometry":{"type":"Point","coordinates":[-51.203611,-29.967916]}},
{"type":"Feature","properties":{"idi_tuaria":223,"idseq":0,"cdi_tuaria":"BRRS016","nome":"Terminal de Gás do Sul - Tergasul","tipo":"Terminal de uso privado","cdbigrama":"BR","cdtrigrama":"BRR","cdterminal":"BRRS016","situacao":"Em Operação","gestao":"Privada","modalidade":"Terminal de uso privado","companhia":"LIQUIGAS DISTRIBUIDORA S.A.","cnpj":"60886413002514","legislacao":"CA 061/2015-ANTAQ","pro_didade":null,"endereco":"RUA PRIMAVERA","com_emento":"TÉRREO","numero":2529,"bairro":"RIO BRANCO","cep":"92200300","idcidade":"4304606","cidade":null,"idestado":null,"estado":null,"idr_rafica":null,"reg_rafica":null,"loc_izacao":"Sinos","latitude":null,"longitude":null,"observacao":"Atualizado pela GAP em 29/04/2015.\r\nAtualizado em 05/03/2015: Co","fonte":"Antaq","cdc_troide":null,"CP_Fluxo_c":"200","CP_Fluxo_1":"Portos","CP_Fluxo_2":"Barra do Riacho","CP_Fluxo_3":"Origem","CP_Fluxo_4":"0","CP_Fluxo_5":"Portos","CP_Fluxo_6":"Terminal de Gás do Sul - Tergasul","CP_Fluxo_7":"Destino","CP_Fluxo_8":"4","CP_Fluxo_9":"5090,895","CP_Fluxo10":"t","CP_Fluxo11":"carga"},"geometry":{"type":"Point","coordinates":[-51.203749,-29.967082]}},
{"type":"Feature","properties":{"idi_tuaria":227,"idseq":0,"cdi_tuaria":"BRRJ023","nome":"Porto Sudeste do Brasil","tipo":"Terminal de uso privado","cdbigrama":"BR","cdtrigrama":"BRR","cdterminal":"BRRJ023","situacao":"Em Operação","gestao":"Privada","modalidade":"Terminal de uso privado","companhia":"PORTO SUDESTE DO BRASIL SA","cnpj":"08310839000219","legislacao":"CA 052/2014-ANTAQ","pro_didade":null,"endereco":"Rua Felix Lopes Coelho","com_emento":null,"numero":222,"bairro":"Ilha da Madeira","cep":"23826580","idcidade":"3302007","cidade":null,"idestado":null,"estado":null,"idr_rafica":null,"reg_rafica":null,"loc_izacao":null,"latitude":"-22.925","longitude":"-43.8522","observacao":"Atualizado pela GAP em 13/11/2015 - TLO 11/2015-SOG autoriza a e","fonte":"Antaq","cdc_troide":null,"CP_Fluxo_c":"35","CP_Fluxo_1":"Portos","CP_Fluxo_2":"Vitória","CP_Fluxo_3":"Origem","CP_Fluxo_4":"0","CP_Fluxo_5":"Portos","CP_Fluxo_6":"Porto Sudeste do Brasil","CP_Fluxo_7":"Destino","CP_Fluxo_8":"4","CP_Fluxo_9":"121951","CP_Fluxo10":"t","CP_Fluxo11":"carga"},"geometry":{"type":"Point","coordinates":[-43.852221,-22.925]}},
{"type":"Feature","properties":{"idi_tuaria":236,"idseq":0,"cdi_tuaria":"BRES010","nome":"Terminal Aquaviário de Barra do Riacho","tipo":"Terminal de uso privado","cdbigrama":"BR","cdtrigrama":"BRE","cdterminal":"BRES010","situacao":"Construção Concluída","gestao":"Privada","modalidade":"Terminal de uso privado","companhia":"PETRÓLEO BRASILEIRO S/A","cnpj":"33000167021028","legislacao":"CA 2/2020-MINFRA","pro_didade":null,"endereco":"PORTO ORGANIZADO DE BARRA DO RIACHO S/Nº","com_emento":null,"numero":null,"bairro":"BARRA DO RIACHO","cep":"29197900","idcidade":"3200607","cidade":null,"idestado":null,"estado":null,"idr_rafica":null,"reg_rafica":null,"loc_izacao":null,"latitude":"-19.8425","longitude":"-40.0625","observacao":"Atualização GAP 08/04/2020\r\nAtualizado pela GAP em 29/04/2015.\r\n","fonte":"Antaq","cdc_troide":null,"CP_Fluxo_c":"9","CP_Fluxo_1":"Portos","CP_Fluxo_2":"Fortaleza","CP_Fluxo_3":"Origem","CP_Fluxo_4":"0","CP_Fluxo_5":"Portos","CP_Fluxo_6":"Terminal Aquaviário de Barra do Riacho","CP_Fluxo_7":"Destino","CP_Fluxo_8":"4","CP_Fluxo_9":"4949,493","CP_Fluxo10":"t","CP_Fluxo11":"carga"},"geometry":{"type":"Point","coordinates":[-40.0625,-19.8425]}},
{"type":"Feature","properties":{"idi_tuaria":300044,"idseq":0,"cdi_tuaria":"BRSP009","nome":"Base Logística de Dutos","tipo":"Terminal de uso privado","cdbigrama":"BR","cdtrigrama":"BRS","cdterminal":"BRSP009","situacao":"Em Operação","gestao":"Privada","modalidade":"Terminal de uso privado","companhia":"SAIPEM DO BRASIL SERVIÇOS DE PETROLEO LTDA","cnpj":"05101651000604","legislacao":"CA 004/2013-SEP/PR","pro_didade":null,"endereco":"Avenida Maria de Oliveira Chere","com_emento":"sala 101","numero":2,"bairro":"CING","cep":"11420710","idcidade":"3518701","cidade":null,"idestado":null,"estado":null,"idr_rafica":null,"reg_rafica":null,"loc_izacao":null,"latitude":"-23.995","longitude":"-46.2972","observacao":"Atualizado pela GAP em 08/02/2019 - Processo 50300.001934/2012-0","fonte":"Antaq","cdc_troide":null,"CP_Fluxo_c":"26","CP_Fluxo_1":"Portos","CP_Fluxo_2":"Rio de Janeiro","CP_Fluxo_3":"Origem","CP_Fluxo_4":"0","CP_Fluxo_5":"Portos","CP_Fluxo_6":"Base Logística de Dutos","CP_Fluxo_7":"Destino","CP_Fluxo_8":"4","CP_Fluxo_9":"99,68","CP_Fluxo10":"t","CP_Fluxo11":"carga"},"geometry":{"type":"Point","coordinates":[-46.297222,-23.995]}},
{"type":"Feature","properties":{"idi_tuaria":300046,"idseq":0,"cdi_tuaria":"BRRJ025","nome":"Flexibrás Açu","tipo":"Terminal de uso privado","cdbigrama":"BR","cdtrigrama":"BRR","cdterminal":"BRRJ025","situacao":"Em Operação","gestao":"Privada","modalidade":"Terminal de uso privado","companhia":"FLEXIBRÁS TUBOS FLEXÍVEIS LTDA","cnpj":"28910529000161","legislacao":"CA 003/2013-SEP/PR","pro_didade":null,"endereco":"Via 5 Projetada, Lote A-12 do Terminal Sul do Porto do Açu","com_emento":null,"numero":null,"bairro":"Distrito Industrial","cep":"28200000","idcidade":"3305000","cidade":null,"idestado":null,"estado":null,"idr_rafica":null,"reg_rafica":null,"loc_izacao":null,"latitude":"-21.8719","longitude":"-41.0119","observacao":"Atualizado pela GAP em 11/12/2015.\r\n- TLO 002/2015-SOG, de 07/04","fonte":"Antaq","cdc_troide":null,"CP_Fluxo_c":"20","CP_Fluxo_1":"Portos","CP_Fluxo_2":"Niterói","CP_Fluxo_3":"Origem","CP_Fluxo_4":"0","CP_Fluxo_5":"Portos","CP_Fluxo_6":"Flexibrás Açu","CP_Fluxo_7":"Destino","CP_Fluxo_8":"4","CP_Fluxo_9":"903,1","CP_Fluxo10":"t","CP_Fluxo11":"carga"},"geometry":{"type":"Point","coordinates":[-41.011944,-21.871944]}},
{"type":"Feature","properties":{"idi_tuaria":300083,"idseq":0,"cdi_tuaria":"BRBA009","nome":"Terminal de Regaiseficação de GNL da Bahia - TRBA","tipo":"Terminal de uso privado","cdbigrama":"BR","cdtrigrama":"BRB","cdterminal":"BRBA009","situacao":"Em Operação","gestao":"Privada","modalidade":"Terminal de uso privado","companhia":"PETROLEO BRASILEIRO S/A - PETROBRAS","cnpj":"33000167023748","legislacao":"CA 108/2016-ANTAQ","pro_didade":null,"endereco":"ILHA DO FRADE, BAÍA DE TODOS OS SANTOS","com_emento":null,"numero":null,"bairro":"BAÍA DE TODOS OS SANTOS","cep":"0","idcidade":"2927408","cidade":null,"idestado":null,"estado":null,"idr_rafica":null,"reg_rafica":null,"loc_izacao":null,"latitude":"-12.8122","longitude":"-38.6633","observacao":"Atualizado pela GAP em 30/03/2016.\r\nO TERMINAL ESTÁ LOCALIZADO E","fonte":"Antaq","cdc_troide":null,"CP_Fluxo_c":"26","CP_Fluxo_1":"Portos","CP_Fluxo_2":"Rio de Janeiro","CP_Fluxo_3":"Origem","CP_Fluxo_4":"0","CP_Fluxo_5":"Portos","CP_Fluxo_6":"Terminal de Regaiseficação de GNL da Bahia - TRBA","CP_Fluxo_7":"Destino","CP_Fluxo_8":"4","CP_Fluxo_9":"26235,404","CP_Fluxo10":"t","CP_Fluxo11":"carga"},"geometry":{"type":"Point","coordinates":[-38.663333,-12.812222]}},
{"type":"Feature","properties":{"idi_tuaria":300104,"idseq":0,"cdi_tuaria":"BRRJ039","nome":"Terminal Nov Flexibles","tipo":"Terminal de uso privado","cdbigrama":"BR","cdtrigrama":"BRR","cdterminal":"BRRJ039","situacao":"Em Operação","gestao":"Privada","modalidade":"Terminal de uso privado","companhia":"NOV FLEXIBLES EQUIPAMENTOS E SERVICOS LTDA.","cnpj":"13812133000104","legislacao":"CA 015/2014-SEP/PR","pro_didade":null,"endereco":"Via 5 Projetada, Lote A12","com_emento":null,"numero":null,"bairro":"Distrito Industrial","cep":"28200000","idcidade":"3305000","cidade":null,"idestado":null,"estado":null,"idr_rafica":null,"reg_rafica":null,"loc_izacao":null,"latitude":"-21.8689","longitude":"-41.0139","observacao":"Atualizado pela GAP em 29/04/2015.","fonte":"Antaq","cdc_troide":null,"CP_Fluxo_c":"35","CP_Fluxo_1":"Portos","CP_Fluxo_2":"Vitória","CP_Fluxo_3":"Origem","CP_Fluxo_4":"0","CP_Fluxo_5":"Portos","CP_Fluxo_6":"Terminal Nov Flexibles","CP_Fluxo_7":"Destino","CP_Fluxo_8":"4","CP_Fluxo_9":"671,807","CP_Fluxo10":"t","CP_Fluxo11":"carga"},"geometry":{"type":"Point","coordinates":[-41.013888,-21.868888]}},
{"type":"Feature","properties":{"idi_tuaria":300116,"idseq":0,"cdi_tuaria":"BRES020","nome":"Terminal Portuário da Glória - TPG","tipo":"Terminal de uso privado","cdbigrama":"BR","cdtrigrama":"BRE","cdterminal":"BRES020","situacao":"Em Operação","gestao":"Privada","modalidade":"Terminal de uso privado","companhia":"SS NAVAL COMÉRCIO E SERVIÇOS LTDA.","cnpj":"04570351000199","legislacao":"CA 029/2014-SEP/PR","pro_didade":null,"endereco":"Rua Beira Mar","com_emento":null,"numero":1012,"bairro":"Prainha da Glória","cep":"29122780","idcidade":"3205200","cidade":null,"idestado":null,"estado":null,"idr_rafica":null,"reg_rafica":null,"loc_izacao":null,"latitude":null,"longitude":null,"observacao":"Atualizado pela GAP em 29/04/2015.\r\nEm 26/11/2014: necessário at","fonte":"Antaq","cdc_troide":null,"CP_Fluxo_c":"35","CP_Fluxo_1":"Portos","CP_Fluxo_2":"Vitória","CP_Fluxo_3":"Origem","CP_Fluxo_4":"0","CP_Fluxo_5":"Portos","CP_Fluxo_6":"Terminal Portuário da Glória - TPG","CP_Fluxo_7":"Destino","CP_Fluxo_8":"4","CP_Fluxo_9":"2","CP_Fluxo10":"t","CP_Fluxo11":"carga"},"geometry":{"type":"Point","coordinates":[-40.306944,-20.3275]}},
{"type":"Feature","properties":{"idi_tuaria":300187,"idseq":0,"cdi_tuaria":"BRAM025","nome":"Terminais Fluviais do Brasil","tipo":"Terminal de uso privado","cdbigrama":"BR","cdtrigrama":"BRA","cdterminal":"BRAM025","situacao":"Em Operação","gestao":"Privada","modalidade":"Terminal de uso privado","companhia":"TERMINAIS FLUVIAIS DO BRASIL S.A.","cnpj":"11389394000219","legislacao":"CA 013/2014-ANTAQ","pro_didade":null,"endereco":"RUA CARLOS HENRIQUE MOHERING","com_emento":null,"numero":1300,"bairro":"JAUARY II","cep":"69100000","idcidade":"1301902","cidade":null,"idestado":null,"estado":null,"idr_rafica":null,"reg_rafica":null,"loc_izacao":"Amazonas","latitude":"-3.15167","longitude":"-58.4328","observacao":"Atualizado pela GAP em 27/04/2015 - PROCESSO 50300.002252/2011-2","fonte":"Antaq","cdc_troide":null,"CP_Fluxo_c":"300236","CP_Fluxo_1":"Portos","CP_Fluxo_2":"Itaqui","CP_Fluxo_3":"Origem","CP_Fluxo_4":"0","CP_Fluxo_5":"Portos","CP_Fluxo_6":"Terminais Fluviais do Brasil","CP_Fluxo_7":"Destino","CP_Fluxo_8":"4","CP_Fluxo_9":"14436,533","CP_Fluxo10":"t","CP_Fluxo11":"carga"},"geometry":{"type":"Point","coordinates":[-58.432777,-3.151666]}},
{"type":"Feature","properties":{"idi_tuaria":300235,"idseq":0,"cdi_tuaria":"BRAM032","nome":"J A Leite Navegação","tipo":"Estação de transbordo de cargas","cdbigrama":"BR","cdtrigrama":"BRA","cdterminal":"BRAM032","situacao":"Em Operação","gestao":"Privada","modalidade":"Estação de transbordo de cargas","companhia":"J. A. LEITE NAVEGAÇÃO LTDA.","cnpj":"04355608000190","legislacao":"CA 10/2016-SEP/PR","pro_didade":null,"endereco":"Rua Padre Agostinho Caballeiro Martim","com_emento":"B","numero":299,"bairro":"Santo Antônio","cep":"69035090","idcidade":"1302603","cidade":null,"idestado":null,"estado":null,"idr_rafica":null,"reg_rafica":null,"loc_izacao":"Negro","latitude":"-3.11924","longitude":"-60.0501","observacao":"Atualizado pela GAP em 11/05/2016.","fonte":"Antaq","cdc_troide":null,"CP_Fluxo_c":"21","CP_Fluxo_1":"Portos","CP_Fluxo_2":"Paranaguá","CP_Fluxo_3":"Origem","CP_Fluxo_4":"0","CP_Fluxo_5":"Portos","CP_Fluxo_6":"J A Leite Navegação","CP_Fluxo_7":"Destino","CP_Fluxo_8":"4","CP_Fluxo_9":"3,18","CP_Fluxo10":"t","CP_Fluxo11":"carga"},"geometry":{"type":"Point","coordinates":[-60.050077,-3.119235]}},
{"type":"Feature","properties":{"idi_tuaria":300236,"idseq":0,"cdi_tuaria":"BRIQI","nome":"Itaqui","tipo":"Porto Organizado","cdbigrama":"BR","cdtrigrama":"IQI","cdterminal":null,"situacao":"Operando","gestao":"SEP","modalidade":"http://www.portodoitaqui.ma.gov.br/","companhia":null,"cnpj":null,"legislacao":null,"pro_didade":null,"endereco":null,"com_emento":null,"numero":null,"bairro":null,"cep":null,"idcidade":"BR211130","cidade":"São Luís","idestado":"BR21","estado":"MA","idr_rafica":8,"reg_rafica":"Região Hidrográfica Atlântico Nordeste Ocidental","loc_izacao":null,"latitude":"-2.578333°","longitude":"-44.368611°","observacao":null,"fonte":"ANTAQ","cdc_troide":"BRITQ","CP_Fluxo_c":"18","CP_Fluxo_1":"Portos","CP_Fluxo_2":"Manaus","CP_Fluxo_3":"Origem","CP_Fluxo_4":"0","CP_Fluxo_5":"Portos","CP_Fluxo_6":"Itaqui","CP_Fluxo_7":"Destino","CP_Fluxo_8":"4","CP_Fluxo_9":"63,076","CP_Fluxo10":"t","CP_Fluxo11":"carga"},"geometry":{"type":"Point","coordinates":[-44.369722,-2.568611]}},
{"type":"Feature","properties":{"idi_tuaria":300237,"idseq":0,"cdi_tuaria":"BRIGI","nome":"Itaguaí (Sepetiba) ","tipo":"Porto Organizado","cdbigrama":"BR","cdtrigrama":"IGI","cdterminal":null,"situacao":"Operando","gestao":"SEP","modalidade":"http://itaguai.portosrio.gov.br/","companhia":null,"cnpj":null,"legislacao":"Lei 5.917/73","pro_didade":null,"endereco":null,"com_emento":null,"numero":null,"bairro":null,"cep":null,"idcidade":"BR330200","cidade":"Itaguaí","idestado":"BR33","estado":"RJ","idr_rafica":12,"reg_rafica":"Região Hidrográfica Atlântico  Sudeste","loc_izacao":null,"latitude":"-22.930278°","longitude":"-43.837778°","observacao":null,"fonte":"ANTAQ","cdc_troide":"BRSPB","CP_Fluxo_c":"35","CP_Fluxo_1":"Portos","CP_Fluxo_2":"Vitória","CP_Fluxo_3":"Origem","CP_Fluxo_4":"0","CP_Fluxo_5":"Portos","CP_Fluxo_6":"Itaguaí","CP_Fluxo_7":"Destino","CP_Fluxo_8":"4","CP_Fluxo_9":"1245,672","CP_Fluxo10":"t","CP_Fluxo11":"carga"},"geometry":{"type":"Point","coordinates":[-43.840555,-22.918888]}}
]
}
