{
"type": "FeatureCollection",
"name": "TKU-2021-interior portos",
"features": [
{"type":"Feature","properties":{"idi_tuaria":100,"idseq":0,"cdi_tuaria":"BRPA001","nome":"Terminal Trombetas","tipo":"Terminal de uso privado","cdbigrama":"BR","cdtrigrama":"BRP","cdterminal":"BRPA001","situacao":"Em Operação","gestao":"Privada","modalidade":"Terminal de uso privado","companhia":"MINERAÇÃO RIO DO NORTE","cnpj":"04932216000146","legislacao":"CA 062/2015-ANTAQ","pro_didade":null,"endereco":"PORTO TROMBETAS","com_emento":null,"numero":null,"bairro":"CENTRO","cep":"68275000","idcidade":"1505304","cidade":null,"idestado":null,"estado":null,"idr_rafica":null,"reg_rafica":null,"loc_izacao":"Trombetas","latitude":"-1.46116","longitude":"-56.3805","observacao":"Atualizado pela GAP em 27/04/2015\r\nCONTRATO DE ADESÃO Nº 062-ANT","fonte":"Antaq","cdc_troide":null},"geometry":{"type":"Point","coordinates":[-56.380277,-1.460277]}},
{"type":"Feature","properties":{"idi_tuaria":110,"idseq":0,"cdi_tuaria":"BRMS001","nome":"Granel Química Ladário","tipo":"Terminal de uso privado","cdbigrama":"BR","cdtrigrama":"BRM","cdterminal":"BRMS001","situacao":"Em Operação","gestao":"Privada","modalidade":"Terminal de uso privado","companhia":"GRANEL QUÍMICA LTDA","cnpj":"44983435000411","legislacao":"CA 068/2015-ANTAQ","pro_didade":null,"endereco":"PORTO DE LADÁRIO LOTE S/Nº","com_emento":null,"numero":null,"bairro":"CENTRO","cep":"79370000","idcidade":"5005202","cidade":null,"idestado":null,"estado":null,"idr_rafica":null,"reg_rafica":null,"loc_izacao":"Paraguai","latitude":"-19.0047","longitude":"-57.5861","observacao":"- Atualizado pela GAP em 18/06/2015\r\nAtualizado em 12/05/2015 pe","fonte":"Antaq","cdc_troide":null},"geometry":{"type":"Point","coordinates":[-57.586111,-19.004722]}},
{"type":"Feature","properties":{"idi_tuaria":133,"idseq":0,"cdi_tuaria":"BRRS008","nome":"Terminal Privado Copelmi","tipo":"Terminal de uso privado","cdbigrama":"BR","cdtrigrama":"BRR","cdterminal":"BRRS008","situacao":"Em Operação","gestao":"Privada","modalidade":"Terminal de uso privado","companhia":"COPELMI MINERAÇÃO LTDA.","cnpj":"33059528000438","legislacao":"CA 083/2015-ANTAQ","pro_didade":null,"endereco":"AVENIDA GEÓLOGO WHITE","com_emento":"S/Nº","numero":null,"bairro":"CENTRO","cep":"96745000","idcidade":"4305355","cidade":null,"idestado":null,"estado":null,"idr_rafica":null,"reg_rafica":null,"loc_izacao":"Taquari","latitude":null,"longitude":null,"observacao":"Atualizado pela GAP em 18/06/2015. \r\nAtualizado em 26/5/2011;","fonte":"Antaq","cdc_troide":null},"geometry":{"type":"Point","coordinates":[-51.623888,-29.94861]}},
{"type":"Feature","properties":{"idi_tuaria":228,"idseq":0,"cdi_tuaria":"BRMS006","nome":"Terminal Intermodal Cargill - Três Lagoas","tipo":"Terminal de uso privado","cdbigrama":"BR","cdtrigrama":"BRM","cdterminal":"BRMS006","situacao":"Em Operação","gestao":"Privada","modalidade":"Terminal de uso privado","companhia":"CARGILL AGRICOLA S.A.","cnpj":"60498706029481","legislacao":"CA 055/2014-ANTAQ","pro_didade":null,"endereco":"ROD. 264 - ACESSO FERROVIÁRIO NOVO OESTE/BRASIL FERROVIAS","com_emento":null,"numero":null,"bairro":"PARQUE INDUSTRIAL","cep":"79610090","idcidade":"5008305","cidade":null,"idestado":null,"estado":null,"idr_rafica":null,"reg_rafica":null,"loc_izacao":"Paraná","latitude":"-20.8056","longitude":"-51.6419","observacao":"Atualizado pela GAP em 29/04/2015.\r\nCONTRATO DE ADESÃO Nº 55/201","fonte":"Antaq","cdc_troide":null},"geometry":{"type":"Point","coordinates":[-51.641944,-20.805555]}},
{"type":"Feature","properties":{"idi_tuaria":1260,"idseq":0,"cdi_tuaria":"BR260","nome":"Ladário","tipo":"Porto Público","cdbigrama":"BR","cdtrigrama":"260","cdterminal":null,"situacao":"Inoperante","gestao":"Desconhecida","modalidade":null,"companhia":null,"cnpj":null,"legislacao":null,"pro_didade":null,"endereco":null,"com_emento":null,"numero":null,"bairro":null,"cep":null,"idcidade":"BR500520","cidade":"Ladário","idestado":"BR50","estado":"MS","idr_rafica":3,"reg_rafica":"Região Hidrográfica do Paraguai","loc_izacao":"Rio Paraguai","latitude":"-19.001245°","longitude":"-57.599152°","observacao":null,"fonte":"SNV/ANTAQ/LabTrans","cdc_troide":"BR260"},"geometry":{"type":"Point","coordinates":[-57.599152,-19.001245]}},
{"type":"Feature","properties":{"idi_tuaria":1284,"idseq":0,"cdi_tuaria":"BR284","nome":"Porto Barragem de Jupiá","tipo":"Porto Público","cdbigrama":"BR","cdtrigrama":"284","cdterminal":null,"situacao":"Planejado","gestao":"Desconhecida","modalidade":null,"companhia":null,"cnpj":null,"legislacao":null,"pro_didade":null,"endereco":null,"com_emento":null,"numero":null,"bairro":null,"cep":null,"idcidade":"BR500830","cidade":"Três Lagoas","idestado":"BR50","estado":"MS","idr_rafica":11,"reg_rafica":"Região Hidrográfica do Paraná","loc_izacao":"Rio Paraná","latitude":"-20.78374°","longitude":"-51.637023°","observacao":null,"fonte":"SNV/ANTAQ/LabTrans","cdc_troide":"BRMS006"},"geometry":{"type":"Point","coordinates":[-51.637023,-20.78374]}},
{"type":"Feature","properties":{"idi_tuaria":1290,"idseq":0,"cdi_tuaria":"BRSOS","nome":"São Simão","tipo":"Porto Público","cdbigrama":"BR","cdtrigrama":"SOS","cdterminal":null,"situacao":"Planejado","gestao":"Desconhecida","modalidade":null,"companhia":"DNPVN/DNIT","cnpj":null,"legislacao":"Lei 9.852/99","pro_didade":null,"endereco":null,"com_emento":null,"numero":null,"bairro":null,"cep":null,"idcidade":"BR522040","cidade":"São Simão","idestado":"BR52","estado":"GO","idr_rafica":11,"reg_rafica":"Região Hidrográfica do Paraná","loc_izacao":"Rio Paranaíba","latitude":"-19.064299°","longitude":"-50.517°","observacao":null,"fonte":"SNV/DNIT","cdc_troide":"BRSOS"},"geometry":{"type":"Point","coordinates":[-50.517,-19.064299]}},
{"type":"Feature","properties":{"idi_tuaria":300108,"idseq":0,"cdi_tuaria":"BRTO001","nome":"Porto Praia Norte","tipo":"Estação de transbordo de cargas","cdbigrama":"BR","cdtrigrama":"BRT","cdterminal":"BRTO001","situacao":"Em Operação","gestao":"Privada","modalidade":"Estação de transbordo de cargas","companhia":"PORTO PRAIA NORTE OPERAÇÕES PORTUÁRIAS E SER","cnpj":"13002778000181","legislacao":"CA 021/2014-SEP/PR","pro_didade":null,"endereco":"AVENIDA TOCANTIS","com_emento":null,"numero":1,"bairro":"INDUSTRIAL","cep":"77970000","idcidade":"1718303","cidade":null,"idestado":null,"estado":null,"idr_rafica":null,"reg_rafica":null,"loc_izacao":"Tocantins","latitude":"-33","longitude":"-33","observacao":"TLO 28/2018-SOG (operação parcial): A emissão do TLO integral fi","fonte":"Antaq","cdc_troide":null},"geometry":{"type":"Point","coordinates":[-47.817222,-5.388611]}},
{"type":"Feature","properties":{"idi_tuaria":300111,"idseq":0,"cdi_tuaria":"BRGO009","nome":"Caramuru Alimentos São Simão","tipo":"Terminal de uso privado","cdbigrama":"BR","cdtrigrama":"BRG","cdterminal":"BRGO009","situacao":"Em Operação","gestao":"Privada","modalidade":"Terminal de uso privado","companhia":"CARAMURU ALIMENTOS S.A.","cnpj":"00080671000371","legislacao":"CA 028/2014-SEP/PR","pro_didade":null,"endereco":"Avenida Eliezer Oliveira Guimarães, Módulo 10","com_emento":null,"numero":null,"bairro":"Distrito Agroindustrial","cep":"75890000","idcidade":"5220405","cidade":null,"idestado":null,"estado":null,"idr_rafica":null,"reg_rafica":null,"loc_izacao":"Tietê","latitude":"-19.0683","longitude":"-50.5172","observacao":"Atualizado pela GAP em 14/09/2016 - TLO 014/2016-SOG pulicado no","fonte":"Antaq","cdc_troide":null},"geometry":{"type":"Point","coordinates":[-50.517222,-19.068333]}},
{"type":"Feature","properties":{"idi_tuaria":300112,"idseq":0,"cdi_tuaria":"BRGO008","nome":"Estação Caramuru","tipo":"Estação de transbordo de cargas","cdbigrama":"BR","cdtrigrama":"BRG","cdterminal":"BRGO008","situacao":"Em Operação","gestao":"Privada","modalidade":"Estação de transbordo de cargas","companhia":"CARAMURU ALIMENTOS S.A.","cnpj":"00080671000100","legislacao":"CA 027/2014-SEP/PR","pro_didade":null,"endereco":"Avenida Eliezer Oliveira Guimarães, Módulo 5","com_emento":null,"numero":null,"bairro":"Distrito Agroindustrial","cep":"0","idcidade":"5220405","cidade":null,"idestado":null,"estado":null,"idr_rafica":null,"reg_rafica":null,"loc_izacao":"Tietê","latitude":null,"longitude":null,"observacao":"Atualizado pela GAP em 14/09/2016. TLO 13/2016-SOG publicado no","fonte":"Antaq","cdc_troide":null},"geometry":{"type":"Point","coordinates":[-50.515555,-19.065]}},
{"type":"Feature","properties":{"idi_tuaria":300174,"idseq":0,"cdi_tuaria":"BRPA059","nome":"Mineração Rio do Norte - Rampa de Suprimentos","tipo":"Registro - Instalação rudimentar","cdbigrama":"BR","cdtrigrama":"BRP","cdterminal":"BRPA059","situacao":"Em Operação","gestao":"Privada","modalidade":"Registro - Instalação rudimentar","companhia":"MINERAÇÃO RIO DO NORTE","cnpj":"04932216000146","legislacao":"Res. 4195/2015","pro_didade":null,"endereco":"Rua Rio Jari","com_emento":"S/Nº","numero":null,"bairro":"Porto Trombetas","cep":"68275000","idcidade":"1505304","cidade":null,"idestado":null,"estado":null,"idr_rafica":null,"reg_rafica":null,"loc_izacao":"Trombetas","latitude":null,"longitude":null,"observacao":"Cadastro realizado pela GAP em 25/06/2015","fonte":"Antaq","cdc_troide":null},"geometry":{"type":"Point","coordinates":[-56.376111,-1.460833]}},
{"type":"Feature","properties":{"idi_tuaria":300175,"idseq":0,"cdi_tuaria":"BRPA060","nome":"Mineração Rio do Norte - Pátio de Toras","tipo":"Registro - Instalação rudimentar","cdbigrama":"BR","cdtrigrama":"BRP","cdterminal":"BRPA060","situacao":"Em Operação","gestao":"Privada","modalidade":"Registro - Instalação rudimentar","companhia":"MINERAÇÃO RIO DO NORTE","cnpj":"04932216000146","legislacao":"Res. 4196/2015","pro_didade":null,"endereco":"Rua Rio Jari","com_emento":"S/Nº","numero":null,"bairro":"Porto Trombetas","cep":"68275000","idcidade":"1505304","cidade":null,"idestado":null,"estado":null,"idr_rafica":null,"reg_rafica":null,"loc_izacao":"Trombetas","latitude":null,"longitude":null,"observacao":"Cadastro realizado pela GAP em 25/06/2015","fonte":"Antaq","cdc_troide":null},"geometry":{"type":"Point","coordinates":[-56.382777,-1.461111]}},
{"type":"Feature","properties":{"idi_tuaria":300176,"idseq":0,"cdi_tuaria":"BRPA062","nome":"Mineração Rio do Norte - Balsa Matuera","tipo":"Registro - Instalação rudimentar","cdbigrama":"BR","cdtrigrama":"BRP","cdterminal":"BRPA062","situacao":"Em Operação","gestao":"Privada","modalidade":"Registro - Instalação rudimentar","companhia":"MINERAÇÃO RIO DO NORTE","cnpj":"04932216000146","legislacao":"Res. 4289/2015","pro_didade":null,"endereco":"Rua Rio Jari","com_emento":"S/N","numero":null,"bairro":"Porto Trombeta","cep":"68275000","idcidade":"1505304","cidade":null,"idestado":null,"estado":null,"idr_rafica":null,"reg_rafica":null,"loc_izacao":"Trombetas","latitude":null,"longitude":null,"observacao":"Cadastro realizado pela GAP em 04/09/2015 com base na Publicação","fonte":"Antaq","cdc_troide":null},"geometry":{"type":"Point","coordinates":[-56.376666,-1.460555]}},
{"type":"Feature","properties":{"idi_tuaria":300548,"idseq":0,"cdi_tuaria":"BRGO010","nome":"ETC ADM Armazens Gerais São Simão","tipo":"Estação de transbordo de cargas","cdbigrama":"BR","cdtrigrama":"BRG","cdterminal":"BRGO010","situacao":"Construção Concluída","gestao":"Privada","modalidade":"Estação de transbordo de cargas","companhia":"ADM ARMAZENS GERAIS LTDA","cnpj":"36320794003214","legislacao":"CA 11/2019-MINFRA","pro_didade":null,"endereco":"AV ELIEZER DE OLIVEIRA GUIMARAES","com_emento":null,"numero":null,"bairro":"DISTRITO AGROINDUSTRIAL","cep":"75890000","idcidade":"5220405","cidade":null,"idestado":null,"estado":null,"idr_rafica":null,"reg_rafica":null,"loc_izacao":"Paranaíba","latitude":"-19.0665","longitude":"-50.5176","observacao":"Atualizado pela GAP em 18/11/2019","fonte":"Antaq","cdc_troide":null},"geometry":{"type":"Point","coordinates":[-50.517,-19.065999]}},
{"type":"Feature","properties":{"idi_tuaria":300564,"idseq":0,"cdi_tuaria":"BRPA209","nome":"Base de Oriximiná - BARIX","tipo":"Estação de transbordo de cargas","cdbigrama":"BR","cdtrigrama":"BRP","cdterminal":"BRPA209","situacao":"Em Operação","gestao":"Privada","modalidade":"Estação de transbordo de cargas","companhia":"PETROBRAS DISTRIBUIDORA S.A.","cnpj":"34274233014588","legislacao":"CA 07/2019-MINFRA","pro_didade":null,"endereco":"Margem Direita do Rio Trombetas","com_emento":null,"numero":null,"bairro":"Porto Trombetas","cep":"68275000","idcidade":"1505304","cidade":null,"idestado":null,"estado":null,"idr_rafica":null,"reg_rafica":null,"loc_izacao":"Trombetas","latitude":"-1.46162","longitude":"-56.3839","observacao":"Cadastro GAP 05/11/2019; Processo SEI 50300.007906/2017-03","fonte":"Antaq","cdc_troide":null},"geometry":{"type":"Point","coordinates":[-56.383899,-1.461621]}},
{"type":"Feature","properties":{"idi_tuaria":300592,"idseq":0,"cdi_tuaria":"BRMS013","nome":"JDS Turismo","tipo":"Registro - Instalação de apoio","cdbigrama":"BR","cdtrigrama":"BRM","cdterminal":"BRMS013","situacao":"Em Operação","gestao":"Privada","modalidade":"Registro - Instalação de apoio","companhia":"J D SANTANA EIRELI","cnpj":"37205671000107","legislacao":"Res. 7683-ANTAQ","pro_didade":null,"endereco":"Rua do Porto","com_emento":null,"numero":543,"bairro":"Centro","cep":"79370000","idcidade":"5005202","cidade":null,"idestado":null,"estado":null,"idr_rafica":null,"reg_rafica":null,"loc_izacao":"Paraguai","latitude":"-19.0005","longitude":"-57.6027","observacao":"Cadastro GAP 28/04/2020\r\nProcesso SEI 50300.013889/2019-05","fonte":"Antaq","cdc_troide":null},"geometry":{"type":"Point","coordinates":[-57.602715,-19.000464]}}
]
}
