{
"type": "FeatureCollection",
"name": "TKU-2021-longo curso em interior portos origem",
"features": [
{"type":"Feature","properties":{"idi_tuaria":5,"idseq":0,"cdi_tuaria":"BRBEL","nome":"Belém  ","tipo":"Porto Organizado","cdbigrama":"BR","cdtrigrama":"BEL","cdterminal":null,"situacao":"Operando","gestao":"SEP","modalidade":"https://www.cdp.com.br/home","companhia":"Companhia Docas do Pará - CDP","cnpj":null,"legislacao":"Lei 5.917/73","pro_didade":9.0,"endereco":"Avenida Presidente Vargas","com_emento":"Em frente à Ilha das Onças","numero":41,"bairro":null,"cep":"66010000","idcidade":"BR150140","cidade":"Belém","idestado":"BR15","estado":"PA","idr_rafica":10,"reg_rafica":"Região Hidrográfica do Tocantins","loc_izacao":"Margem direita da Baía de Guajará","latitude":"-1.445278°","longitude":"-48.497777°","observacao":null,"fonte":"ANTAQ","cdc_troide":"BRBEL","CP_Fluxo_l":"Portos","CP_Fluxo_1":"Belém  ","CP_Fluxo_2":"Origem","CP_Fluxo_3":"0","CP_Fluxo_4":"300740","CP_Fluxo_5":"Portos","CP_Fluxo_6":"Linha de Base Reta Tocantins","CP_Fluxo_7":"Destino","CP_Fluxo_8":"4","CP_Fluxo_9":"30354,91","CP_Fluxo10":"t","CP_Fluxo11":"longo curso"},"geometry":{"type":"Point","coordinates":[-48.497777,-1.445278]}},
{"type":"Feature","properties":{"idi_tuaria":16,"idseq":0,"cdi_tuaria":"BRMCP","nome":"Macapá","tipo":"Porto Organizado","cdbigrama":"BR","cdtrigrama":"MCP","cdterminal":null,"situacao":"Operando","gestao":"SEP","modalidade":"http://www.docasdesantana.com.br/","companhia":"Companhia Docas de Santana - CDSA","cnpj":null,"legislacao":null,"pro_didade":12.0,"endereco":"Avenida Dante Micheline","com_emento":"Canal de Santana, em frente à ilha de mesmo nome","numero":5500,"bairro":"Jardim Camburi","cep":"29090900","idcidade":"BR160060","cidade":"Santana","idestado":"BR16","estado":"AP","idr_rafica":9,"reg_rafica":"Região Hidrográfica Amazônica","loc_izacao":"Margem esquerda do Rio Amazonas","latitude":"-0.055555°","longitude":"-51.166666°","observacao":null,"fonte":"ANTAQ","cdc_troide":"BRMCP","CP_Fluxo_l":"Portos","CP_Fluxo_1":"Macapá","CP_Fluxo_2":"Origem","CP_Fluxo_3":"0","CP_Fluxo_4":"300744","CP_Fluxo_5":"Portos","CP_Fluxo_6":"Linha de Base Reta Amazonas","CP_Fluxo_7":"Destino","CP_Fluxo_8":"4","CP_Fluxo_9":"29548,834","CP_Fluxo10":"t","CP_Fluxo11":"longo curso"},"geometry":{"type":"Point","coordinates":[-51.166666,-0.055555]}},
{"type":"Feature","properties":{"idi_tuaria":23,"idseq":0,"cdi_tuaria":"BRPOA","nome":"Porto Alegre  ","tipo":"Porto Organizado","cdbigrama":"BR","cdtrigrama":"POA","cdterminal":null,"situacao":"Operando","gestao":"SEP","modalidade":"http://www.sph.rs.gov.br/sph_2006/content/porto_poa/porto_poa_apresentacao.php","companhia":"Superintendência de Portos e Hidrovias do Ri","cnpj":null,"legislacao":null,"pro_didade":5.2,"endereco":"Avenida Mauá","com_emento":null,"numero":1050,"bairro":"Centro","cep":"90010110","idcidade":"BR431490","cidade":"Porto Alegre","idestado":"BR43","estado":"RS","idr_rafica":2,"reg_rafica":"Região Hidrográfica Atlântico Sul","loc_izacao":"Margem esquerda do Rio Guaíba","latitude":"-30.007221°","longitude":"-51.211111°","observacao":null,"fonte":"ANTAQ","cdc_troide":"BRPOA","CP_Fluxo_l":"Portos","CP_Fluxo_1":"Porto Alegre  ","CP_Fluxo_2":"Origem","CP_Fluxo_3":"0","CP_Fluxo_4":"300743","CP_Fluxo_5":"Portos","CP_Fluxo_6":"Linha de base reta RS","CP_Fluxo_7":"Destino","CP_Fluxo_8":"4","CP_Fluxo_9":"9758,895","CP_Fluxo10":"t","CP_Fluxo11":"longo curso"},"geometry":{"type":"Point","coordinates":[-51.211111,-30.007221]}},
{"type":"Feature","properties":{"idi_tuaria":24,"idseq":0,"cdi_tuaria":"BRPVH","nome":"Porto Velho  ","tipo":"Porto Organizado","cdbigrama":"BR","cdtrigrama":"PVH","cdterminal":null,"situacao":"Operando","gestao":"SEP","modalidade":"http://www.rondonia.ro.gov.br/soph/sobre/sobre-a-soph/","companhia":"Sociedade de Portos e Hidrovias de Rondônia","cnpj":null,"legislacao":null,"pro_didade":2.5,"endereco":"Rua Terminal do Milagres","com_emento":"Distante 2km da cidade de Porto Velho","numero":400,"bairro":"Bairro da Balsa","cep":"78900750","idcidade":"BR110020","cidade":"Porto Velho","idestado":"BR11","estado":"RO","idr_rafica":9,"reg_rafica":"Região Hidrográfica Amazônica","loc_izacao":"Margem direita do Rio Madeira","latitude":"-8.748889°","longitude":"-63.91527800000001°","observacao":null,"fonte":"ANTAQ","cdc_troide":"BRPVH","CP_Fluxo_l":"Portos","CP_Fluxo_1":"Porto Velho  ","CP_Fluxo_2":"Origem","CP_Fluxo_3":"0","CP_Fluxo_4":"300744","CP_Fluxo_5":"Portos","CP_Fluxo_6":"Linha de Base Reta Amazonas","CP_Fluxo_7":"Destino","CP_Fluxo_8":"4","CP_Fluxo_9":"4007,001","CP_Fluxo10":"t","CP_Fluxo11":"longo curso"},"geometry":{"type":"Point","coordinates":[-63.915278,-8.748889]}},
{"type":"Feature","properties":{"idi_tuaria":29,"idseq":0,"cdi_tuaria":"BRSTM","nome":"Santarém  ","tipo":"Porto Organizado","cdbigrama":"BR","cdtrigrama":"STM","cdterminal":null,"situacao":"Operando","gestao":"SEP","modalidade":"https://www.cdp.com.br/porto-de-santarem","companhia":"Companhia Docas do Pará - CDP","cnpj":null,"legislacao":null,"pro_didade":11.5,"endereco":"Avenida Cuiabá","com_emento":"Próximo a confluência com o Rio Amazonas","numero":null,"bairro":null,"cep":"68040400","idcidade":"BR150680","cidade":"Santarém","idestado":"BR15","estado":"PA","idr_rafica":9,"reg_rafica":"Região Hidrográfica Amazônica","loc_izacao":"Margem direita do Rio Tapajós","latitude":"-2.415°","longitude":"-54.737499°","observacao":null,"fonte":"ANTAQ","cdc_troide":"BRSTM","CP_Fluxo_l":"Portos","CP_Fluxo_1":"Santarém  ","CP_Fluxo_2":"Origem","CP_Fluxo_3":"0","CP_Fluxo_4":"300744","CP_Fluxo_5":"Portos","CP_Fluxo_6":"Linha de Base Reta Amazonas","CP_Fluxo_7":"Destino","CP_Fluxo_8":"4","CP_Fluxo_9":"2030,08","CP_Fluxo10":"t","CP_Fluxo11":"longo curso"},"geometry":{"type":"Point","coordinates":[-54.737499,-2.415]}},
{"type":"Feature","properties":{"idi_tuaria":34,"idseq":0,"cdi_tuaria":"BRVDC","nome":"Vila do Conde ","tipo":"Porto Organizado","cdbigrama":"BR","cdtrigrama":"VDC","cdterminal":null,"situacao":"Operando","gestao":"SEP","modalidade":"http://www2.cdp.com.br/forms/porto_vila_conde.aspx","companhia":"Companhia Docas do Pará - CDP","cnpj":null,"legislacao":null,"pro_didade":13.0,"endereco":"Rodovia PA483","com_emento":null,"numero":null,"bairro":"Bairro Vila do Conde","cep":null,"idcidade":"BR150130","cidade":"Barcarena","idestado":"BR15","estado":"PA","idr_rafica":10,"reg_rafica":"Região Hidrográfica do Tocantins","loc_izacao":"Rio Pará","latitude":"-1.544167°","longitude":"-48.747777°","observacao":null,"fonte":"ANTAQ","cdc_troide":"BRVDC","CP_Fluxo_l":"Portos","CP_Fluxo_1":"Vila do Conde ","CP_Fluxo_2":"Origem","CP_Fluxo_3":"0","CP_Fluxo_4":"300740","CP_Fluxo_5":"Portos","CP_Fluxo_6":"Linha de Base Reta Tocantins","CP_Fluxo_7":"Destino","CP_Fluxo_8":"4","CP_Fluxo_9":"20800,91","CP_Fluxo10":"t","CP_Fluxo11":"longo curso"},"geometry":{"type":"Point","coordinates":[-48.747777,-1.544167]}},
{"type":"Feature","properties":{"idi_tuaria":103,"idseq":0,"cdi_tuaria":"BRPA002","nome":"Terminal Fluvial Caulim","tipo":"Terminal de uso privado","cdbigrama":"BR","cdtrigrama":"BRP","cdterminal":"BRPA002","situacao":"Em Operação","gestao":"Privada","modalidade":"Terminal de uso privado","companhia":"CADAM S.A","cnpj":"04788980001080","legislacao":"CA 009/2017-ANTAQ","pro_didade":null,"endereco":"VL MUNGUBA","com_emento":null,"numero":null,"bairro":"MONTE DOURADO","cep":"68240000","idcidade":"1500503","cidade":null,"idestado":null,"estado":null,"idr_rafica":null,"reg_rafica":null,"loc_izacao":"Jari","latitude":"-0.858307","longitude":"-52.5414","observacao":"Contrato de adesão nº 09-ANTAQ, de 23/10/17. Processo nº 50000.0","fonte":"Antaq","cdc_troide":null,"CP_Fluxo_l":"Portos","CP_Fluxo_1":"Terminal Fluvial Caulim","CP_Fluxo_2":"Origem","CP_Fluxo_3":"0","CP_Fluxo_4":"300744","CP_Fluxo_5":"Portos","CP_Fluxo_6":"Linha de Base Reta Amazonas","CP_Fluxo_7":"Destino","CP_Fluxo_8":"4","CP_Fluxo_9":"41138,39","CP_Fluxo10":"t","CP_Fluxo11":"longo curso"},"geometry":{"type":"Point","coordinates":[-52.541353,-0.858307]}},
{"type":"Feature","properties":{"idi_tuaria":104,"idseq":0,"cdi_tuaria":"BRPA004","nome":"Porto Jari - Terminal Munguba","tipo":"Terminal de uso privado","cdbigrama":"BR","cdtrigrama":"BRP","cdterminal":"BRPA004","situacao":"Em Operação","gestao":"Privada","modalidade":"Terminal de uso privado","companhia":"JARI CELULOSE S.A.","cnpj":"04815734000180","legislacao":"CA 058/2015-ANTAQ","pro_didade":null,"endereco":"VILA MUNGUBA","com_emento":"S/N (PORTO MUNGUBA)","numero":null,"bairro":"DISTRITO MONTE DOURADO","cep":"68240000","idcidade":"1500503","cidade":null,"idestado":null,"estado":null,"idr_rafica":null,"reg_rafica":null,"loc_izacao":"Jari","latitude":"-0.926062","longitude":"-52.4328","observacao":"Atualizado pela GAP em 27/04/2015 \r\nAs correspondências devem se","fonte":"Antaq","cdc_troide":null,"CP_Fluxo_l":"Portos","CP_Fluxo_1":"Porto Jari - Terminal Munguba","CP_Fluxo_2":"Origem","CP_Fluxo_3":"0","CP_Fluxo_4":"300744","CP_Fluxo_5":"Portos","CP_Fluxo_6":"Linha de Base Reta Amazonas","CP_Fluxo_7":"Destino","CP_Fluxo_8":"4","CP_Fluxo_9":"38572,8","CP_Fluxo10":"t","CP_Fluxo11":"longo curso"},"geometry":{"type":"Point","coordinates":[-52.42367,-0.917928]}},
{"type":"Feature","properties":{"idi_tuaria":111,"idseq":0,"cdi_tuaria":"BRPA005","nome":"Terminal Ponta da Montanha","tipo":"Terminal de uso privado","cdbigrama":"BR","cdtrigrama":"BRP","cdterminal":"BRPA005","situacao":"Em Operação","gestao":"Privada","modalidade":"Terminal de uso privado","companhia":"TERMINAL DE GRAOS PONTA DA MONTANHA S.A.","cnpj":"17441792000213","legislacao":"CA 001/2014-ANTAQ","pro_didade":null,"endereco":"ESTRADA PONTA DA MONTANHA","com_emento":"S/Nº - KM 07","numero":null,"bairro":"VILA DO CONDE","cep":"68445000","idcidade":"1501303","cidade":null,"idestado":null,"estado":null,"idr_rafica":null,"reg_rafica":null,"loc_izacao":"Tocantins","latitude":"-1.56944","longitude":"-48.7817","observacao":"Atualizado pela GAAP em 27/04/2015 \r\nExtrato de Adesão 01/2014-A","fonte":"Antaq","cdc_troide":null,"CP_Fluxo_l":"Portos","CP_Fluxo_1":"Terminal Ponta da Montanha","CP_Fluxo_2":"Origem","CP_Fluxo_3":"0","CP_Fluxo_4":"300740","CP_Fluxo_5":"Portos","CP_Fluxo_6":"Linha de Base Reta Tocantins","CP_Fluxo_7":"Destino","CP_Fluxo_8":"4","CP_Fluxo_9":"34044,28","CP_Fluxo10":"t","CP_Fluxo11":"longo curso"},"geometry":{"type":"Point","coordinates":[-48.781666,-1.569444]}},
{"type":"Feature","properties":{"idi_tuaria":114,"idseq":0,"cdi_tuaria":"BRRS003","nome":"Terminal Santa Clara","tipo":"Terminal de uso privado","cdbigrama":"BR","cdtrigrama":"BRR","cdterminal":"BRRS003","situacao":"Em Operação","gestao":"Privada","modalidade":"Terminal de uso privado","companhia":"BRASKEM S.A.","cnpj":"42150391003862","legislacao":"CA 043/2014-ANTAQ","pro_didade":null,"endereco":"BR-386 - RODOVIA TABAÍ/CANOAS KM 419","com_emento":"PÓLO PETROQUÍMICO - VIA CONTORNO","numero":850,"bairro":"PASSO RASO","cep":"95853000","idcidade":"4322004","cidade":null,"idestado":null,"estado":null,"idr_rafica":null,"reg_rafica":null,"loc_izacao":"Canal Santa Clara","latitude":"-29.9014","longitude":"-51.3744","observacao":"Atualizado em 28/04/2015 pela GAP\r\nA Copesul S/A foi incorporada","fonte":"Antaq","cdc_troide":null,"CP_Fluxo_l":"Portos","CP_Fluxo_1":"Terminal Santa Clara","CP_Fluxo_2":"Origem","CP_Fluxo_3":"0","CP_Fluxo_4":"300743","CP_Fluxo_5":"Portos","CP_Fluxo_6":"Linha de base reta RS","CP_Fluxo_7":"Destino","CP_Fluxo_8":"4","CP_Fluxo_9":"1709,299","CP_Fluxo10":"t","CP_Fluxo11":"longo curso"},"geometry":{"type":"Point","coordinates":[-51.374443,-29.901389]}},
{"type":"Feature","properties":{"idi_tuaria":141,"idseq":0,"cdi_tuaria":"BRAM006","nome":"Porto Chibatão","tipo":"Terminal de uso privado","cdbigrama":"BR","cdtrigrama":"BRA","cdterminal":"BRAM006","situacao":"Em Operação","gestao":"Privada","modalidade":"Terminal de uso privado","companhia":"CHIBATÃO - NAVEGAÇÃO E COMÉRCIO LTDA","cnpj":"84098383000172","legislacao":"CA 03/2018-MTPA","pro_didade":null,"endereco":"RUA ZEBU","com_emento":null,"numero":201,"bairro":"COLÔNIA OLIVEIRA MACHADO","cep":"69073670","idcidade":"1302603","cidade":null,"idestado":null,"estado":null,"idr_rafica":null,"reg_rafica":null,"loc_izacao":"Negro","latitude":"-3.15574","longitude":"-59.9897","observacao":"Atualizado GAP em 23/07/18 atualizada a área do TUP e novo TLO 2","fonte":"Antaq","cdc_troide":null,"CP_Fluxo_l":"Portos","CP_Fluxo_1":"Porto Chibatão","CP_Fluxo_2":"Origem","CP_Fluxo_3":"0","CP_Fluxo_4":"300744","CP_Fluxo_5":"Portos","CP_Fluxo_6":"Linha de Base Reta Amazonas","CP_Fluxo_7":"Destino","CP_Fluxo_8":"4","CP_Fluxo_9":"95,728","CP_Fluxo10":"t","CP_Fluxo11":"longo curso"},"geometry":{"type":"Point","coordinates":[-59.99111,-3.16]}},
{"type":"Feature","properties":{"idi_tuaria":164,"idseq":0,"cdi_tuaria":"BRAM012","nome":"Super Terminais Comércio e Indústria","tipo":"Terminal de uso privado","cdbigrama":"BR","cdtrigrama":"BRA","cdterminal":"BRAM012","situacao":"Em Operação","gestao":"Privada","modalidade":"Terminal de uso privado","companhia":"SUPER TERMINAIS COMERCIO E INDUSTRIA LTDA","cnpj":"04335535000255","legislacao":"CA 051/2014-ANTAQ","pro_didade":null,"endereco":"RUA PONTA GROSSA","com_emento":null,"numero":256,"bairro":"COLÔNIA OLIVEIRA MACHADO","cep":"69074190","idcidade":"1302603","cidade":null,"idestado":null,"estado":null,"idr_rafica":null,"reg_rafica":null,"loc_izacao":"Negro","latitude":"-3.15694","longitude":"-59.9986","observacao":"Atualizado em 28/04/2015 pela GAP -\r\nCONTRATO DE ADESÃO Nº 51/20","fonte":"Antaq","cdc_troide":null,"CP_Fluxo_l":"Portos","CP_Fluxo_1":"Super Terminais Comércio e Indústria","CP_Fluxo_2":"Origem","CP_Fluxo_3":"0","CP_Fluxo_4":"300744","CP_Fluxo_5":"Portos","CP_Fluxo_6":"Linha de Base Reta Amazonas","CP_Fluxo_7":"Destino","CP_Fluxo_8":"4","CP_Fluxo_9":"954,666","CP_Fluxo10":"t","CP_Fluxo11":"longo curso"},"geometry":{"type":"Point","coordinates":[-59.99861,-3.156944]}},
{"type":"Feature","properties":{"idi_tuaria":171,"idseq":0,"cdi_tuaria":"BRPA014","nome":"Porto CRA","tipo":"Terminal de uso privado","cdbigrama":"BR","cdtrigrama":"BRP","cdterminal":"BRPA014","situacao":"Em Operação","gestao":"Privada","modalidade":"Terminal de uso privado","companhia":"COMPANHIA REFINADORA DA AMAZÔNIA - AGROPALMA","cnpj":"83663484000186","legislacao":"CA 016/2014-ANTAQ","pro_didade":null,"endereco":"RODOVIA ARTHUR BERNARDES","com_emento":null,"numero":5555,"bairro":"TAPANÃ","cep":"66825000","idcidade":"1501402","cidade":null,"idestado":null,"estado":null,"idr_rafica":null,"reg_rafica":null,"loc_izacao":"Guamá","latitude":"-1.33361","longitude":"-48.485","observacao":"Atualizado pela GAP em 28/04/2015\r\nAtualizado em 24/03/2015 pela","fonte":"Antaq","cdc_troide":null,"CP_Fluxo_l":"Portos","CP_Fluxo_1":"Porto CRA","CP_Fluxo_2":"Origem","CP_Fluxo_3":"0","CP_Fluxo_4":"300740","CP_Fluxo_5":"Portos","CP_Fluxo_6":"Linha de Base Reta Tocantins","CP_Fluxo_7":"Destino","CP_Fluxo_8":"4","CP_Fluxo_9":"1006,525","CP_Fluxo10":"t","CP_Fluxo11":"longo curso"},"geometry":{"type":"Point","coordinates":[-48.485278,-1.334167]}},
{"type":"Feature","properties":{"idi_tuaria":172,"idseq":0,"cdi_tuaria":"BRAM014","nome":"Terminal Graneleiro Hermasa","tipo":"Terminal de uso privado","cdbigrama":"BR","cdtrigrama":"BRA","cdterminal":"BRAM014","situacao":"Em Operação","gestao":"Privada","modalidade":"Terminal de uso privado","companhia":"HERMASA NAVEGAÇÃO DA AMAZÔNIA S.A.","cnpj":"84590892000207","legislacao":"CA 031/2014-ANTAQ","pro_didade":null,"endereco":"ESTRADA DAS INDÚSTRIAS","com_emento":"KM 7,5","numero":null,"bairro":"ZONA URBANA","cep":"69100000","idcidade":"1301902","cidade":null,"idestado":null,"estado":null,"idr_rafica":null,"reg_rafica":null,"loc_izacao":"Amazonas","latitude":"-3.13594","longitude":"-58.4831","observacao":"Em 10/12/2018 - GAP área da instalação alterada para 270.923,00m","fonte":"Antaq","cdc_troide":null,"CP_Fluxo_l":"Portos","CP_Fluxo_1":"Terminal Graneleiro Hermasa","CP_Fluxo_2":"Origem","CP_Fluxo_3":"0","CP_Fluxo_4":"300744","CP_Fluxo_5":"Portos","CP_Fluxo_6":"Linha de Base Reta Amazonas","CP_Fluxo_7":"Destino","CP_Fluxo_8":"4","CP_Fluxo_9":"47256,5","CP_Fluxo10":"t","CP_Fluxo11":"longo curso"},"geometry":{"type":"Point","coordinates":[-58.483611,-3.136111]}},
{"type":"Feature","properties":{"idi_tuaria":199,"idseq":0,"cdi_tuaria":"BRPA018","nome":"TERFRON","tipo":"Terminal de uso privado","cdbigrama":"BR","cdtrigrama":"BRP","cdterminal":"BRPA018","situacao":"Em Operação","gestao":"Privada","modalidade":"Terminal de uso privado","companhia":"NAVEGAÇÕES UNIDAS TAPAJÓS S/A","cnpj":"11338257000174","legislacao":"CA 085/2015-ANTAQ","pro_didade":null,"endereco":"AV. BEIRA MAR (RUA 3 DE OUTUBRO)","com_emento":"S/Nº","numero":null,"bairro":"VILA ITUPANEMA","cep":"68447000","idcidade":"1501303","cidade":null,"idestado":null,"estado":null,"idr_rafica":null,"reg_rafica":null,"loc_izacao":"Tocantins","latitude":"-1.49611","longitude":"-48.7272","observacao":"TLO 9/2020 SEI 0977417 - HTI 3/2020 SEI 0977454\r\n1° Termo Aditiv","fonte":"Antaq","cdc_troide":null,"CP_Fluxo_l":"Portos","CP_Fluxo_1":"TERFRON","CP_Fluxo_2":"Origem","CP_Fluxo_3":"0","CP_Fluxo_4":"300740","CP_Fluxo_5":"Portos","CP_Fluxo_6":"Linha de Base Reta Tocantins","CP_Fluxo_7":"Destino","CP_Fluxo_8":"4","CP_Fluxo_9":"184366,776","CP_Fluxo10":"t","CP_Fluxo11":"longo curso"},"geometry":{"type":"Point","coordinates":[-48.727221,-1.49611]}},
{"type":"Feature","properties":{"idi_tuaria":202,"idseq":0,"cdi_tuaria":"BRPA019","nome":"Terminal Fluvial de Juruti","tipo":"Terminal de uso privado","cdbigrama":"BR","cdtrigrama":"BRP","cdterminal":"BRPA019","situacao":"Em Operação","gestao":"Privada","modalidade":"Terminal de uso privado","companhia":"ALCOA WORLD ALUMINA BRASIL LTDA","cnpj":"06167730000591","legislacao":"CA 092/2015-ANTAQ","pro_didade":null,"endereco":"RODOV. PA 257 - KM 0,5","com_emento":"S/Nº, ÁREA INDUSTRIAL","numero":null,"bairro":"(PORTO CAPIRANGA)","cep":"68170000","idcidade":"1503903","cidade":null,"idestado":null,"estado":null,"idr_rafica":null,"reg_rafica":null,"loc_izacao":"Amazonas","latitude":"-2.17378","longitude":"-56.106","observacao":"Atualizado pela GAP em 07/10/2015 - Adapatção\r\nA empresa Omnia M","fonte":"Antaq","cdc_troide":null,"CP_Fluxo_l":"Portos","CP_Fluxo_1":"Terminal Fluvial de Juruti","CP_Fluxo_2":"Origem","CP_Fluxo_3":"0","CP_Fluxo_4":"300744","CP_Fluxo_5":"Portos","CP_Fluxo_6":"Linha de Base Reta Amazonas","CP_Fluxo_7":"Destino","CP_Fluxo_8":"4","CP_Fluxo_9":"699460","CP_Fluxo10":"t","CP_Fluxo11":"longo curso"},"geometry":{"type":"Point","coordinates":[-56.10598,-2.173782]}},
{"type":"Feature","properties":{"idi_tuaria":215,"idseq":0,"cdi_tuaria":"BRPA006","nome":"Porto Murucupi","tipo":"Terminal de uso privado","cdbigrama":"BR","cdtrigrama":"BRP","cdterminal":"BRPA006","situacao":"Em Operação","gestao":"Privada","modalidade":"Terminal de uso privado","companhia":"IMERYS RIO CAPIM CAULIM S/A","cnpj":"16532798000314","legislacao":"CA 084/2015-ANTAQ","pro_didade":null,"endereco":"RODOVIA PA-483","com_emento":"KM 20, S/N","numero":null,"bairro":"VILA DO CONDE","cep":"68445000","idcidade":"1501303","cidade":null,"idestado":null,"estado":null,"idr_rafica":null,"reg_rafica":null,"loc_izacao":"Tocantins","latitude":"-1.56722","longitude":"-48.7789","observacao":"Atualizado pela GAP em 18/06/2015\r\n\r\nPossuía o Contrato de Adesã","fonte":"Antaq","cdc_troide":null,"CP_Fluxo_l":"Portos","CP_Fluxo_1":"Porto Murucupi","CP_Fluxo_2":"Origem","CP_Fluxo_3":"0","CP_Fluxo_4":"300740","CP_Fluxo_5":"Portos","CP_Fluxo_6":"Linha de Base Reta Tocantins","CP_Fluxo_7":"Destino","CP_Fluxo_8":"4","CP_Fluxo_9":"13500","CP_Fluxo10":"t","CP_Fluxo11":"longo curso"},"geometry":{"type":"Point","coordinates":[-48.778888,-1.567221]}},
{"type":"Feature","properties":{"idi_tuaria":300103,"idseq":0,"cdi_tuaria":"BRPA043","nome":"Terminal Vila do Conde","tipo":"Terminal de uso privado","cdbigrama":"BR","cdtrigrama":"BRP","cdterminal":"BRPA043","situacao":"Em Operação","gestao":"Privada","modalidade":"Terminal de uso privado","companhia":"HIDROVIAS DO BRASIL - VILA DO CONDE S.A.","cnpj":"13574672000152","legislacao":"CA 016/2014-SEP/PR","pro_didade":null,"endereco":"Avenida Verde e Branco, Estrada de Itupanema","com_emento":null,"numero":null,"bairro":"Distrito de Vila do Conde","cep":"68445000","idcidade":"1501303","cidade":null,"idestado":null,"estado":null,"idr_rafica":null,"reg_rafica":null,"loc_izacao":"Pará","latitude":"-1.50588","longitude":"-48.7373","observacao":"Atualizado pela GAP em 14/07/2017.\r\nSEI 0903693 - Res. 7377 Conh","fonte":"Antaq","cdc_troide":null,"CP_Fluxo_l":"Portos","CP_Fluxo_1":"Terminal Vila do Conde","CP_Fluxo_2":"Origem","CP_Fluxo_3":"0","CP_Fluxo_4":"300740","CP_Fluxo_5":"Portos","CP_Fluxo_6":"Linha de Base Reta Tocantins","CP_Fluxo_7":"Destino","CP_Fluxo_8":"4","CP_Fluxo_9":"64605,895","CP_Fluxo10":"t","CP_Fluxo11":"longo curso"},"geometry":{"type":"Point","coordinates":[-48.736944,-1.505833]}}
]
}
