{
"type": "FeatureCollection",
"name": "TKU_2025_Longo Curso em Vias Interiores",
"features": [
{"type":"Feature","properties":{"idhidrovia":200000401,"nome":"Acesso ao Porto de Bel?m","navegacao":"Navega??o Interior","tipo":"Canal","vel_cional":15.0,"extensao":1.0,"tempo":"0d 0h 4min","cla_icacao":"Acesso simples","nome_rio":null,"nom_eclusa":null,"jurisdicao":null,"reg_rafica":null,"pro_de_min":null,"pro_de_max":null,"dominio":null,"observacao":null,"snv":null,"fonte":null,"idm_origem":"BR150140","mun_origem":"Bel?m","est_origem":"PA","idm_estino":"BR150140","mun_estino":"Bel?m","est_estino":"PA","idantaq":null,"Camada Sim":"1","FLUXO":289576.47},"geometry":{"type":"MultiLineString","coordinates":[[[-48.504393,-1.445494],[-48.501708,-1.441894],[-48.4989,-1.43109],[-48.499084,-1.422789],[-48.499206,-1.407103],[-48.498291,-1.391723],[-48.496093,-1.381286],[-48.490904,-1.367186],[-48.490904,-1.355528],[-48.49127,-1.344908],[-48.4942,-1.33087]]]}},
{"type":"Feature","properties":{"idhidrovia":200002075,"nome":"Hidrovia do Amazonas","navegacao":"Navega??o Interior","tipo":"Rio","vel_cional":25.0,"extensao":98.979075297500003,"tempo":"0d 3h 57min","cla_icacao":"Naveg?vel","nome_rio":"Rio Amazonas","nom_eclusa":null,"jurisdicao":"AHIMOC","reg_rafica":"Regi?o Hidrogr?fica Amaz?nica","pro_de_min":5.0,"pro_de_max":7.5,"dominio":"Uni?o","observacao":"Foz no oceano Atl?ntico _PA_ at? a conflu?ncia dos rios Negro e Solim?es.","snv":"Sim","fonte":"LabTrans/Antaq","idm_origem":"BR130430","mun_origem":"Urucar?","est_origem":"AM","idm_estino":"BR130440","mun_estino":"Urucurituba","est_estino":"AM","idantaq":1,"Camada Sim":"2","FLUXO":16379237.000000002},"geometry":{"type":"MultiLineString","coordinates":[[[-58.13872,-2.971408],[-58.137389,-2.960875],[-58.134093,-2.937926],[-58.127806,-2.913207],[-58.120421,-2.901976],[-58.110106,-2.884703],[-58.103697,-2.871397],[-58.097105,-2.858275],[-58.082396,-2.84619],[-58.066588,-2.834105],[-58.044005,-2.82141],[-58.025511,-2.816405],[-58.004698,-2.813292],[-57.978697,-2.8114],[-57.952208,-2.801268],[-57.937193,-2.791869],[-57.929076,-2.784911],[-57.923705,-2.778014],[-57.918028,-2.768797],[-57.914,-2.764525],[-57.909911,-2.761595],[-57.906187,-2.759581],[-57.900511,-2.757079],[-57.892394,-2.75421],[-57.881407,-2.751891],[-57.872984,-2.752074],[-57.866087,-2.753783],[-57.857176,-2.756895],[-57.848998,-2.759398],[-57.842589,-2.760191],[-57.837889,-2.759703],[-57.834227,-2.757994],[-57.830199,-2.756224],[-57.823668,-2.752501],[-57.819212,-2.750487],[-57.806578,-2.7442],[-57.797484,-2.739378],[-57.788573,-2.735777],[-57.783507,-2.734373],[-57.776427,-2.734496],[-57.771605,-2.734496],[-57.76599,-2.734007],[-57.759703,-2.733275],[-57.752013,-2.731078],[-57.744078,-2.729491],[-57.73712,-2.725096],[-57.73297,-2.720396],[-57.726073,-2.712279],[-57.722289,-2.705321],[-57.718382,-2.694273],[-57.711913,-2.682494],[-57.699706,-2.663207],[-57.693785,-2.654906],[-57.683104,-2.638976],[-57.670775,-2.620177],[-57.664488,-2.610411],[-57.655394,-2.597105],[-57.647826,-2.586607],[-57.633299,-2.565001],[-57.615904,-2.53961],[-57.610106,-2.530821],[-57.602599,-2.519103],[-57.595274,-2.508421],[-57.591673,-2.501097],[-57.586424,-2.489684],[-57.583922,-2.476378],[-57.581114,-2.464476],[-57.580077,-2.454588],[-57.574828,-2.438475],[-57.570372,-2.428282],[-57.559019,-2.415282],[-57.553282,-2.410277]]]}},
{"type":"Feature","properties":{"idhidrovia":200002077,"nome":"Hidrovia do Amazonas","navegacao":"Navega??o Interior","tipo":"Rio","vel_cional":25.0,"extensao":75.029085178399995,"tempo":"0d 3h 0min","cla_icacao":"Naveg?vel","nome_rio":"Rio Amazonas","nom_eclusa":null,"jurisdicao":"AHIMOC","reg_rafica":"Regi?o Hidrogr?fica Amaz?nica","pro_de_min":5.0,"pro_de_max":7.5,"dominio":"Uni?o","observacao":"Foz no oceano Atl?ntico _PA_ at? a conflu?ncia dos rios Negro e Solim?es.","snv":"Sim","fonte":"LabTrans/Antaq","idm_origem":"BR130190","mun_origem":"Itacoatiara","est_origem":"AM","idm_estino":"BR130260","mun_estino":"Manaus","est_estino":"AM","idantaq":1,"Camada Sim":"3","FLUXO":6641383.81},"geometry":{"type":"MultiLineString","coordinates":[[[-59.850531,-3.093378],[-59.846983,-3.091307],[-59.827879,-3.082091],[-59.79608,-3.072508],[-59.762206,-3.067503],[-59.736998,-3.063902],[-59.697325,-3.06378],[-59.669005,-3.069395],[-59.646605,-3.073973],[-59.621886,-3.082701],[-59.595702,-3.094908],[-59.569884,-3.107909],[-59.535582,-3.120177],[-59.50482,-3.12451],[-59.482909,-3.128111],[-59.466185,-3.133299],[-59.449583,-3.140807],[-59.434874,-3.147276],[-59.414305,-3.155028],[-59.401305,-3.159117],[-59.384276,-3.165892],[-59.371275,-3.170897],[-59.356017,-3.178221],[-59.346007,-3.184508],[-59.334593,-3.190489],[-59.317686,-3.200011],[-59.293211,-3.209898],[-59.280089,-3.214598],[-59.262877,-3.221312],[-59.236815,-3.231017],[-59.214965,-3.241686]]]}},
{"type":"Feature","properties":{"idhidrovia":200002081,"nome":"Hidrovia do Amazonas","navegacao":"Navega??o Interior","tipo":"Rio","vel_cional":25.0,"extensao":42.9995550577,"tempo":"0d 1h 43min","cla_icacao":"Naveg?vel","nome_rio":"Rio Amazonas","nom_eclusa":null,"jurisdicao":"AHIMOC","reg_rafica":"Regi?o Hidrogr?fica Amaz?nica","pro_de_min":5.0,"pro_de_max":7.5,"dominio":"Uni?o","observacao":"Foz no oceano Atl?ntico _PA_ at? a conflu?ncia dos rios Negro e Solim?es.","snv":"Sim","fonte":"LabTrans/Antaq","idm_origem":"BR150390","mun_origem":"Juruti","est_origem":"PA","idm_estino":"BR130340","mun_estino":"Parintins","est_estino":"AM","idantaq":1,"Camada Sim":"4","FLUXO":16379237.000000002},"geometry":{"type":"MultiLineString","coordinates":[[[-56.418088,-2.338289],[-56.40631,-2.303587],[-56.383788,-2.2713],[-56.367491,-2.261473],[-56.353026,-2.256468],[-56.329527,-2.250609],[-56.286986,-2.233885],[-56.247008,-2.207884],[-56.168578,-2.17108],[-56.138182,-2.160277],[-56.117796,-2.156676],[-56.103209,-2.150877],[-56.100263,-2.148049]]]}},
{"type":"Feature","properties":{"idhidrovia":200002082,"nome":"Hidrovia do Amazonas","navegacao":"Navega??o Interior","tipo":"Rio","vel_cional":25.0,"extensao":110.95942691,"tempo":"0d 4h 26min","cla_icacao":"Naveg?vel","nome_rio":"Rio Amazonas","nom_eclusa":null,"jurisdicao":"AHIMOR","reg_rafica":"Regi?o Hidrogr?fica Amaz?nica","pro_de_min":5.0,"pro_de_max":7.5,"dominio":"Uni?o","observacao":"Foz no oceano Atl?ntico _PA_ at? a conflu?ncia dos rios Negro e Solim?es.","snv":"Sim","fonte":"LabTrans/Antaq","idm_origem":"BR150050","mun_origem":"Almeirim","est_origem":"PA","idm_estino":"BR150600","mun_estino":"Prainha","est_estino":"PA","idantaq":1,"Camada Sim":"5","FLUXO":32942701.08},"geometry":{"type":"MultiLineString","coordinates":[[[-53.475707,-1.817381],[-53.458311,-1.814085],[-53.443114,-1.811827],[-53.420714,-1.806578],[-53.403075,-1.803099],[-53.394408,-1.800291],[-53.380309,-1.796873],[-53.359496,-1.791808],[-53.343626,-1.788207],[-53.331297,-1.7843],[-53.325072,-1.781676],[-53.317809,-1.778807],[-53.304381,-1.77252],[-53.296202,-1.770018],[-53.291686,-1.76898],[-53.286192,-1.767577],[-53.28131,-1.766112],[-53.274901,-1.764769],[-53.26837,-1.763487],[-53.258604,-1.76068],[-53.249693,-1.758727],[-53.242125,-1.757628],[-53.233885,-1.757079],[-53.225707,-1.758177],[-53.212218,-1.759703],[-53.202879,-1.761412],[-53.190428,-1.765196],[-53.179503,-1.768492],[-53.159178,-1.772398],[-53.145811,-1.774474],[-53.136595,-1.775023],[-53.125182,-1.77722],[-53.116515,-1.778502],[-53.106322,-1.778502],[-53.099608,-1.777708],[-53.095213,-1.776122],[-53.088683,-1.773375],[-53.083311,-1.772582],[-53.070677,-1.772276],[-53.062621,-1.770689],[-53.051695,-1.768492],[-53.044127,-1.766295],[-53.0343,-1.7619],[-53.023375,-1.758177],[-53.01599,-1.752074],[-53.007689,-1.7489],[-53.001585,-1.745604],[-52.994627,-1.738585],[-52.989073,-1.731993],[-52.983092,-1.72058],[-52.978209,-1.712523],[-52.969603,-1.696715],[-52.966795,-1.691222],[-52.960326,-1.679808],[-52.955382,-1.672789],[-52.945128,-1.661375],[-52.933104,-1.654295],[-52.928221,-1.653197],[-52.922789,-1.652098],[-52.913023,-1.649901],[-52.898802,-1.647826],[-52.872069,-1.64337],[-52.850279,-1.6416],[-52.836302,-1.64099],[-52.82141,-1.637022],[-52.800291,-1.630797],[-52.777769,-1.624205],[-52.757384,-1.617979],[-52.744688,-1.61328],[-52.736815,-1.605406],[-52.727782,-1.600096],[-52.697691,-1.587706],[-52.676573,-1.581786],[-52.646474,-1.577476],[-52.630323,-1.57633],[-52.606819,-1.56933],[-52.578606,-1.553367],[-52.575253,-1.547558],[-52.574455,-1.541838],[-52.574339,-1.537693],[-52.573721,-1.537286]]]}},
{"type":"Feature","properties":{"idhidrovia":200002083,"nome":"Hidrovia do Amazonas","navegacao":"Navega??o Interior","tipo":"Rio","vel_cional":25.0,"extensao":110.63821000299998,"tempo":"0d 4h 25min","cla_icacao":"Naveg?vel","nome_rio":"Rio Amazonas","nom_eclusa":null,"jurisdicao":"AHIMOC","reg_rafica":"Regi?o Hidrogr?fica Amaz?nica","pro_de_min":5.0,"pro_de_max":7.5,"dominio":"Uni?o","observacao":"Foz no oceano Atl?ntico _PA_ at? a conflu?ncia dos rios Negro e Solim?es.","snv":"Sim","fonte":"LabTrans/Antaq","idm_origem":"BR130340","mun_origem":"Parintins","est_origem":"AM","idm_estino":"BR130430","mun_estino":"Urucar?","est_estino":"AM","idantaq":1,"Camada Sim":"6","FLUXO":16379237.000000002},"geometry":{"type":"MultiLineString","coordinates":[[[-57.553282,-2.410277],[-57.53131,-2.390196],[-57.5036,-2.379515],[-57.475707,-2.380309],[-57.438414,-2.385191],[-57.396483,-2.401976],[-57.37329,-2.418883],[-57.353819,-2.433775],[-57.337584,-2.455687],[-57.325682,-2.470885],[-57.306883,-2.504515],[-57.283202,-2.549925],[-57.269103,-2.583006],[-57.247008,-2.614684],[-57.221983,-2.627806],[-57.200926,-2.631468],[-57.16931,-2.630614],[-57.147276,-2.625975],[-57.135069,-2.622313],[-57.125792,-2.616698],[-57.11627,-2.609373],[-57.103087,-2.595396],[-57.087889,-2.577696],[-57.069701,-2.556273],[-57.043517,-2.542296],[-57.024779,-2.540587],[-56.991087,-2.541197],[-56.9588,-2.547972],[-56.900206,-2.568785],[-56.85681,-2.587828],[-56.81909,-2.600584],[-56.787374,-2.609906],[-56.758092,-2.619839],[-56.742473,-2.622556],[-56.734423,-2.621308],[-56.734381,-2.621291]]]}},
{"type":"Feature","properties":{"idhidrovia":200002084,"nome":"Hidrovia do Amazonas","navegacao":"Navega??o Interior","tipo":"Rio","vel_cional":25.0,"extensao":122.678066293,"tempo":"0d 4h 54min","cla_icacao":"Naveg?vel","nome_rio":"Rio Amazonas","nom_eclusa":null,"jurisdicao":"AHIMOR","reg_rafica":"Regi?o Hidrogr?fica Amaz?nica","pro_de_min":5.0,"pro_de_max":7.5,"dominio":"Uni?o","observacao":"Foz no oceano Atl?ntico _PA_ at? a conflu?ncia dos rios Negro e Solim?es.","snv":"Sim","fonte":"LabTrans/Antaq","idm_origem":"BR150680","mun_origem":"Santar?m","est_origem":"PA","idm_estino":"BR150510","mun_estino":"?bidos","est_estino":"PA","idantaq":1,"Camada Sim":"7","FLUXO":22308952.0},"geometry":{"type":"MultiLineString","coordinates":[[[-55.517628,-1.920063],[-55.511083,-1.927404],[-55.502328,-1.936287],[-55.495697,-1.944127],[-55.487914,-1.952785],[-55.480101,-1.960875],[-55.470885,-1.96881],[-55.465208,-1.973998],[-55.460692,-1.978392],[-55.44171,-1.996092],[-55.424315,-2.014525],[-55.400877,-2.037779],[-55.377623,-2.059691],[-55.360106,-2.075926],[-55.344603,-2.089293],[-55.327208,-2.105894],[-55.30609,-2.122801],[-55.278685,-2.132384],[-55.25891,-2.137022],[-55.232298,-2.144286],[-55.19879,-2.150694],[-55.173582,-2.156798],[-55.143004,-2.162108],[-55.113097,-2.165892],[-55.094908,-2.167906],[-55.083128,-2.170226],[-55.06909,-2.170897],[-55.045103,-2.168883],[-55.026488,-2.164305],[-55.009886,-2.1593],[-54.991209,-2.150084],[-54.980711,-2.146178],[-54.973082,-2.141478],[-54.963927,-2.137511],[-54.952025,-2.133299],[-54.940978,-2.130492],[-54.934386,-2.129088],[-54.926085,-2.127623],[-54.9187,-2.127623],[-54.910399,-2.126707],[-54.902098,-2.127196],[-54.891478,-2.128722],[-54.866209,-2.137999],[-54.849913,-2.146727],[-54.836913,-2.156493],[-54.827879,-2.16931],[-54.822081,-2.178282],[-54.815489,-2.190978],[-54.805418,-2.208311],[-54.795226,-2.220702],[-54.779784,-2.233214],[-54.770995,-2.244017],[-54.760802,-2.258727],[-54.754027,-2.268675],[-54.742125,-2.283995],[-54.731993,-2.297606],[-54.724303,-2.312193],[-54.719298,-2.327696],[-54.713499,-2.343993],[-54.705504,-2.361082],[-54.699706,-2.3739],[-54.690489,-2.389098],[-54.680296,-2.407286],[-54.674803,-2.419798],[-54.670592,-2.428709]]]}},
{"type":"Feature","properties":{"idhidrovia":200002090,"nome":"Hidrovia do Amazonas","navegacao":"Navega??o Interior","tipo":"Rio","vel_cional":25.0,"extensao":28.0260688728,"tempo":"0d 1h 7min","cla_icacao":"Naveg?vel","nome_rio":"Rio Amazonas","nom_eclusa":null,"jurisdicao":"AHIMOR","reg_rafica":"Regi?o Hidrogr?fica Amaz?nica","pro_de_min":5.0,"pro_de_max":7.5,"dominio":"Uni?o","observacao":"Foz no oceano Atl?ntico _PA_ at? a conflu?ncia dos rios Negro e Solim?es.","snv":"Sim","fonte":"LabTrans/Antaq","idm_origem":"BR150310","mun_origem":"Gurup?","est_origem":"PA","idm_estino":"BR150310","mun_estino":"Gurup?","est_estino":"PA","idantaq":1,"Camada Sim":"8","FLUXO":32942701.08},"geometry":{"type":"MultiLineString","coordinates":[[[-52.249083,-1.505797],[-52.236876,-1.497374],[-52.227599,-1.491087],[-52.213988,-1.487669],[-52.192381,-1.485716],[-52.175597,-1.485411],[-52.162108,-1.485228],[-52.148192,-1.485106],[-52.138426,-1.48419],[-52.125487,-1.479979],[-52.115172,-1.474608],[-52.104613,-1.468993],[-52.085204,-1.461974],[-52.074095,-1.458983],[-52.063902,-1.45648],[-52.047179,-1.451292],[-52.032286,-1.446776],[-52.009825,-1.440306]]]}},
{"type":"Feature","properties":{"idhidrovia":200002091,"nome":"Hidrovia do Amazonas","navegacao":"Navega??o Interior","tipo":"Rio","vel_cional":15.0,"extensao":77.481557403400004,"tempo":"0d 5h 9min","cla_icacao":"Naveg?vel","nome_rio":"Rio Trombetas","nom_eclusa":null,"jurisdicao":"AHIMOR","reg_rafica":"Regi?o Hidrogr?fica Amaz?nica","pro_de_min":1.5,"pro_de_max":4.0,"dominio":"Estados ou Distrito Federal","observacao":"Foz no rio Amazonas _PA_ at? o sop? Cachoeira Porteira _Oriximin?-PA_.","snv":"Sim","fonte":"LabTrans/ANA/Antaq","idm_origem":"BR150530","mun_origem":"Oriximin?","est_origem":"PA","idm_estino":"BR150530","mun_estino":"Oriximin?","est_estino":"PA","idantaq":1,"Camada Sim":"9","FLUXO":5426312.0},"geometry":{"type":"MultiLineString","coordinates":[[[-56.378073,-1.459878],[-56.369535,-1.459158],[-56.360777,-1.458922],[-56.351805,-1.459898],[-56.341612,-1.462706],[-56.328001,-1.471373],[-56.32318,-1.477782],[-56.319579,-1.484007],[-56.317076,-1.48828],[-56.313292,-1.491026],[-56.307005,-1.492125],[-56.303404,-1.494017],[-56.298216,-1.499388],[-56.29608,-1.507018],[-56.295287,-1.510497],[-56.29289,-1.515715],[-56.28961,-1.520079],[-56.28607,-1.523314],[-56.283385,-1.524779],[-56.279417,-1.527281],[-56.274596,-1.528197],[-56.272093,-1.527892],[-56.270079,-1.526793],[-56.267516,-1.52307],[-56.265074,-1.520079],[-56.260374,-1.518187],[-56.25659,-1.518187],[-56.252074,-1.518675],[-56.248106,-1.520689],[-56.245909,-1.523192],[-56.239806,-1.529906],[-56.234984,-1.534911],[-56.232115,-1.536986],[-56.228575,-1.537596],[-56.225218,-1.537779],[-56.221373,-1.537108],[-56.217589,-1.534972],[-56.212279,-1.527769],[-56.209288,-1.522582],[-56.206297,-1.517699],[-56.203185,-1.514098],[-56.199217,-1.510985],[-56.194395,-1.509703],[-56.189391,-1.509093],[-56.183897,-1.509093],[-56.179869,-1.509581],[-56.176024,-1.510802],[-56.155089,-1.520201],[-56.149474,-1.522215],[-56.144286,-1.523009],[-56.139769,-1.523497],[-56.1369,-1.523375],[-56.129515,-1.520873],[-56.121397,-1.518919],[-56.116576,-1.517821],[-56.111815,-1.51721],[-56.105589,-1.517821],[-56.100768,-1.51898],[-56.096617,-1.520506],[-56.093077,-1.521483],[-56.081786,-1.52368],[-56.078307,-1.523375],[-56.074095,-1.522704],[-56.070921,-1.521422],[-56.06848,-1.520689],[-56.052794,-1.519591],[-56.048399,-1.519896],[-56.044798,-1.520384],[-56.042174,-1.521483],[-56.039977,-1.522704],[-56.035094,-1.525389],[-56.029173,-1.531371],[-56.024901,-1.536681],[-56.020995,-1.542113],[-56.016783,-1.549315],[-56.00891,-1.56378],[-56.005003,-1.57318],[-55.989684,-1.610411],[-55.973387,-1.6416],[-55.959715,-1.658873],[-55.946471,-1.673827],[-55.943968,-1.676695],[-55.922484,-1.70172],[-55.913695,-1.714598],[-55.90808,-1.725279],[-55.899107,-1.740477],[-55.890196,-1.7536],[-55.884215,-1.761107],[-55.876593,-1.768451]]]}},
{"type":"Feature","properties":{"idhidrovia":200002093,"nome":"Hidrovia do Amazonas","navegacao":"Navega??o Interior","tipo":"Rio","vel_cional":25.0,"extensao":44.974871185799998,"tempo":"0d 1h 47min","cla_icacao":"Naveg?vel","nome_rio":"Rio Amazonas","nom_eclusa":null,"jurisdicao":"AHIMOR","reg_rafica":"Regi?o Hidrogr?fica Amaz?nica","pro_de_min":5.0,"pro_de_max":7.5,"dominio":"Uni?o","observacao":"Foz no oceano Atl?ntico _PA_ at? a conflu?ncia dos rios Negro e Solim?es.","snv":"Sim","fonte":"LabTrans/Antaq","idm_origem":"BR150050","mun_origem":"Almeirim","est_origem":"PA","idm_estino":"BR150310","mun_estino":"Gurup?","est_estino":"PA","idantaq":1,"Camada Sim":"10","FLUXO":32942701.08},"geometry":{"type":"MultiLineString","coordinates":[[[-52.009825,-1.440306],[-51.992674,-1.432188],[-51.977477,-1.422179],[-51.965392,-1.413084],[-51.951292,-1.399107],[-51.935179,-1.381895],[-51.919981,-1.364684],[-51.907408,-1.346678],[-51.898802,-1.332396],[-51.89398,-1.317076],[-51.891295,-1.300108],[-51.891478,-1.281981],[-51.887206,-1.273985],[-51.88098,-1.270628],[-51.872374,-1.264586],[-51.869017,-1.258788],[-51.867308,-1.253905],[-51.866393,-1.250121],[-51.865294,-1.247008],[-51.86328,-1.244383],[-51.860228,-1.241698],[-51.854491,-1.239684],[-51.849974,-1.238707],[-51.846373,-1.238402],[-51.841307,-1.235411],[-51.838683,-1.233885],[-51.835326,-1.232176],[-51.830382,-1.229186],[-51.8244,-1.225584],[-51.821776,-1.223998],[-51.815611,-1.220396],[-51.812376,-1.218199],[-51.809386,-1.216185],[-51.801207,-1.210814],[-51.794676,-1.206175],[-51.790709,-1.202513],[-51.785887,-1.197691],[-51.783385,-1.193175],[-51.78192,-1.187498],[-51.781493,-1.181517],[-51.781126,-1.17578],[-51.779906,-1.170409],[-51.778807,-1.166624],[-51.778685,-1.161009],[-51.779173,-1.154478],[-51.779295,-1.142394]]]}},
{"type":"Feature","properties":{"idhidrovia":200002095,"nome":"Hidrovia do Amazonas","navegacao":"Navega??o Interior","tipo":"Rio","vel_cional":15.0,"extensao":123.43636723100001,"tempo":"0d 8h 13min","cla_icacao":"Naveg?vel","nome_rio":"Rio Jari","nom_eclusa":null,"jurisdicao":"AHIMOR","reg_rafica":"Regi?o Hidrogr?fica Amaz?nica","pro_de_min":1.2,"pro_de_max":3.0,"dominio":"Uni?o","observacao":"Foz no rio Amazonas _AP_ at? Laranjal do Jari _AP_.","snv":"Sim","fonte":"LabTrans/ANA/Antaq","idm_origem":"BR150050","mun_origem":"Almeirim","est_origem":"PA","idm_estino":"BR160080","mun_estino":"Vit?ria do Jari","est_estino":"AP","idantaq":1,"Camada Sim":"11","FLUXO":51652.74},"geometry":{"type":"MultiLineString","coordinates":[[[-52.422311,-0.919265],[-52.433775,-0.9317],[-52.435484,-0.934996],[-52.435912,-0.939696],[-52.434996,-0.944395],[-52.433897,-0.947081],[-52.430418,-0.950682],[-52.427489,-0.95349],[-52.423094,-0.957579],[-52.41931,-0.962889],[-52.417174,-0.967284],[-52.415587,-0.972594],[-52.41461,-0.979186],[-52.413512,-0.984801],[-52.413207,-0.989012],[-52.413207,-0.993895],[-52.414122,-0.997923],[-52.41461,-1.000792],[-52.414977,-1.003783],[-52.414488,-1.006895],[-52.413817,-1.011107],[-52.412901,-1.015074],[-52.413084,-1.018675],[-52.414,-1.022276],[-52.414915,-1.026488],[-52.416686,-1.029723],[-52.4187,-1.032591],[-52.421019,-1.034911],[-52.42401,-1.039122],[-52.425597,-1.042418],[-52.426085,-1.045287],[-52.424803,-1.048582],[-52.421324,-1.051512],[-52.415404,-1.05139],[-52.411009,-1.049986],[-52.408019,-1.046873],[-52.403807,-1.044981],[-52.400023,-1.043822],[-52.396483,-1.044005],[-52.39221,-1.045592],[-52.387877,-1.048582],[-52.384703,-1.051024],[-52.380492,-1.053282],[-52.376891,-1.054808],[-52.371581,-1.056883],[-52.366393,-1.059691],[-52.360228,-1.06378],[-52.346373,-1.070189],[-52.342711,-1.072997],[-52.340392,-1.07672],[-52.339903,-1.083983],[-52.340208,-1.088499],[-52.340392,-1.094786],[-52.34088,-1.1015],[-52.339781,-1.104674],[-52.338683,-1.108275],[-52.335875,-1.112303],[-52.332396,-1.115782],[-52.327208,-1.1192],[-52.322997,-1.119688],[-52.31909,-1.119322],[-52.312376,-1.118407],[-52.306395,-1.118224],[-52.299681,-1.119688],[-52.291197,-1.12451],[-52.280882,-1.130003],[-52.272093,-1.130797],[-52.266722,-1.130003],[-52.254027,-1.128722],[-52.244017,-1.128783],[-52.229002,-1.13159],[-52.213988,-1.133604],[-52.203795,-1.134276],[-52.184874,-1.132079],[-52.179198,-1.132079],[-52.174376,-1.132689],[-52.167479,-1.134886],[-52.164183,-1.1369],[-52.160399,-1.139891],[-52.155882,-1.143675],[-52.151427,-1.145384],[-52.144408,-1.147704],[-52.138792,-1.147582],[-52.131285,-1.147704],[-52.125487,-1.149718],[-52.120909,-1.15161],[-52.118895,-1.154723],[-52.117308,-1.158202],[-52.113707,-1.164977],[-52.111082,-1.172301],[-52.109007,-1.178221],[-52.108824,-1.185118],[-52.109373,-1.193907],[-52.111693,-1.199828],[-52.112975,-1.210997],[-52.112181,-1.219481],[-52.107115,-1.224425],[-52.098326,-1.228209],[-52.08618,-1.233092],[-52.071288,-1.235106],[-52.065916,-1.235777],[-52.060484,-1.234984],[-52.055785,-1.231505],[-52.051695,-1.221495],[-52.051817,-1.21411],[-52.059203,-1.203307],[-52.065916,-1.190489],[-52.065001,-1.186095],[-52.061217,-1.182677],[-52.057799,-1.180296],[-52.051817,-1.174681],[-52.04901,-1.17169],[-52.04608,-1.169981],[-52.042174,-1.168089],[-52.039,-1.167296],[-52.035582,-1.166808],[-52.030882,-1.166808],[-52.02722,-1.166502],[-52.023375,-1.16638],[-52.017882,-1.16638],[-52.014403,-1.16638],[-52.009398,-1.167479],[-51.997923,-1.169493],[-51.993712,-1.169676],[-51.98889,-1.168394],[-51.98712,-1.165099],[-51.986815,-1.161681],[-51.987303,-1.15808],[-51.987791,-1.154417],[-51.988219,-1.148924],[-51.98889,-1.145689],[-51.990599,-1.141112],[-51.992491,-1.138121],[-51.994383,-1.132323],[-51.994017,-1.127989],[-51.992796,-1.125304],[-51.989684,-1.121275],[-51.987303,-1.119383],[-51.983885,-1.117979],[-51.980528,-1.117125],[-51.97711,-1.117186],[-51.974181,-1.117186],[-51.970824,-1.117796],[-51.966307,-1.121703],[-51.963622,-1.124693],[-51.960814,-1.128722],[-51.958922,-1.13391],[-51.959288,-1.138121],[-51.961607,-1.144408],[-51.962889,-1.149901],[-51.963622,-1.154784],[-51.963377,-1.158019],[-51.962218,-1.162718],[-51.959227,-1.165709],[-51.953795,-1.167113],[-51.948485,-1.16638],[-51.945128,-1.164122],[-51.943297,-1.161803],[-51.941405,-1.15869],[-51.938292,-1.149107],[-51.933409,-1.137206],[-51.930602,-1.132994],[-51.927489,-1.131102],[-51.923399,-1.131102],[-51.9187,-1.133116],[-51.913512,-1.13568],[-51.905211,-1.144896],[-51.896605,-1.153014],[-51.886107,-1.160094],[-51.874083,-1.164427],[-51.861082,-1.165282],[-51.850279,-1.163512],[-51.842101,-1.161314],[-51.834288,-1.158507],[-51.824522,-1.156493],[-51.812193,-1.155211],[-51.797484,-1.150694],[-51.779295,-1.142394]]]}},
{"type":"Feature","properties":{"idhidrovia":200002102,"nome":"Hidrovia do Negro","navegacao":"Navega??o Interior","tipo":"Rio","vel_cional":25.0,"extensao":3.6176875504699999,"tempo":"0d 0h 8min","cla_icacao":"Naveg?vel","nome_rio":"Rio Negro","nom_eclusa":null,"jurisdicao":"AHIMOC","reg_rafica":"Regi?o Hidrogr?fica Amaz?nica","pro_de_min":1.8,"pro_de_max":4.0,"dominio":"Uni?o","observacao":"Conflu?ncia com o rio Solim?es_AM_ at? Cucu? _AM_.","snv":"Sim","fonte":"LabTrans/Antaq","idm_origem":"BR130260","mun_origem":"Manaus","est_origem":"AM","idm_estino":"BR130260","mun_estino":"Manaus","est_estino":"AM","idantaq":20,"Camada Sim":"12","FLUXO":771013.83},"geometry":{"type":"MultiLineString","coordinates":[[[-60.0291,-3.140692],[-60.027482,-3.141851],[-60.017423,-3.147575],[-60.010323,-3.152333],[-60.000475,-3.155807]]]}},
{"type":"Feature","properties":{"idhidrovia":200002103,"nome":"Hidrovia do Negro","navegacao":"Navega??o Interior","tipo":"Rio","vel_cional":25.0,"extensao":0.98211161338399999,"tempo":"0d 0h 2min","cla_icacao":"Naveg?vel","nome_rio":"Rio Negro","nom_eclusa":null,"jurisdicao":"AHIMOC","reg_rafica":"Regi?o Hidrogr?fica Amaz?nica","pro_de_min":1.8,"pro_de_max":4.0,"dominio":"Uni?o","observacao":"Conflu?ncia com o rio Solim?es_AM_ at? Cucu? _AM_.","snv":"Sim","fonte":"LabTrans/Antaq","idm_origem":"BR130260","mun_origem":"Manaus","est_origem":"AM","idm_estino":"BR130260","mun_estino":"Manaus","est_estino":"AM","idantaq":20,"Camada Sim":"13","FLUXO":2381744.92},"geometry":{"type":"MultiLineString","coordinates":[[[-60.000475,-3.155807],[-59.992361,-3.159301]]]}},
{"type":"Feature","properties":{"idhidrovia":200002104,"nome":"Hidrovia do Negro","navegacao":"Navega??o Interior","tipo":"Rio","vel_cional":25.0,"extensao":5.6248942882000001,"tempo":"0d 0h 13min","cla_icacao":"Naveg?vel","nome_rio":"Rio Negro","nom_eclusa":null,"jurisdicao":"AHIMOC","reg_rafica":"Regi?o Hidrogr?fica Amaz?nica","pro_de_min":1.8,"pro_de_max":4.0,"dominio":"Uni?o","observacao":"Conflu?ncia com o rio Solim?es_AM_ at? Cucu? _AM_.","snv":"Sim","fonte":"LabTrans/Antaq","idm_origem":"BR130260","mun_origem":"Manaus","est_origem":"AM","idm_estino":"BR130260","mun_estino":"Manaus","est_estino":"AM","idantaq":20,"Camada Sim":"14","FLUXO":5299407.13},"geometry":{"type":"MultiLineString","coordinates":[[[-59.992361,-3.159301],[-59.990063,-3.160291],[-59.980353,-3.165406],[-59.971617,-3.168756],[-59.961233,-3.167088],[-59.955503,-3.161122],[-59.951527,-3.153029]]]}},
{"type":"Feature","properties":{"idhidrovia":200002105,"nome":"Hidrovia do Amazonas","navegacao":"Navega??o Interior","tipo":"Rio","vel_cional":25.0,"extensao":3.14727818792,"tempo":"0d 0h 7min","cla_icacao":"Naveg?vel","nome_rio":"Rio Negro","nom_eclusa":null,"jurisdicao":"AHIMOC","reg_rafica":"Regi?o Hidrogr?fica Amaz?nica","pro_de_min":1.8,"pro_de_max":4.0,"dominio":"Uni?o","observacao":"Conflu?ncia com o rio Solim?es_AM_ at? Cucu? _AM_.","snv":"Sim","fonte":"LabTrans/Antaq","idm_origem":"BR130260","mun_origem":"Manaus","est_origem":"AM","idm_estino":"BR130260","mun_estino":"Manaus","est_estino":"AM","idantaq":1,"Camada Sim":"15","FLUXO":6641383.81},"geometry":{"type":"MultiLineString","coordinates":[[[-59.923233,-3.126621],[-59.912496,-3.12176],[-59.8963,-3.124998]]]}},
{"type":"Feature","properties":{"idhidrovia":200002106,"nome":"Hidrovia do Negro","navegacao":"Navega??o Interior","tipo":"Rio","vel_cional":25.0,"extensao":4.3028227297,"tempo":"0d 0h 10min","cla_icacao":"Naveg?vel","nome_rio":"Rio Negro","nom_eclusa":null,"jurisdicao":"AHIMOC","reg_rafica":"Regi?o Hidrogr?fica Amaz?nica","pro_de_min":1.8,"pro_de_max":4.0,"dominio":"Uni?o","observacao":"Conflu?ncia com o rio Solim?es_AM_ at? Cucu? _AM_.","snv":"Sim","fonte":"LabTrans/Antaq","idm_origem":"BR130260","mun_origem":"Manaus","est_origem":"AM","idm_estino":"BR130260","mun_estino":"Manaus","est_estino":"AM","idantaq":20,"Camada Sim":"16","FLUXO":6641383.81},"geometry":{"type":"MultiLineString","coordinates":[[[-59.951527,-3.153029],[-59.944177,-3.146666],[-59.932565,-3.136802],[-59.923233,-3.126621]]]}},
{"type":"Feature","properties":{"idhidrovia":200002122,"nome":"Hidrovia do Tapaj?s","navegacao":"Navega??o Interior","tipo":"Rio","vel_cional":25.0,"extensao":4.5676212500600002,"tempo":"0d 0h 10min","cla_icacao":"Naveg?vel","nome_rio":"Rio Tapaj?s","nom_eclusa":null,"jurisdicao":"AHIMOR","reg_rafica":"Regi?o Hidrogr?fica Amaz?nica","pro_de_min":2.6,"pro_de_max":9.9,"dominio":"Uni?o","observacao":"Foz no rio Amazonas _PA_ at? a conflu?ncia dos rios Juruena e Teles Pires.","snv":"Sim","fonte":"LabTrans/Antaq","idm_origem":"BR150680","mun_origem":"Santar?m","est_origem":"PA","idm_estino":"BR150680","mun_estino":"Santar?m","est_estino":"PA","idantaq":17,"Camada Sim":"17","FLUXO":10633749.08},"geometry":{"type":"MultiLineString","coordinates":[[[-54.736067,-2.413133],[-54.735602,-2.413162],[-54.72397,-2.414309],[-54.708189,-2.413084],[-54.695666,-2.416847]]]}},
{"type":"Feature","properties":{"idhidrovia":200002123,"nome":"Hidrovia do Amazonas","navegacao":"Navega??o Interior","tipo":"Rio","vel_cional":25.0,"extensao":38.120778032099999,"tempo":"0d 1h 31min","cla_icacao":"Naveg?vel","nome_rio":"Rio Amazonas","nom_eclusa":null,"jurisdicao":"AHIMOR","reg_rafica":"Regi?o Hidrogr?fica Amaz?nica","pro_de_min":5.0,"pro_de_max":7.5,"dominio":"Uni?o","observacao":"Foz no oceano Atl?ntico _PA_ at? a conflu?ncia dos rios Negro e Solim?es.","snv":"Sim","fonte":"LabTrans/Antaq","idm_origem":"BR150310","mun_origem":"Gurup?","est_origem":"PA","idm_estino":"BR150050","mun_estino":"Almeirim","est_estino":"PA","idantaq":1,"Camada Sim":"18","FLUXO":32942701.08},"geometry":{"type":"MultiLineString","coordinates":[[[-52.573721,-1.537286],[-52.571088,-1.535551],[-52.567283,-1.536454],[-52.561188,-1.541091],[-52.548182,-1.549748],[-52.535165,-1.558088],[-52.521709,-1.562293],[-52.499205,-1.565489],[-52.477171,-1.565489],[-52.457091,-1.564574],[-52.427,-1.562987],[-52.39398,-1.558104],[-52.372008,-1.552],[-52.352293,-1.544798],[-52.340208,-1.539488],[-52.333678,-1.535887],[-52.32617,-1.532713],[-52.318419,-1.529784],[-52.2937,-1.523924],[-52.287108,-1.521178],[-52.276488,-1.517699],[-52.269225,-1.515379],[-52.249083,-1.505797]]]}},
{"type":"Feature","properties":{"idhidrovia":200002124,"nome":"Hidrovia do Amazonas","navegacao":"Navega??o Interior","tipo":"Rio","vel_cional":25.0,"extensao":45.397908967799999,"tempo":"0d 1h 48min","cla_icacao":"Naveg?vel","nome_rio":"Rio Amazonas","nom_eclusa":null,"jurisdicao":"AHIMOC","reg_rafica":"Regi?o Hidrogr?fica Amaz?nica","pro_de_min":5.0,"pro_de_max":7.5,"dominio":"Uni?o","observacao":"Foz no oceano Atl?ntico _PA_ at? a conflu?ncia dos rios Negro e Solim?es.","snv":"Sim","fonte":"LabTrans/Antaq","idm_origem":"BR130190","mun_origem":"Itacoatiara","est_origem":"AM","idm_estino":"BR130190","mun_estino":"Itacoatiara","est_estino":"AM","idantaq":1,"Camada Sim":"19","FLUXO":9528683.59},"geometry":{"type":"MultiLineString","coordinates":[[[-58.746703,-3.352171],[-58.72711,-3.35858],[-58.68579,-3.368102],[-58.64752,-3.371275],[-58.627318,-3.369383],[-58.609984,-3.361327],[-58.600523,-3.356505],[-58.593687,-3.349181],[-58.585204,-3.33557],[-58.57971,-3.322691],[-58.572386,-3.30609],[-58.570128,-3.292784],[-58.568785,-3.27838],[-58.566588,-3.259886],[-58.562682,-3.243712],[-58.554076,-3.216795],[-58.541502,-3.198424],[-58.525023,-3.179991],[-58.512848,-3.159381],[-58.49937,-3.144454],[-58.491806,-3.139998],[-58.483642,-3.137599],[-58.483587,-3.137599]]]}},
{"type":"Feature","properties":{"idhidrovia":200002126,"nome":"Hidrovia do Amazonas","navegacao":"Navega??o Interior","tipo":"Rio","vel_cional":25.0,"extensao":7.9933585580899997,"tempo":"0d 0h 19min","cla_icacao":"Naveg?vel","nome_rio":"Rio Amazonas","nom_eclusa":null,"jurisdicao":"AHIMOC","reg_rafica":"Regi?o Hidrogr?fica Amaz?nica","pro_de_min":5.0,"pro_de_max":7.5,"dominio":"Uni?o","observacao":"Foz no oceano Atl?ntico _PA_ at? a conflu?ncia dos rios Negro e Solim?es.","snv":"Sim","fonte":"LabTrans/Antaq","idm_origem":"BR130340","mun_origem":"Parintins","est_origem":"AM","idm_estino":"BR130340","mun_estino":"Parintins","est_estino":"AM","idantaq":1,"Camada Sim":"20","FLUXO":16379237.000000002},"geometry":{"type":"MultiLineString","coordinates":[[[-56.734381,-2.621291],[-56.724148,-2.61714],[-56.715694,-2.61313],[-56.694275,-2.605055],[-56.682799,-2.600218],[-56.673094,-2.596617],[-56.667784,-2.594115]]]}},
{"type":"Feature","properties":{"idhidrovia":200002127,"nome":"Hidrovia do Amazonas","navegacao":"Navega??o Interior","tipo":"Rio","vel_cional":25.0,"extensao":65.080701383700003,"tempo":"0d 2h 36min","cla_icacao":"Naveg?vel","nome_rio":"Rio Amazonas","nom_eclusa":null,"jurisdicao":"AHIMOC","reg_rafica":"Regi?o Hidrogr?fica Amaz?nica","pro_de_min":5.0,"pro_de_max":7.5,"dominio":"Uni?o","observacao":"Foz no oceano Atl?ntico _PA_ at? a conflu?ncia dos rios Negro e Solim?es.","snv":"Sim","fonte":"LabTrans/Antaq","idm_origem":"BR150510","mun_origem":"?bidos","est_origem":"PA","idm_estino":"BR150390","mun_estino":"Juruti","est_estino":"PA","idantaq":1,"Camada Sim":"21","FLUXO":16882640.0},"geometry":{"type":"MultiLineString","coordinates":[[[-56.092106,-2.005402],[-56.086668,-1.979674],[-56.081725,-1.967711],[-56.068968,-1.953795],[-56.051207,-1.944884],[-56.039793,-1.94171],[-56.022887,-1.942076],[-56.012389,-1.946104],[-55.986998,-1.958189],[-55.957823,-1.968993],[-55.919676,-1.991209],[-55.902586,-1.99951],[-55.865111,-2.005492],[-55.832884,-2.005003],[-55.806578,-2.005186],[-55.787718,-2.00421],[-55.762694,-1.998595],[-55.744078,-1.99127],[-55.725523,-1.980772],[-55.701292,-1.963805],[-55.676207,-1.948485],[-55.625182,-1.915709],[-55.614378,-1.906676],[-55.603697,-1.902403],[-55.595885,-1.89929],[-55.586974,-1.895811]]]}},
{"type":"Feature","properties":{"idhidrovia":200002128,"nome":"Hidrovia do Amazonas","navegacao":"Navega??o Interior","tipo":"Rio","vel_cional":25.0,"extensao":8.2436309001100003,"tempo":"0d 0h 19min","cla_icacao":"Naveg?vel","nome_rio":"Rio Amazonas","nom_eclusa":null,"jurisdicao":"AHIMOR","reg_rafica":"Regi?o Hidrogr?fica Amaz?nica","pro_de_min":5.0,"pro_de_max":7.5,"dominio":"Uni?o","observacao":"Foz no oceano Atl?ntico _PA_ at? a conflu?ncia dos rios Negro e Solim?es.","snv":"Sim","fonte":"LabTrans/Antaq","idm_origem":"BR150510","mun_origem":"?bidos","est_origem":"PA","idm_estino":"BR150510","mun_estino":"?bidos","est_estino":"PA","idantaq":1,"Camada Sim":"22","FLUXO":22308952.0},"geometry":{"type":"MultiLineString","coordinates":[[[-55.586974,-1.895811],[-55.579894,-1.897215],[-55.568724,-1.900023],[-55.561583,-1.901488],[-55.551085,-1.905516],[-55.545103,-1.907103],[-55.538512,-1.910399],[-55.526176,-1.91402],[-55.517725,-1.919955],[-55.517628,-1.920063]]]}},
{"type":"Feature","properties":{"idhidrovia":200002130,"nome":"Hidrovia do Amazonas","navegacao":"Navega??o Interior","tipo":"Rio","vel_cional":25.0,"extensao":134.8270867,"tempo":"0d 5h 23min","cla_icacao":"Naveg?vel","nome_rio":"Rio Amazonas","nom_eclusa":null,"jurisdicao":"AHIMOR","reg_rafica":"Regi?o Hidrogr?fica Amaz?nica","pro_de_min":5.0,"pro_de_max":7.5,"dominio":"Uni?o","observacao":"Foz no oceano Atl?ntico _PA_ at? a conflu?ncia dos rios Negro e Solim?es.","snv":"Sim","fonte":"LabTrans/Antaq","idm_origem":"BR160040","mun_origem":"Mazag?o","est_origem":"AP","idm_estino":"BR150050","mun_estino":"Almeirim","est_estino":"PA","idantaq":1,"Camada Sim":"23","FLUXO":32994353.82},"geometry":{"type":"MultiLineString","coordinates":[[[-51.779295,-1.142394],[-51.753111,-1.137389],[-51.726378,-1.129698],[-51.706969,-1.119994],[-51.690001,-1.108275],[-51.671812,-1.095519],[-51.661986,-1.084288],[-51.656798,-1.067809],[-51.658873,-1.053282],[-51.663573,-1.042296],[-51.672179,-1.032774],[-51.679808,-1.017821],[-51.684203,-1.000609],[-51.687804,-0.956725],[-51.690611,-0.917784],[-51.690001,-0.875975],[-51.689085,-0.855406],[-51.687071,-0.832091],[-51.682494,-0.804076],[-51.675902,-0.784483],[-51.658385,-0.753478],[-51.635619,-0.712523],[-51.59857,-0.65808],[-51.582823,-0.638304],[-51.561095,-0.615599],[-51.52368,-0.575194],[-51.504881,-0.558409],[-51.451292,-0.499571],[-51.433104,-0.473387],[-51.428282,-0.457884],[-51.425902,-0.445006],[-51.423094,-0.433287],[-51.419493,-0.423521],[-51.402892,-0.403685],[-51.381224,-0.382201],[-51.367674,-0.365782],[-51.364317,-0.352171],[-51.360472,-0.337889],[-51.357603,-0.32971],[-51.353575,-0.313292],[-51.347105,-0.296812],[-51.341307,-0.283507],[-51.332274,-0.270811],[-51.319273,-0.258421],[-51.301695,-0.242186],[-51.285582,-0.222777],[-51.248473,-0.166014],[-51.241824,-0.1576]]]}},
{"type":"Feature","properties":{"idhidrovia":200002135,"nome":"Hidrovia do Tocantins","navegacao":"Navega??o Interior","tipo":"Ba?a","vel_cional":15.0,"extensao":4.7767040336499997,"tempo":"0d 0h 19min","cla_icacao":"Naveg?vel","nome_rio":"Ba?a de Guajar?","nom_eclusa":null,"jurisdicao":"AHIMOR","reg_rafica":"Regi?o Hidrogr?fica do Tocantins","pro_de_min":4.0,"pro_de_max":10.0,"dominio":null,"observacao":null,"snv":"N?o","fonte":"LabTrans/Antaq","idm_origem":"BR150140","mun_origem":"Bel?m","est_origem":"PA","idm_estino":"BR150140","mun_estino":"Bel?m","est_estino":"PA","idantaq":9,"Camada Sim":"24","FLUXO":29442825.01},"geometry":{"type":"MultiLineString","coordinates":[[[-48.4942,-1.33087],[-48.497618,-1.307494],[-48.495909,-1.288023]]]}},
{"type":"Feature","properties":{"idhidrovia":200002152,"nome":"Hidrovia do Sul","navegacao":"Navega??o Interior","tipo":"Laguna","vel_cional":25.0,"extensao":33.5058110656,"tempo":"0d 1h 20min","cla_icacao":"Naveg?vel","nome_rio":"Lagoa dos Patos","nom_eclusa":null,"jurisdicao":"SPH","reg_rafica":"Regi?o Hidrogr?fica Atl?ntico Sul","pro_de_min":5.4,"pro_de_max":5.4,"dominio":"Estados ou Distrito Federal","observacao":"Conflu?ncia com o oceano Atl?ntico at? a conflu?ncia com o Lago Gua?ba _RS_.","snv":"Sim","fonte":"LabTrans/Antaq","idm_origem":"BR431560","mun_origem":"Rio Grande","est_origem":"RS","idm_estino":"BR431440","mun_estino":"Pelotas","est_estino":"RS","idantaq":18,"Camada Sim":"25","FLUXO":42250.97},"geometry":{"type":"MultiLineString","coordinates":[[[-52.21918,-31.788054],[-52.216853,-31.789046],[-52.190673,-31.800209],[-52.168315,-31.813202],[-52.146449,-31.831576],[-52.125003,-31.851154],[-52.101452,-31.873122],[-52.08876,-31.892276],[-52.08267,-31.915671],[-52.081096,-31.949547],[-52.081239,-31.958407],[-52.08182,-31.968155],[-52.081362,-31.98038],[-52.080636,-31.992057],[-52.079729,-32.006122],[-52.077681,-32.017659],[-52.076122,-32.031303],[-52.075164,-32.038542]]]}},
{"type":"Feature","properties":{"idhidrovia":200002153,"nome":"Hidrovia do Sul","navegacao":"Navega??o Interior","tipo":"Laguna","vel_cional":25.0,"extensao":80.434418708300001,"tempo":"0d 3h 13min","cla_icacao":"Naveg?vel","nome_rio":"Lagoa dos Patos","nom_eclusa":null,"jurisdicao":"SPH","reg_rafica":"Regi?o Hidrogr?fica Atl?ntico Sul","pro_de_min":5.4,"pro_de_max":5.4,"dominio":"Estados ou Distrito Federal","observacao":"Conflu?ncia com o oceano Atl?ntico at? a conflu?ncia com o Lago Gua?ba _RS_.","snv":"Sim","fonte":"LabTrans/Antaq","idm_origem":"BR431250","mun_origem":"Mostardas","est_origem":"RS","idm_estino":"BR430190","mun_estino":"Barra do Ribeiro","est_estino":"RS","idantaq":18,"Camada Sim":"26","FLUXO":42250.97},"geometry":{"type":"MultiLineString","coordinates":[[[-51.086764,-30.363611],[-51.081424,-30.377324],[-51.077356,-30.397095],[-51.074098,-30.408427],[-51.067488,-30.420182],[-51.045257,-30.443986],[-51.014893,-30.476771],[-50.99212,-30.492506],[-50.974477,-30.506112],[-50.953422,-30.534689],[-50.942831,-30.580678],[-50.958624,-30.62812],[-50.979141,-30.680713],[-50.996787,-30.710523],[-51.02117,-30.732393],[-51.087091,-30.785697],[-51.166385,-30.860249],[-51.225856,-30.928023],[-51.246557,-30.957512]]]}},
{"type":"Feature","properties":{"idhidrovia":200002154,"nome":"Hidrovia do Sul","navegacao":"Navega??o Interior","tipo":"Rio","vel_cional":10.0,"extensao":6.7657705263799999,"tempo":"0d 0h 40min","cla_icacao":"Naveg?vel","nome_rio":"Rio Jacu?","nom_eclusa":null,"jurisdicao":"SPH","reg_rafica":"Regi?o Hidrogr?fica Atl?ntico Sul","pro_de_min":1.0,"pro_de_max":1.2,"dominio":"Estados ou Distrito Federal","observacao":"Foz na Lagoa Gua?ba _RS_ at? Dona Francisca _RS_.","snv":"Sim","fonte":"LabTrans/ANA/Antaq","idm_origem":"BR431490","mun_origem":"Porto Alegre","est_origem":"RS","idm_estino":"BR431337","mun_estino":"Nova Santa Rita","est_estino":"RS","idantaq":18,"Camada Sim":"27","FLUXO":9193.76},"geometry":{"type":"MultiLineString","coordinates":[[[-51.23573,-29.936126],[-51.235685,-29.936139],[-51.233755,-29.938175],[-51.231326,-29.941734],[-51.230385,-29.944516],[-51.228936,-29.949592],[-51.228366,-29.953806],[-51.227565,-29.958556],[-51.226291,-29.965132],[-51.224842,-29.969238],[-51.22237,-29.974078],[-51.218707,-29.979156],[-51.215914,-29.983256],[-51.211315,-29.988383],[-51.209111,-29.991349]]]}},
{"type":"Feature","properties":{"idhidrovia":200002155,"nome":"Hidrovia do Sul","navegacao":"Navega??o Interior","tipo":"Rio","vel_cional":10.0,"extensao":2.1887115701300002,"tempo":"0d 0h 13min","cla_icacao":"Naveg?vel","nome_rio":"Rio Gravata?","nom_eclusa":null,"jurisdicao":"SPH","reg_rafica":"Regi?o Hidrogr?fica Atl?ntico Sul","pro_de_min":1.0,"pro_de_max":1.6,"dominio":"Estados ou Distrito Federal","observacao":"Foz no Delta do rio Jacu? _RS_ at? Gravata? _RS_.","snv":"Sim","fonte":"LabTrans/ANA/Antaq","idm_origem":"BR431490","mun_origem":"Porto Alegre","est_origem":"RS","idm_estino":"BR431490","mun_estino":"Porto Alegre","est_estino":"RS","idantaq":18,"Camada Sim":"28","FLUXO":16421.83},"geometry":{"type":"MultiLineString","coordinates":[[[-51.202024,-29.972752],[-51.202269,-29.973015],[-51.202642,-29.973575],[-51.203344,-29.974923],[-51.203656,-29.975757],[-51.204081,-29.976964],[-51.204426,-29.977949],[-51.204922,-29.979895],[-51.205094,-29.980869],[-51.205673,-29.983959],[-51.206193,-29.985848],[-51.206742,-29.987141],[-51.20735,-29.988249],[-51.209111,-29.991349]]]}},
{"type":"Feature","properties":{"idhidrovia":200002156,"nome":"Hidrovia do Sul","navegacao":"Navega??o Interior","tipo":"Rio","vel_cional":10.0,"extensao":0.66871111779699999,"tempo":"0d 0h 4min","cla_icacao":"Naveg?vel","nome_rio":"Rio Gravata? _acesso_","nom_eclusa":null,"jurisdicao":"SPH","reg_rafica":"Regi?o Hidrogr?fica Atl?ntico Sul","pro_de_min":1.0,"pro_de_max":1.6,"dominio":"Estados ou Distrito Federal","observacao":"Foz no Delta do rio Jacu? _RS_ at? Gravata? _RS_.","snv":"Sim","fonte":"LabTrans/ANA/Antaq","idm_origem":"BR431490","mun_origem":"Porto Alegre","est_origem":"RS","idm_estino":"BR431490","mun_estino":"Porto Alegre","est_estino":"RS","idantaq":18,"Camada Sim":"29","FLUXO":16421.83},"geometry":{"type":"MultiLineString","coordinates":[[[-51.204421,-29.967418],[-51.204179,-29.968331],[-51.203791,-29.969036],[-51.203153,-29.969676],[-51.202314,-29.970381],[-51.201961,-29.971006],[-51.20188,-29.971657],[-51.202024,-29.972752]]]}},
{"type":"Feature","properties":{"idhidrovia":200002160,"nome":"Hidrovia do Sul","navegacao":"Navega??o Interior","tipo":"Rio","vel_cional":10.0,"extensao":2.99,"tempo":"0d 0h 17min","cla_icacao":"Naveg?vel","nome_rio":"Rio Jacu?","nom_eclusa":null,"jurisdicao":"SPH","reg_rafica":"Regi?o Hidrogr?fica Atl?ntico Sul","pro_de_min":1.0,"pro_de_max":1.2,"dominio":"Estados ou Distrito Federal","observacao":"Foz na Lagoa Gua?ba _RS_ at? Dona Francisca _RS_.","snv":"Sim","fonte":"LabTrans/ANA/Antaq","idm_origem":"BR431337","mun_origem":"Nova Santa Rita","est_origem":"RS","idm_estino":"BR432200","mun_estino":"Triunfo","est_estino":"RS","idantaq":18,"Camada Sim":"30","FLUXO":9193.76},"geometry":{"type":"MultiLineString","coordinates":[[[-51.266069,-29.93463],[-51.261944,-29.933762],[-51.254817,-29.933025],[-51.24407,-29.933685],[-51.23573,-29.936126]]]}},
{"type":"Feature","properties":{"idhidrovia":200002162,"nome":"Hidrovia do Sul","navegacao":"Navega??o Interior","tipo":"Canal","vel_cional":10.0,"extensao":7.5348920449600003,"tempo":"0d 0h 45min","cla_icacao":"Naveg?vel","nome_rio":"Canal Santa Clara","nom_eclusa":null,"jurisdicao":"SPH","reg_rafica":"Regi?o Hidrogr?fica Atl?ntico Sul","pro_de_min":2.5,"pro_de_max":3.0,"dominio":null,"observacao":null,"snv":"N?o","fonte":"LabTrans/Antaq","idm_origem":"BR432200","mun_origem":"Triunfo","est_origem":"RS","idm_estino":"BR432200","mun_estino":"Triunfo","est_estino":"RS","idantaq":18,"Camada Sim":"31","FLUXO":9193.76},"geometry":{"type":"MultiLineString","coordinates":[[[-51.373363,-29.901741],[-51.343341,-29.923873],[-51.327019,-29.935937],[-51.317712,-29.943037],[-51.314435,-29.946275]]]}},
{"type":"Feature","properties":{"idhidrovia":200002173,"nome":"Hidrovia do Sul","navegacao":"Navega??o Interior","tipo":"Lago","vel_cional":25.0,"extensao":17.934133030800002,"tempo":"0d 0h 43min","cla_icacao":"Naveg?vel","nome_rio":"Lago Gua?ba","nom_eclusa":null,"jurisdicao":"SPH","reg_rafica":"Regi?o Hidrogr?fica Atl?ntico Sul","pro_de_min":2.0,"pro_de_max":12.0,"dominio":"Estados ou Distrito Federal","observacao":"Conflu?ncia com a Lagoa dos Patos _RS_ at? o Delta do rio Jacu?.","snv":"Sim","fonte":"LabTrans/Antaq","idm_origem":"BR430930","mun_origem":"Gua?ba","est_origem":"RS","idm_estino":"BR431490","mun_estino":"Porto Alegre","est_estino":"RS","idantaq":18,"Camada Sim":"32","FLUXO":42250.97},"geometry":{"type":"MultiLineString","coordinates":[[[-51.21088,-30.005884],[-51.212215,-30.007935],[-51.214436,-30.010651],[-51.216022,-30.012663],[-51.218141,-30.014896],[-51.219563,-30.016236],[-51.222491,-30.018612],[-51.22653,-30.021083],[-51.230075,-30.023113],[-51.233749,-30.025014],[-51.238211,-30.027201],[-51.240309,-30.028873],[-51.242272,-30.031144],[-51.244276,-30.033835],[-51.2462,-30.036578],[-51.248001,-30.040699],[-51.249853,-30.04819],[-51.252144,-30.052621],[-51.255363,-30.057762],[-51.260111,-30.063692],[-51.26525,-30.067619],[-51.273901,-30.075326],[-51.28277,-30.086056],[-51.288045,-30.09558],[-51.298159,-30.11898],[-51.299007,-30.122781],[-51.299351,-30.125441],[-51.300779,-30.130785],[-51.302546,-30.134776],[-51.30485,-30.137181],[-51.307583,-30.138361]]]}},
{"type":"Feature","properties":{"idhidrovia":200002185,"nome":"Hidrovia do Sul","navegacao":"Navega??o Interior","tipo":"Lago","vel_cional":10.0,"extensao":1.63712669418,"tempo":"0d 0h 9min","cla_icacao":"Naveg?vel","nome_rio":"Lago Gua?ba","nom_eclusa":null,"jurisdicao":"SPH","reg_rafica":"Regi?o Hidrogr?fica Atl?ntico Sul","pro_de_min":2.0,"pro_de_max":12.0,"dominio":"Estados ou Distrito Federal","observacao":"Conflu?ncia com a Lagoa dos Patos _RS_ at? o Delta do rio Jacu?.","snv":"Sim","fonte":"LabTrans/Antaq","idm_origem":"BR431490","mun_origem":"Porto Alegre","est_origem":"RS","idm_estino":"BR431490","mun_estino":"Porto Alegre","est_estino":"RS","idantaq":18,"Camada Sim":"33","FLUXO":25615.59},"geometry":{"type":"MultiLineString","coordinates":[[[-51.209111,-29.991349],[-51.208733,-29.992598],[-51.208605,-29.994046],[-51.208674,-29.995962],[-51.209018,-29.997281],[-51.209524,-29.999962],[-51.209971,-30.002358],[-51.210345,-30.003915],[-51.210843,-30.005827],[-51.21088,-30.005884]]]}},
{"type":"Feature","properties":{"idhidrovia":200002220,"nome":"Hidrovia do Amazonas","navegacao":"Navega??o Interior","tipo":"Rio","vel_cional":25.0,"extensao":125.46221961999998,"tempo":"0d 5h 1min","cla_icacao":"Naveg?vel","nome_rio":"Rio Amazonas","nom_eclusa":null,"jurisdicao":"AHIMOR","reg_rafica":"Regi?o Hidrogr?fica Amaz?nica","pro_de_min":5.0,"pro_de_max":7.5,"dominio":"Uni?o","observacao":"Foz no oceano Atl?ntico _PA_ at? a conflu?ncia dos rios Negro e Solim?es.","snv":"Sim","fonte":"LabTrans/Antaq","idm_origem":null,"mun_origem":null,"est_origem":null,"idm_estino":"BR160030","mun_estino":"Macap?","est_estino":"AP","idantaq":1,"Camada Sim":"34","FLUXO":35397028.83},"geometry":{"type":"MultiLineString","coordinates":[[[-50.04114,0.722391],[-50.039217,0.722932],[-50.02037,0.725519],[-50.001265,0.725434],[-49.998213,0.725435],[-49.992021,0.725419],[-49.985703,0.72538],[-49.979245,0.725318],[-49.972635,0.725233],[-49.965846,0.725123],[-49.958852,0.724989],[-49.951615,0.724831],[-49.944803,0.724665],[-49.9377,0.724476],[-49.93024,0.724263],[-49.922296,0.724021],[-49.906556,0.723511],[-49.889225,0.722922],[-49.876192,0.722478],[-49.863699,0.722063],[-49.850688,0.721656],[-49.844719,0.72148],[-49.839007,0.721321],[-49.832179,0.721143],[-49.825613,0.720985],[-49.819264,0.720848],[-49.813101,0.72073],[-49.807092,0.720631],[-49.801225,0.72055],[-49.795486,0.720487],[-49.789861,0.720443],[-49.781892,0.720385],[-49.763046,0.720221],[-49.754519,0.720157],[-49.745479,0.72011],[-49.741341,0.720099],[-49.737383,0.720097],[-49.732943,0.720104],[-49.728668,0.720122],[-49.724529,0.720152],[-49.720508,0.720193],[-49.716585,0.720245],[-49.712753,0.720309],[-49.709003,0.720385],[-49.705327,0.720473],[-49.698451,0.720659],[-49.691993,0.720849],[-49.685845,0.721047],[-49.679948,0.721255],[-49.674238,0.721475],[-49.668706,0.721708],[-49.663327,0.721955],[-49.658083,0.722216],[-49.655484,0.722354],[-49.652914,0.722495],[-49.650372,0.722641],[-49.647856,0.722791],[-49.645364,0.722944],[-49.642896,0.723103],[-49.640451,0.723265],[-49.638028,0.723432],[-49.635625,0.723604],[-49.633242,0.72378],[-49.630879,0.72396],[-49.628534,0.724145],[-49.626208,0.724335],[-49.623899,0.72453],[-49.621606,0.724729],[-49.61933,0.724933],[-49.61386,0.725442],[-49.608525,0.725959],[-49.60331,0.726485],[-49.600745,0.726752],[-49.598206,0.727022],[-49.59569,0.727295],[-49.594479,0.727426],[-49.592645,0.727232],[-49.588911,0.726825],[-49.58519,0.726407],[-49.581481,0.725978],[-49.577784,0.725538],[-49.574099,0.725087],[-49.570426,0.724626],[-49.566765,0.724153],[-49.563116,0.72367],[-49.559478,0.723176],[-49.555852,0.722671],[-49.552238,0.722156],[-49.548635,0.721629],[-49.545043,0.721091],[-49.541463,0.720543],[-49.537894,0.719983],[-49.534336,0.719413],[-49.53079,0.718832],[-49.527254,0.718239],[-49.524973,0.717851],[-49.522692,0.71746],[-49.520412,0.717065],[-49.518132,0.716667],[-49.513575,0.71586],[-49.50902,0.715039],[-49.504468,0.714205],[-49.499918,0.713358],[-49.49537,0.712496],[-49.490825,0.711621],[-49.486282,0.710733],[-49.481741,0.70983],[-49.479472,0.709374],[-49.477203,0.708915],[-49.472667,0.707985],[-49.4704,0.707515],[-49.468134,0.707042],[-49.465868,0.706565],[-49.463603,0.706085],[-49.459074,0.705115],[-49.45681,0.704625],[-49.454548,0.704131],[-49.452285,0.703634],[-49.450024,0.703133],[-49.447763,0.702629],[-49.445502,0.702122],[-49.440983,0.701097],[-49.436466,0.700058],[-49.434209,0.699534],[-49.431952,0.699006],[-49.42744,0.69794],[-49.42293,0.696861],[-49.420676,0.696316],[-49.418423,0.695768],[-49.413918,0.694661],[-49.411667,0.694103],[-49.409416,0.693541],[-49.404916,0.692407],[-49.400418,0.691259],[-49.395923,0.690098],[-49.39143,0.688923],[-49.386939,0.687735],[-49.384695,0.687135],[-49.382451,0.686533],[-49.377965,0.685317],[-49.373482,0.684088],[-49.369001,0.682845],[-49.364522,0.681588],[-49.360046,0.680318],[-49.355572,0.679034],[-49.353336,0.678387],[-49.3511,0.677736],[-49.346631,0.676425],[-49.344397,0.675764],[-49.342164,0.6751],[-49.3377,0.673762],[-49.335469,0.673087],[-49.333238,0.67241],[-49.331008,0.671729],[-49.328778,0.671044],[-49.324321,0.669665],[-49.319866,0.668272],[-49.315414,0.666865],[-49.313188,0.666157],[-49.310963,0.665445],[-49.306516,0.664011],[-49.30207,0.662564],[-49.297627,0.661103],[-49.293187,0.659628],[-49.288749,0.658139],[-49.28653,0.65739],[-49.284313,0.656637],[-49.279879,0.655122],[-49.277664,0.654359],[-49.275448,0.653592],[-49.273234,0.652823],[-49.27102,0.65205],[-49.266593,0.650493],[-49.262169,0.648923],[-49.257748,0.647339],[-49.253329,0.645742],[-49.248912,0.644131],[-49.246704,0.64332],[-49.244497,0.642506],[-49.242291,0.641688],[-49.240085,0.640868],[-49.235676,0.639216],[-49.233472,0.638385],[-49.231269,0.63755],[-49.226864,0.635871],[-49.222461,0.634178],[-49.218061,0.632471],[-49.213663,0.630751],[-49.211465,0.629886],[-49.209268,0.629018],[-49.204875,0.62727],[-49.200484,0.625509],[-49.19829,0.624624],[-49.196096,0.623735],[-49.19171,0.621946],[-49.187327,0.620144],[-49.182946,0.618329],[-49.178567,0.6165],[-49.176379,0.61558],[-49.174191,0.614657],[-49.169817,0.612801],[-49.165445,0.61093],[-49.161076,0.609047],[-49.158892,0.6081],[-49.156709,0.607149],[-49.154527,0.606196],[-49.152345,0.605238],[-49.147983,0.603314],[-49.145803,0.602347],[-49.143623,0.601376],[-49.139266,0.599424],[-49.137088,0.598443],[-49.134911,0.597458],[-49.130558,0.595479],[-49.126208,0.593487],[-49.124034,0.592485],[-49.121861,0.59148],[-49.119688,0.590472],[-49.117515,0.58946],[-49.115343,0.588445],[-49.113172,0.587427],[-49.108832,0.585379],[-49.106662,0.58435],[-49.104493,0.583318],[-49.100158,0.581244],[-49.09799,0.580201],[-49.095824,0.579156],[-49.091493,0.577054],[-49.089328,0.575998],[-49.087164,0.574938],[-49.082838,0.572809],[-49.078514,0.570667],[-49.074192,0.56851],[-49.069873,0.56634],[-49.065556,0.564157],[-49.061242,0.56196],[-49.05693,0.559749],[-49.05262,0.557524],[-49.048313,0.555286],[-49.044008,0.553034],[-49.039706,0.550769],[-49.037555,0.549631],[-49.035405,0.54849],[-49.031108,0.546197],[-49.02896,0.545046],[-49.026812,0.543891],[-49.022519,0.541571],[-49.018229,0.539238],[-49.016084,0.538066],[-49.01394,0.536891],[-49.009654,0.53453],[-49.005371,0.532155],[-49.00109,0.529767],[-48.996811,0.527366],[-48.992535,0.52495],[-48.990398,0.523738],[-48.988261,0.522521],[-48.983989,0.520079],[-48.97972,0.517623],[-48.975453,0.515153],[-48.971189,0.512669],[-48.969058,0.511422],[-48.966927,0.510172],[-48.962667,0.507661],[-48.96168,0.506869],[-48.960689,0.506081],[-48.959694,0.505296],[-48.958696,0.504516],[-48.957694,0.503739],[-48.957469,0.503566]]]}},
{"type":"Feature","properties":{"idhidrovia":200002221,"nome":"Hidrovia do Tocantins","navegacao":"Navega??o Interior","tipo":"Ba?a","vel_cional":15.0,"extensao":65.334418769600006,"tempo":"0d 4h 21min","cla_icacao":"Naveg?vel","nome_rio":"Ba?a de Maraj?","nom_eclusa":null,"jurisdicao":"AHIMOR","reg_rafica":"Regi?o Hidrogr?fica do Tocantins","pro_de_min":5.0,"pro_de_max":10.0,"dominio":null,"observacao":null,"snv":"N?o","fonte":"LabTrans/Antaq","idm_origem":"BR150710","mun_origem":"S?o Caetano de Odivelas","est_origem":"PA","idm_estino":"BR150260","mun_estino":"Colares","est_estino":"PA","idantaq":9,"Camada Sim":"35","FLUXO":29442825.01},"geometry":{"type":"MultiLineString","coordinates":[[[-48.380958,-0.882866],[-48.375387,-0.875032],[-48.348445,-0.826018],[-48.273501,-0.672161],[-48.244694,-0.61309],[-48.174401,-0.455252],[-48.124537,-0.352203]]]}},
{"type":"Feature","properties":{"idhidrovia":200002241,"nome":"Hidrovia do Amazonas","navegacao":"Navega??o Interior","tipo":"Rio","vel_cional":25.0,"extensao":5.2316735343799996,"tempo":"0d 0h 12min","cla_icacao":"Naveg?vel","nome_rio":"Rio Amazonas","nom_eclusa":null,"jurisdicao":"AHIMOC","reg_rafica":"Regi?o Hidrogr?fica Amaz?nica","pro_de_min":5.0,"pro_de_max":7.5,"dominio":"Uni?o","observacao":"Foz no oceano Atl?ntico _PA_ at? a conflu?ncia dos rios Negro e Solim?es.","snv":"Sim","fonte":"LabTrans/Antaq","idm_origem":"BR130190","mun_origem":"Itacoatiara","est_origem":"AM","idm_estino":"BR130190","mun_estino":"Itacoatiara","est_estino":"AM","idantaq":1,"Camada Sim":"36","FLUXO":16132560.15},"geometry":{"type":"MultiLineString","coordinates":[[[-58.483587,-3.137599],[-58.475648,-3.137679],[-58.463812,-3.141822],[-58.454918,-3.147963],[-58.444556,-3.155215],[-58.44147,-3.155995]]]}},
{"type":"Feature","properties":{"idhidrovia":200002242,"nome":"Hidrovia do Amazonas","navegacao":"Navega??o Interior","tipo":"Rio","vel_cional":25.0,"extensao":27.233979832100001,"tempo":"0d 1h 5min","cla_icacao":"Naveg?vel","nome_rio":"Rio Amazonas","nom_eclusa":null,"jurisdicao":"AHIMOC","reg_rafica":"Regi?o Hidrogr?fica Amaz?nica","pro_de_min":5.0,"pro_de_max":7.5,"dominio":"Uni?o","observacao":"Foz no oceano Atl?ntico _PA_ at? a conflu?ncia dos rios Negro e Solim?es.","snv":"Sim","fonte":"LabTrans/Antaq","idm_origem":"BR130190","mun_origem":"Itacoatiara","est_origem":"AM","idm_estino":"BR130190","mun_estino":"Itacoatiara","est_estino":"AM","idantaq":1,"Camada Sim":"37","FLUXO":16379237.000000002},"geometry":{"type":"MultiLineString","coordinates":[[[-58.44147,-3.155995],[-58.427953,-3.159414],[-58.414687,-3.159465],[-58.395443,-3.152893],[-58.382506,-3.145873],[-58.36389,-3.1369],[-58.348692,-3.124388],[-58.326415,-3.112486],[-58.301878,-3.103392],[-58.278075,-3.09381],[-58.249693,-3.086607],[-58.231688,-3.077513],[-58.219821,-3.066611]]]}},
{"type":"Feature","properties":{"idhidrovia":200002259,"nome":"Hidrovia do Tapaj?s","navegacao":"Navega??o Interior","tipo":"Rio","vel_cional":25.0,"extensao":3.0842957229699999,"tempo":"0d 0h 7min","cla_icacao":"Naveg?vel","nome_rio":"Rio Tapaj?s","nom_eclusa":null,"jurisdicao":"AHIMOR","reg_rafica":"Regi?o Hidrogr?fica Amaz?nica","pro_de_min":2.6,"pro_de_max":9.9,"dominio":"Uni?o","observacao":"Foz no rio Amazonas _PA_ at? a conflu?ncia dos rios Juruena e Teles Pires.","snv":"Sim","fonte":"LabTrans/Antaq","idm_origem":"BR150680","mun_origem":"Santar?m","est_origem":"PA","idm_estino":"BR150680","mun_estino":"Santar?m","est_estino":"PA","idantaq":17,"Camada Sim":"38","FLUXO":10633749.08},"geometry":{"type":"MultiLineString","coordinates":[[[-54.695666,-2.416847],[-54.695189,-2.416991],[-54.673277,-2.427611],[-54.670592,-2.428709]]]}},
{"type":"Feature","properties":{"idhidrovia":200002260,"nome":"Hidrovia do Amazonas","navegacao":"Navega??o Interior","tipo":"Rio","vel_cional":15.0,"extensao":36.459890277900001,"tempo":"0d 2h 25min","cla_icacao":"Naveg?vel","nome_rio":"Rio Trombetas","nom_eclusa":null,"jurisdicao":"AHIMOR","reg_rafica":"Regi?o Hidrogr?fica Amaz?nica","pro_de_min":2.0,"pro_de_max":4.0,"dominio":"Estados ou Distrito Federal","observacao":"Foz no rio Amazonas _PA_ at? o sop? Cachoeira Porteira _Oriximin?-PA_.","snv":"Sim","fonte":"LabTrans/ANA/Antaq","idm_origem":"BR150510","mun_origem":"?bidos","est_origem":"PA","idm_estino":"BR150530","mun_estino":"Oriximin?","est_estino":"PA","idantaq":1,"Camada Sim":"39","FLUXO":5426312.0},"geometry":{"type":"MultiLineString","coordinates":[[[-55.876593,-1.768451],[-55.872496,-1.772398],[-55.857176,-1.792906],[-55.846007,-1.803587],[-55.834715,-1.813719],[-55.828307,-1.820799],[-55.816405,-1.830687],[-55.803221,-1.840208],[-55.792296,-1.845091],[-55.781187,-1.849608],[-55.7713,-1.853575],[-55.759093,-1.856383],[-55.747801,-1.856871],[-55.720091,-1.85858],[-55.710997,-1.859801],[-55.699889,-1.861876],[-55.687376,-1.865599],[-55.673521,-1.869688],[-55.659605,-1.873473],[-55.642271,-1.878111],[-55.632201,-1.883177],[-55.615721,-1.889891],[-55.59619,-1.89398],[-55.586974,-1.895811]]]}},
{"type":"Feature","properties":{"idhidrovia":200002281,"nome":"Hidrovia do Amazonas","navegacao":"Navega??o Interior","tipo":"Rio","vel_cional":25.0,"extensao":6.391209,"tempo":"0d 0h 15min","cla_icacao":"Naveg?vel","nome_rio":"Rio Amazonas","nom_eclusa":null,"jurisdicao":"AHIMOR","reg_rafica":"Regi?o Hidrogr?fica Amaz?nica","pro_de_min":5.0,"pro_de_max":7.5,"dominio":"Uni?o","observacao":null,"snv":"Sim","fonte":"LabTrans/Antaq","idm_origem":"BR150480","mun_origem":"Monte Alegre","est_origem":"PA","idm_estino":"BR150680","mun_estino":"Santar?m","est_estino":"PA","idantaq":1,"Camada Sim":"40","FLUXO":32942701.08},"geometry":{"type":"MultiLineString","coordinates":[[[-54.670591,-2.428709],[-54.641782,-2.440306],[-54.619992,-2.448561]]]}},
{"type":"Feature","properties":{"idhidrovia":200002323,"nome":"Hidrovia do Sul","navegacao":"Navega??o Interior","tipo":"Rio","vel_cional":10.0,"extensao":3.01,"tempo":"0d 0h 18min","cla_icacao":"Navega??o inexpressiva","nome_rio":"Rio Jacu?","nom_eclusa":null,"jurisdicao":"SPH","reg_rafica":"Regi?o Hidrogr?fica Atl?ntico Sul","pro_de_min":1.0,"pro_de_max":1.2,"dominio":"Estados ou Distrito Federal","observacao":"Foz na Lagoa Gua?ba _RS_ at? Dona Francisca _RS_.","snv":"Sim","fonte":"LabTrans/ANA/Antaq","idm_origem":"BR432200","mun_origem":"Triunfo","est_origem":"RS","idm_estino":"BR432200","mun_estino":"Triunfo","est_estino":"RS","idantaq":18,"Camada Sim":"41","FLUXO":9193.76},"geometry":{"type":"MultiLineString","coordinates":[[[-51.314435,-29.946274],[-51.303556,-29.947067],[-51.296852,-29.947082],[-51.287967,-29.945992],[-51.285291,-29.942696]]]}},
{"type":"Feature","properties":{"idhidrovia":200002325,"nome":"Hidrovia do Amazonas","navegacao":"Navega??o Interior","tipo":"Rio","vel_cional":15.0,"extensao":25.188587760899999,"tempo":"0d 1h 40min","cla_icacao":"Navega??o inexpressiva","nome_rio":"Rio Jari","nom_eclusa":null,"jurisdicao":"AHIMOR","reg_rafica":"Regi?o Hidrogr?fica Amaz?nica","pro_de_min":1.2,"pro_de_max":3.0,"dominio":"Uni?o","observacao":"Foz no rio Amazonas _AP_ at? Laranjal do Jari _AP_.","snv":"Sim","fonte":"LabTrans/ANA/Antaq","idm_origem":"BR160080","mun_origem":"Vit?ria do Jari","est_origem":"AP","idm_estino":"BR160027","mun_estino":"Laranjal do Jari","est_estino":"AP","idantaq":1,"Camada Sim":"42","FLUXO":51652.74},"geometry":{"type":"MultiLineString","coordinates":[[[-52.536908,-0.853589],[-52.53385,-0.855574],[-52.519732,-0.856764],[-52.512419,-0.853873],[-52.49864,-0.845199],[-52.477801,-0.839755],[-52.464022,-0.834315],[-52.458582,-0.830397],[-52.455691,-0.824787],[-52.450926,-0.824106],[-52.439616,-0.82972],[-52.433661,-0.838563],[-52.430258,-0.840946],[-52.416991,-0.847069],[-52.40449,-0.86374],[-52.398875,-0.883471],[-52.398875,-0.889765],[-52.402193,-0.906945],[-52.409167,-0.911366],[-52.422311,-0.919265]]]}},
{"type":"Feature","properties":{"idhidrovia":200002376,"nome":"Hidrovia do Amazonas","navegacao":"Navega??o Interior","tipo":"Rio","vel_cional":25.0,"extensao":40.947335888200001,"tempo":"0d 1h 38min","cla_icacao":"Naveg?vel","nome_rio":"Rio Amazonas","nom_eclusa":null,"jurisdicao":"AHIMOC","reg_rafica":"Regi?o Hidrogr?fica Amaz?nica","pro_de_min":5.0,"pro_de_max":7.5,"dominio":"Uni?o","observacao":"Foz no oceano Atl?ntico _PA_ at? a conflu?ncia dos rios Negro e Solim?es.","snv":"Sim","fonte":"LabTrans/Antaq","idm_origem":"BR130340","mun_origem":"Parintins","est_origem":"AM","idm_estino":"BR130340","mun_estino":"Parintins","est_estino":"AM","idantaq":1,"Camada Sim":"43","FLUXO":16379237.000000002},"geometry":{"type":"MultiLineString","coordinates":[[[-56.667784,-2.594115],[-56.659789,-2.590086],[-56.6463,-2.581175],[-56.63629,-2.576109],[-56.608353,-2.56327],[-56.59079,-2.553418],[-56.577746,-2.543819],[-56.563292,-2.531004],[-56.54077,-2.513915],[-56.523985,-2.503172],[-56.503478,-2.485777],[-56.494166,-2.473045],[-56.477171,-2.448607],[-56.455809,-2.417479],[-56.442992,-2.397398],[-56.427672,-2.3692],[-56.41992,-2.343687],[-56.418088,-2.338289]]]}},
{"type":"Feature","properties":{"idhidrovia":200002394,"nome":"Hidrovia do Sul","navegacao":"Navega??o Interior","tipo":"Laguna","vel_cional":25.0,"extensao":65.014495504300001,"tempo":"0d 2h 36min","cla_icacao":"Naveg?vel","nome_rio":"Lagoa dos Patos","nom_eclusa":null,"jurisdicao":"SPH","reg_rafica":"Regi?o Hidrogr?fica Atl?ntico Sul","pro_de_min":5.4,"pro_de_max":5.4,"dominio":"Estados ou Distrito Federal","observacao":"Conflu?ncia com o oceano Atl?ntico at? a conflu?ncia com o Lago Gua?ba _RS_.","snv":"Sim","fonte":"LabTrans/Antaq","idm_origem":"BR431440","mun_origem":"Pelotas","est_origem":"RS","idm_estino":"BR430350","mun_estino":"Camaqu?","est_estino":"RS","idantaq":18,"Camada Sim":"44","FLUXO":42250.97},"geometry":{"type":"MultiLineString","coordinates":[[[-51.687525,-31.473246],[-51.728107,-31.519353],[-51.845876,-31.654469],[-51.892107,-31.700381],[-51.938267,-31.732238],[-51.982462,-31.748671],[-52.033869,-31.764802],[-52.075596,-31.776895],[-52.13261,-31.783339],[-52.176417,-31.787016],[-52.21918,-31.788054]]]}},
{"type":"Feature","properties":{"idhidrovia":200002396,"nome":"Hidrovia do Sul","navegacao":"Navega??o Interior","tipo":"Lago","vel_cional":25.0,"extensao":19.692815221299998,"tempo":"0d 0h 47min","cla_icacao":"Naveg?vel","nome_rio":"Lago Gua?ba","nom_eclusa":null,"jurisdicao":"SPH","reg_rafica":"Regi?o Hidrogr?fica Atl?ntico Sul","pro_de_min":2.0,"pro_de_max":12.0,"dominio":"Estados ou Distrito Federal","observacao":"Conflu?ncia com a Lagoa dos Patos _RS_ at? o Delta do rio Jacu?.","snv":"Sim","fonte":"LabTrans/Antaq","idm_origem":"BR430190","mun_origem":"Barra do Ribeiro","est_origem":"RS","idm_estino":"BR430190","mun_estino":"Barra do Ribeiro","est_estino":"RS","idantaq":18,"Camada Sim":"45","FLUXO":42250.97},"geometry":{"type":"MultiLineString","coordinates":[[[-51.233398,-30.247404],[-51.216643,-30.260374],[-51.15751,-30.29248],[-51.133004,-30.30547],[-51.112975,-30.318537],[-51.103399,-30.328435],[-51.097303,-30.338411],[-51.090392,-30.354291],[-51.086764,-30.363611]]]}},
{"type":"Feature","properties":{"idhidrovia":200002683,"nome":"Hidrovia do Amazonas","navegacao":"Navega??o Interior","tipo":"Rio","vel_cional":25.0,"extensao":66.083733287200005,"tempo":"0d 2h 38min","cla_icacao":"Naveg?vel","nome_rio":"Rio Amazonas","nom_eclusa":null,"jurisdicao":"AHIMOR","reg_rafica":"Regi?o Hidrogr?fica Amaz?nica","pro_de_min":5.0,"pro_de_max":7.5,"dominio":"Uni?o","observacao":"Foz no oceano Atl?ntico _PA_ at? a conflu?ncia dos rios Negro e Solim?es.","snv":"Sim","fonte":"LabTrans/Antaq","idm_origem":"BR150600","mun_origem":"Prainha","est_origem":"PA","idm_estino":"BR150480","mun_estino":"Monte Alegre","est_estino":"PA","idantaq":1,"Camada Sim":"46","FLUXO":32942701.08},"geometry":{"type":"MultiLineString","coordinates":[[[-54.004312,-2.050884],[-54.000609,-2.044981],[-53.991209,-2.031493],[-53.980101,-2.020506],[-53.962828,-2.00598],[-53.944518,-1.992125],[-53.927794,-1.98181],[-53.895079,-1.969176],[-53.876707,-1.964903],[-53.849608,-1.957213],[-53.825987,-1.946471],[-53.812621,-1.938902],[-53.80078,-1.930296],[-53.787596,-1.920897],[-53.775389,-1.913512],[-53.755003,-1.901793],[-53.734984,-1.894408],[-53.714598,-1.888976],[-53.685728,-1.884825],[-53.656981,-1.886168],[-53.647398,-1.887206],[-53.634581,-1.887694],[-53.615782,-1.884398],[-53.604002,-1.882201],[-53.594481,-1.877928],[-53.582091,-1.872374],[-53.563414,-1.862791],[-53.531798,-1.850401],[-53.503416,-1.832884],[-53.487975,-1.823485],[-53.475707,-1.817381]]]}},
{"type":"Feature","properties":{"idhidrovia":200002797,"nome":"Hidrovia do Amazonas","navegacao":"Navega??o Interior","tipo":"Rio","vel_cional":25.0,"extensao":53.355872599900003,"tempo":"0d 2h 8min","cla_icacao":"Naveg?vel","nome_rio":"Rio Amazonas","nom_eclusa":null,"jurisdicao":"AHIMOR","reg_rafica":"Regi?o Hidrogr?fica Amaz?nica","pro_de_min":5.0,"pro_de_max":7.5,"dominio":"Uni?o","observacao":null,"snv":"Sim","fonte":"LabTrans/Antaq","idm_origem":"BR150030","mun_origem":"Afu?","est_origem":"PA","idm_estino":"BR160060","mun_estino":"Santana","est_estino":"AP","idantaq":1,"Camada Sim":"47","FLUXO":35397028.83},"geometry":{"type":"MultiLineString","coordinates":[[[-51.166963,-0.062675],[-51.162863,-0.063093],[-51.158771,-0.062755],[-51.155506,-0.06144],[-51.151989,-0.060152],[-51.150407,-0.059574],[-51.144058,-0.058285],[-51.138173,-0.05874],[-51.131608,-0.059375],[-51.125073,-0.060531],[-51.120066,-0.061413],[-51.107036,-0.062655],[-51.101083,-0.062436],[-51.096473,-0.061273],[-51.081274,-0.055856],[-51.074987,-0.053103],[-51.05818,-0.037639],[-51.036602,-0.017128],[-51.010589,0.015027],[-50.995347,0.030522],[-50.97753,0.046251],[-50.939788,0.070202],[-50.912823,0.078667],[-50.80299,0.10687],[-50.753279,0.123325],[-50.750398,0.125209]]]}},
{"type":"Feature","properties":{"idhidrovia":200002798,"nome":"Hidrovia do Amazonas","navegacao":"Navega??o Interior","tipo":"Rio","vel_cional":25.0,"extensao":73.220971867499998,"tempo":"0d 2h 55min","cla_icacao":"Naveg?vel","nome_rio":"Rio Amazonas","nom_eclusa":null,"jurisdicao":"AHIMOR","reg_rafica":"Regi?o Hidrogr?fica Amaz?nica","pro_de_min":5.0,"pro_de_max":7.5,"dominio":"Uni?o","observacao":"Foz no oceano Atl?ntico _PA_ at? a conflu?ncia dos rios Negro e Solim?es.","snv":"Sim","fonte":"LabTrans/Antaq","idm_origem":"BR160030","mun_origem":"Macap?","est_origem":"AP","idm_estino":"BR150250","mun_estino":"Chaves","est_estino":"PA","idantaq":1,"Camada Sim":"48","FLUXO":35397028.83},"geometry":{"type":"MultiLineString","coordinates":[[[-50.519926,0.383103],[-50.514117,0.398314],[-50.500068,0.430456],[-50.487654,0.453449],[-50.475163,0.482115],[-50.47002,0.509101],[-50.465113,0.534672],[-50.451302,0.571973],[-50.430217,0.607405],[-50.406536,0.62713],[-50.369674,0.653992],[-50.349041,0.668548],[-50.315039,0.680533],[-50.268367,0.690653],[-50.194685,0.701619],[-50.150121,0.705872],[-50.091148,0.705827],[-50.062868,0.71628],[-50.04114,0.722391]]]}},
{"type":"Feature","properties":{"idhidrovia":200002803,"nome":"Hidrovia do Sul","navegacao":"Navega??o Interior","tipo":"Laguna","vel_cional":25.0,"extensao":58.589648643300002,"tempo":"0d 2h 20min","cla_icacao":"Naveg?vel","nome_rio":"Lagoa dos Patos","nom_eclusa":null,"jurisdicao":"SPH","reg_rafica":"Regi?o Hidrogr?fica Atl?ntico Sul","pro_de_min":5.4,"pro_de_max":5.4,"dominio":"Estados ou Distrito Federal","observacao":"Conflu?ncia com o oceano Atl?ntico at? a conflu?ncia com o Lago Gua?ba _RS_.","snv":"Sim","fonte":"LabTrans/Antaq","idm_origem":"BR430350","mun_origem":"Camaqu?","est_origem":"RS","idm_estino":"BR430085","mun_estino":"Arambar?","est_estino":"RS","idantaq":18,"Camada Sim":"49","FLUXO":42250.97},"geometry":{"type":"MultiLineString","coordinates":[[[-51.311861,-31.066179],[-51.328939,-31.097459],[-51.356564,-31.160683],[-51.403931,-31.228685],[-51.455955,-31.290467],[-51.532444,-31.341444],[-51.586078,-31.380415],[-51.658014,-31.439718],[-51.687525,-31.473246]]]}},
{"type":"Feature","properties":{"idhidrovia":200002804,"nome":"Hidrovia do Sul","navegacao":"Navega??o Interior","tipo":"Laguna","vel_cional":25.0,"extensao":13.5780538546,"tempo":"0d 0h 32min","cla_icacao":"Naveg?vel","nome_rio":"Lagoa dos Patos","nom_eclusa":null,"jurisdicao":"SPH","reg_rafica":"Regi?o Hidrogr?fica Atl?ntico Sul","pro_de_min":5.4,"pro_de_max":5.4,"dominio":"Estados ou Distrito Federal","observacao":"Conflu?ncia com o oceano Atl?ntico at? a conflu?ncia com o Lago Gua?ba _RS_.","snv":"Sim","fonte":"LabTrans/Antaq","idm_origem":"BR430085","mun_origem":"Arambar?","est_origem":"RS","idm_estino":"BR431250","mun_estino":"Mostardas","est_estino":"RS","idantaq":18,"Camada Sim":"50","FLUXO":42250.97},"geometry":{"type":"MultiLineString","coordinates":[[[-51.246557,-30.957512],[-51.273433,-30.995797],[-51.311861,-31.066179]]]}},
{"type":"Feature","properties":{"idhidrovia":200002805,"nome":"Hidrovia do Sul","navegacao":"Navega??o Interior","tipo":"Lago","vel_cional":25.0,"extensao":14.964887661200001,"tempo":"0d 0h 35min","cla_icacao":"Naveg?vel","nome_rio":"Lago Gua?ba","nom_eclusa":null,"jurisdicao":"SPH","reg_rafica":"Regi?o Hidrogr?fica Atl?ntico Sul","pro_de_min":2.0,"pro_de_max":12.0,"dominio":"Estados ou Distrito Federal","observacao":"Conflu?ncia com a Lagoa dos Patos _RS_ at? o Delta do rio Jacu?.","snv":"Sim","fonte":"LabTrans/Antaq","idm_origem":"BR430190","mun_origem":"Barra do Ribeiro","est_origem":"RS","idm_estino":"BR430930","mun_estino":"Gua?ba","est_estino":"RS","idantaq":18,"Camada Sim":"51","FLUXO":42250.97},"geometry":{"type":"MultiLineString","coordinates":[[[-51.307583,-30.138361],[-51.30767,-30.138399],[-51.309878,-30.140881],[-51.311215,-30.144135],[-51.311347,-30.149435],[-51.310517,-30.155504],[-51.308344,-30.160485],[-51.30706,-30.162207],[-51.304299,-30.165804],[-51.300632,-30.170976],[-51.298443,-30.176278],[-51.296682,-30.189232],[-51.291551,-30.197804],[-51.282597,-30.206581],[-51.273521,-30.213706],[-51.263366,-30.22165],[-51.252331,-30.231582],[-51.235171,-30.24603],[-51.233398,-30.247404]]]}},
{"type":"Feature","properties":{"idhidrovia":200002821,"nome":"Hidrovia do Amazonas","navegacao":"Navega??o Interior","tipo":"Rio","vel_cional":25.0,"extensao":32.947228949399999,"tempo":"0d 1h 19min","cla_icacao":"Naveg?vel","nome_rio":"Rio Amazonas","nom_eclusa":null,"jurisdicao":"AHIMOC","reg_rafica":"Regi?o Hidrogr?fica Amaz?nica","pro_de_min":5.0,"pro_de_max":7.5,"dominio":"Uni?o","observacao":"Foz no oceano Atl?ntico _PA_ at? a conflu?ncia dos rios Negro e Solim?es.","snv":"Sim","fonte":"LabTrans/Antaq","idm_origem":"BR130190","mun_origem":"Itacoatiara","est_origem":"AM","idm_estino":"BR130190","mun_estino":"Itacoatiara","est_estino":"AM","idantaq":1,"Camada Sim":"52","FLUXO":9528683.59},"geometry":{"type":"MultiLineString","coordinates":[[[-59.016673,-3.240205],[-59.009703,-3.238585],[-58.995909,-3.2395],[-58.979796,-3.246581],[-58.960509,-3.255309],[-58.942198,-3.262694],[-58.924803,-3.268187],[-58.907896,-3.278685],[-58.895811,-3.289305],[-58.885497,-3.297911],[-58.87329,-3.303709],[-58.851927,-3.310179],[-58.836607,-3.316588],[-58.822081,-3.323485],[-58.797484,-3.33441],[-58.777098,-3.344298],[-58.75421,-3.349791],[-58.746703,-3.352171]]]}},
{"type":"Feature","properties":{"idhidrovia":200002822,"nome":"Hidrovia do Amazonas","navegacao":"Navega??o Interior","tipo":"Rio","vel_cional":25.0,"extensao":23.678624164399999,"tempo":"0d 0h 56min","cla_icacao":"Naveg?vel","nome_rio":"Rio Amazonas","nom_eclusa":null,"jurisdicao":"AHIMOC","reg_rafica":"Regi?o Hidrogr?fica Amaz?nica","pro_de_min":5.0,"pro_de_max":7.5,"dominio":"Uni?o","observacao":"Foz no oceano Atl?ntico _PA_ at? a conflu?ncia dos rios Negro e Solim?es.","snv":"Sim","fonte":"LabTrans/Antaq","idm_origem":"BR130190","mun_origem":"Itacoatiara","est_origem":"AM","idm_estino":"BR130190","mun_estino":"Itacoatiara","est_estino":"AM","idantaq":1,"Camada Sim":"53","FLUXO":6641383.81},"geometry":{"type":"MultiLineString","coordinates":[[[-59.214965,-3.241686],[-59.208189,-3.244994],[-59.187987,-3.255125],[-59.167113,-3.267577],[-59.155699,-3.273497],[-59.133482,-3.277281],[-59.115416,-3.27429],[-59.097228,-3.264708],[-59.072508,-3.257079],[-59.058409,-3.252928],[-59.047423,-3.247618],[-59.0343,-3.244994],[-59.020995,-3.241209],[-59.016673,-3.240205]]]}},
{"type":"Feature","properties":{"idhidrovia":200002844,"nome":"Hidrovia do Amazonas","navegacao":"Navega??o Interior","tipo":"Rio","vel_cional":25.0,"extensao":15.7257173683,"tempo":"0d 0h 37min","cla_icacao":"Naveg?vel","nome_rio":"Rio Amazonas","nom_eclusa":null,"jurisdicao":"AHIMOR","reg_rafica":"Regi?o Hidrogr?fica Amaz?nica","pro_de_min":5.0,"pro_de_max":7.5,"dominio":"Uni?o","observacao":"Foz no oceano Atl?ntico _PA_ at? a conflu?ncia dos rios Negro e Solim?es.","snv":"Sim","fonte":"LabTrans/Antaq","idm_origem":"BR160060","mun_origem":"Santana","est_origem":"AP","idm_estino":"BR160040","mun_estino":"Mazag?o","est_estino":"AP","idantaq":1,"Camada Sim":"54","FLUXO":32994353.82},"geometry":{"type":"MultiLineString","coordinates":[[[-51.241824,-0.1576],[-51.210997,-0.11859],[-51.210875,-0.103026],[-51.208678,-0.088011],[-51.207884,-0.083678],[-51.204405,-0.077086],[-51.203978,-0.072874],[-51.202391,-0.067686],[-51.200377,-0.063719],[-51.197691,-0.061217],[-51.192503,-0.058714],[-51.186888,-0.058409],[-51.179015,-0.060606],[-51.174193,-0.061705],[-51.168861,-0.062624],[-51.166963,-0.062676]]]}},
{"type":"Feature","properties":{"idhidrovia":200002853,"nome":"Hidrovia do Amazonas","navegacao":"Navega??o Interior","tipo":"Rio","vel_cional":25.0,"extensao":6.1863242523700004,"tempo":"0d 0h 14min","cla_icacao":"Naveg?vel","nome_rio":"Rio Amazonas","nom_eclusa":null,"jurisdicao":"AHIMOC","reg_rafica":"Regi?o Hidrogr?fica Amaz?nica","pro_de_min":5.0,"pro_de_max":7.5,"dominio":"Uni?o","observacao":"Foz no oceano Atl?ntico _PA_ at? a conflu?ncia dos rios Negro e Solim?es.","snv":"Sim","fonte":"LabTrans/Antaq","idm_origem":"BR130260","mun_origem":"Manaus","est_origem":"AM","idm_estino":"BR130260","mun_estino":"Manaus","est_estino":"AM","idantaq":1,"Camada Sim":"55","FLUXO":6641383.81},"geometry":{"type":"MultiLineString","coordinates":[[[-59.8963,-3.124998],[-59.8786,-3.112608],[-59.863402,-3.10089],[-59.850531,-3.093378]]]}},
{"type":"Feature","properties":{"idhidrovia":200002860,"nome":"Hidrovia do Amazonas","navegacao":"Navega??o Interior","tipo":"Rio","vel_cional":25.0,"extensao":16.342824771899998,"tempo":"0d 0h 39min","cla_icacao":"Naveg?vel","nome_rio":"Rio Amazonas","nom_eclusa":null,"jurisdicao":"AHIMOC","reg_rafica":"Regi?o Hidrogr?fica Amaz?nica","pro_de_min":5.0,"pro_de_max":7.5,"dominio":"Uni?o","observacao":"Foz no oceano Atl?ntico _PA_ at? a conflu?ncia dos rios Negro e Solim?es.","snv":"Sim","fonte":"LabTrans/Antaq","idm_origem":"BR150390","mun_origem":"Juruti","est_origem":"PA","idm_estino":"BR150390","mun_estino":"Juruti","est_estino":"PA","idantaq":1,"Camada Sim":"56","FLUXO":16882640.0},"geometry":{"type":"MultiLineString","coordinates":[[[-56.100263,-2.148049],[-56.097105,-2.145018],[-56.094298,-2.139769],[-56.091307,-2.128172],[-56.090575,-2.121703],[-56.088011,-2.114684],[-56.083678,-2.102721],[-56.08148,-2.092772],[-56.081114,-2.065306],[-56.084471,-2.046873],[-56.088805,-2.02899],[-56.092589,-2.007689],[-56.092106,-2.005402]]]}},
{"type":"Feature","properties":{"idhidrovia":200002863,"nome":"Hidrovia do Tocantins","navegacao":"Navega??o Interior","tipo":"Ba?a","vel_cional":15.0,"extensao":7.3021450849400003,"tempo":"0d 0h 29min","cla_icacao":"Naveg?vel","nome_rio":"Ba?a de Maraj?","nom_eclusa":null,"jurisdicao":"AHIMOR","reg_rafica":"Regi?o Hidrogr?fica do Tocantins","pro_de_min":5.0,"pro_de_max":10.0,"dominio":null,"observacao":null,"snv":"N?o","fonte":"LabTrans/Antaq","idm_origem":"BR150140","mun_origem":"Bel?m","est_origem":"PA","idm_estino":"BR150140","mun_estino":"Bel?m","est_estino":"PA","idantaq":9,"Camada Sim":"57","FLUXO":29442825.01},"geometry":{"type":"MultiLineString","coordinates":[[[-48.495909,-1.288023],[-48.493714,-1.256808],[-48.487148,-1.231685],[-48.48728,-1.222956]]]}},
{"type":"Feature","properties":{"idhidrovia":200002864,"nome":"Hidrovia do Tocantins","navegacao":"Navega??o Interior","tipo":"Ba?a","vel_cional":15.0,"extensao":23.279712405200002,"tempo":"0d 1h 33min","cla_icacao":"Naveg?vel","nome_rio":"Ba?a de Maraj?","nom_eclusa":null,"jurisdicao":"AHIMOR","reg_rafica":"Regi?o Hidrogr?fica do Tocantins","pro_de_min":5.0,"pro_de_max":10.0,"dominio":null,"observacao":null,"snv":"N?o","fonte":"LabTrans/Antaq","idm_origem":"BR150200","mun_origem":"Cachoeira do Arari","est_origem":"PA","idm_estino":"BR150140","mun_estino":"Bel?m","est_estino":"PA","idantaq":9,"Camada Sim":"58","FLUXO":29442825.01},"geometry":{"type":"MultiLineString","coordinates":[[[-48.48728,-1.222956],[-48.487492,-1.208765],[-48.48972,-1.187412],[-48.497925,-1.163231],[-48.49952,-1.148464],[-48.500185,-1.084502],[-48.482026,-1.03802],[-48.472728,-1.019857]]]}},
{"type":"Feature","properties":{"idhidrovia":200002893,"nome":"Hidrovia do Amazonas","navegacao":"Navega??o Interior","tipo":"Rio","vel_cional":25.0,"extensao":14.1612463872,"tempo":"0d 0h 33min","cla_icacao":"Naveg?vel","nome_rio":"Rio Amazonas","nom_eclusa":null,"jurisdicao":"AHIMOC","reg_rafica":"Regi?o Hidrogr?fica Amaz?nica","pro_de_min":5.0,"pro_de_max":7.5,"dominio":"Uni?o","observacao":"Foz no oceano Atl?ntico _PA_ at? a conflu?ncia dos rios Negro e Solim?es.","snv":"Sim","fonte":"LabTrans/Antaq","idm_origem":"BR130440","mun_origem":"Urucurituba","est_origem":"AM","idm_estino":"BR130190","mun_estino":"Itacoatiara","est_estino":"AM","idantaq":1,"Camada Sim":"59","FLUXO":16379237.000000002},"geometry":{"type":"MultiLineString","coordinates":[[[-58.219821,-3.066611],[-58.216673,-3.063719],[-58.199889,-3.049803],[-58.185179,-3.039305],[-58.172728,-3.026183],[-58.158019,-3.011412],[-58.14868,-2.997496],[-58.14337,-2.984984],[-58.138792,-2.971983],[-58.13872,-2.971408]]]}},
{"type":"Feature","properties":{"idhidrovia":200002897,"nome":"Hidrovia do Tocantins","navegacao":"Navega??o Interior","tipo":"Ba?a","vel_cional":15.0,"extensao":18.311077772499999,"tempo":"0d 1h 13min","cla_icacao":"Naveg?vel","nome_rio":"Ba?a de Maraj?","nom_eclusa":null,"jurisdicao":"AHIMOR","reg_rafica":"Regi?o Hidrogr?fica do Tocantins","pro_de_min":5.0,"pro_de_max":10.0,"dominio":null,"observacao":null,"snv":"N?o","fonte":"LabTrans/Antaq","idm_origem":"BR150260","mun_origem":"Colares","est_origem":"PA","idm_estino":"BR150200","mun_estino":"Cachoeira do Arari","est_estino":"PA","idantaq":9,"Camada Sim":"60","FLUXO":29442825.01},"geometry":{"type":"MultiLineString","coordinates":[[[-48.472728,-1.019857],[-48.45822,-0.991519],[-48.380958,-0.882866]]]}},
{"type":"Feature","properties":{"idhidrovia":200002920,"nome":"Hidrovia do Amazonas","navegacao":"Navega??o Interior","tipo":"Rio","vel_cional":25.0,"extensao":94.182277912000004,"tempo":"0d 3h 46min","cla_icacao":"Naveg?vel","nome_rio":"Rio Amazonas","nom_eclusa":null,"jurisdicao":"AHIMOR","reg_rafica":"Regi?o Hidrogr?fica Amaz?nica","pro_de_min":5.0,"pro_de_max":7.5,"dominio":"Uni?o","observacao":null,"snv":"Sim","fonte":"LabTrans/Antaq","idm_origem":"BR150480","mun_origem":"Monte Alegre","est_origem":"PA","idm_estino":"BR150680","mun_estino":"Santar?m","est_estino":"PA","idantaq":1,"Camada Sim":"61","FLUXO":32942701.08},"geometry":{"type":"MultiLineString","coordinates":[[[-54.619992,-2.448561],[-54.618102,-2.449278],[-54.601011,-2.453794],[-54.583616,-2.457212],[-54.554625,-2.453368],[-54.539915,-2.455198],[-54.531798,-2.455016],[-54.523192,-2.456297],[-54.511777,-2.454222],[-54.499021,-2.452085],[-54.476194,-2.446898],[-54.460996,-2.443967],[-54.438474,-2.435179],[-54.426206,-2.42877],[-54.411008,-2.420713],[-54.396605,-2.411802],[-54.386777,-2.408323],[-54.376584,-2.406187],[-54.363402,-2.404905],[-54.350523,-2.404478],[-54.343198,-2.4046],[-54.331969,-2.405577],[-54.322203,-2.405577],[-54.313474,-2.405577],[-54.303282,-2.40521],[-54.295713,-2.40521],[-54.287413,-2.406371],[-54.279783,-2.408994],[-54.272581,-2.410886],[-54.261473,-2.41162],[-54.250182,-2.407408],[-54.241576,-2.403197],[-54.23181,-2.397704],[-54.213011,-2.389403],[-54.202696,-2.38452],[-54.17761,-2.374083],[-54.163268,-2.36688],[-54.151792,-2.360898],[-54.142271,-2.354308],[-54.13519,-2.348386],[-54.127501,-2.343382],[-54.110289,-2.329893],[-54.101011,-2.318601],[-54.091977,-2.306211],[-54.081907,-2.28961],[-54.071288,-2.27368],[-54.063718,-2.262205],[-54.056699,-2.250792],[-54.04791,-2.233579],[-54.0426,-2.218993],[-54.038206,-2.203],[-54.036985,-2.188292],[-54.036313,-2.172483],[-54.036313,-2.156614],[-54.036985,-2.140684],[-54.038511,-2.128416],[-54.038511,-2.121703],[-54.036985,-2.114684],[-54.033079,-2.107298],[-54.028502,-2.100279],[-54.025328,-2.094176],[-54.020018,-2.0838],[-54.017088,-2.075987],[-54.011899,-2.065611],[-54.006773,-2.054807],[-54.004311,-2.050883]]]}},
{"type":"Feature","properties":{"idhidrovia":200002921,"nome":"Hidrovia do Amazonas","navegacao":"Navega??o Interior","tipo":"Rio","vel_cional":15.0,"extensao":38.490398,"tempo":"0d 2h 33min","cla_icacao":"Naveg?vel","nome_rio":"Rio Amazonas","nom_eclusa":null,"jurisdicao":"AHIMOR","reg_rafica":"Regi?o Hidrogr?fica Amaz?nica","pro_de_min":5.0,"pro_de_max":7.5,"dominio":"Uni?o","observacao":null,"snv":"Sim","fonte":"LabTrans/Antaq","idm_origem":"BR150250","mun_origem":"Chaves","est_origem":"PA","idm_estino":"BR150030","mun_estino":"Afu?","est_estino":"PA","idantaq":1,"Camada Sim":"62","FLUXO":35397028.83},"geometry":{"type":"MultiLineString","coordinates":[[[-50.750398,0.125209],[-50.712722,0.149858],[-50.671073,0.184889],[-50.655363,0.200624],[-50.642941,0.218699],[-50.627003,0.236069],[-50.60544,0.256489],[-50.569583,0.294277],[-50.541289,0.340106],[-50.528633,0.360298],[-50.519925,0.383103]]]}},
{"type":"Feature","properties":{"idhidrovia":200300044,"nome":"Hidrovia do Tocantins","navegacao":"Navega??o Interior","tipo":"Rio","vel_cional":15.0,"extensao":19.8568958969547,"tempo":"0d 1h 19min","cla_icacao":"Naveg?vel","nome_rio":"Rio Tocantins","nom_eclusa":null,"jurisdicao":null,"reg_rafica":"Regi?o Hidrogr?fica do Tocantins","pro_de_min":null,"pro_de_max":null,"dominio":null,"observacao":null,"snv":null,"fonte":null,"idm_origem":"BR150130","mun_origem":"Barcarena","est_origem":"PA","idm_estino":"BR150130","mun_estino":"Barcarena","est_estino":"PA","idantaq":null,"Camada Sim":"63","FLUXO":29153248.54},"geometry":{"type":"MultiLineString","coordinates":[[[-48.75208,-1.537207],[-48.74367,-1.521468],[-48.736451,-1.490437],[-48.717875,-1.444495],[-48.696888,-1.402748],[-48.676887,-1.37687]]]}},
{"type":"Feature","properties":{"idhidrovia":200300045,"nome":"Canal de Acesso de Rio Grande","navegacao":"Navega??o Interior","tipo":"Canal","vel_cional":20.0,"extensao":13.538856862283099,"tempo":"0d 0h 40min","cla_icacao":"Naveg?vel","nome_rio":"Lagoa dos Patos","nom_eclusa":null,"jurisdicao":null,"reg_rafica":"Regi?o Hidrogr?fica Atl?ntico Sul","pro_de_min":null,"pro_de_max":null,"dominio":null,"observacao":null,"snv":null,"fonte":null,"idm_origem":null,"mun_origem":null,"est_origem":null,"idm_estino":null,"mun_estino":null,"est_estino":null,"idantaq":null,"Camada Sim":"64","FLUXO":42250.97},"geometry":{"type":"MultiLineString","coordinates":[[[-52.075164,-32.038542],[-52.073205,-32.040424],[-52.071835,-32.045717],[-52.069828,-32.052335],[-52.069636,-32.055813],[-52.069273,-32.062418],[-52.072113,-32.07321],[-52.079658,-32.088464],[-52.085582,-32.100394],[-52.09394,-32.111105],[-52.096373,-32.123845],[-52.096293,-32.133257],[-52.093046,-32.154355]]]}},
{"type":"Feature","properties":{"idhidrovia":200300120,"nome":"Hidrovia do Sul","navegacao":"Navega??o Interior","tipo":"Rio","vel_cional":10.0,"extensao":2.07875660358363,"tempo":"0d 0h 12min","cla_icacao":"Naveg?vel","nome_rio":"Rio Jacu?","nom_eclusa":null,"jurisdicao":"SPH","reg_rafica":"Regi?o Hidrogr?fica Atl?ntico Sul","pro_de_min":1.2,"pro_de_max":1.0,"dominio":"Estados ou Distrito Federal","observacao":"Modificado em 17/11/2015 por ajustes. Utiliza??o da Base BCIM250/IBGE","snv":"Sim","fonte":"LabTrans/ANA/Antaq","idm_origem":"BR432200","mun_origem":"Triunfo","est_origem":"RS","idm_estino":"BR432200","mun_estino":"Triunfo","est_estino":"RS","idantaq":null,"Camada Sim":"65","FLUXO":9193.76},"geometry":{"type":"MultiLineString","coordinates":[[[-51.285291,-29.942696],[-51.283113,-29.94142],[-51.281463,-29.940453],[-51.276034,-29.937383],[-51.269463,-29.935272],[-51.266069,-29.934629]]]}},
{"type":"Feature","properties":{"idhidrovia":200300181,"nome":"Acesso aos Terminais de Bel?m","navegacao":"Navega??o Interior","tipo":"Canal","vel_cional":15.0,"extensao":8.6434675991066996,"tempo":"0d 0h 34min","cla_icacao":"Acesso simples","nome_rio":null,"nom_eclusa":null,"jurisdicao":null,"reg_rafica":"Regi?o Hidrogr?fica do Tocantins","pro_de_min":null,"pro_de_max":null,"dominio":null,"observacao":null,"snv":null,"fonte":null,"idm_origem":"BR150140","mun_origem":"Bel?m","est_origem":"PA","idm_estino":"BR150130","mun_estino":"Barcarena","est_estino":"PA","idantaq":null,"Camada Sim":"66","FLUXO":29153248.54},"geometry":{"type":"MultiLineString","coordinates":[[[-48.494199,-1.330869],[-48.521168,-1.323407],[-48.536968,-1.317088],[-48.566671,-1.303183]]]}},
{"type":"Feature","properties":{"idhidrovia":200300182,"nome":"Acesso aos Terminais de Bel?m","navegacao":"Navega??o Interior","tipo":"Canal","vel_cional":15.0,"extensao":15.113932757333901,"tempo":"0d 1h 0min","cla_icacao":"Acesso simples","nome_rio":null,"nom_eclusa":null,"jurisdicao":null,"reg_rafica":null,"pro_de_min":null,"pro_de_max":null,"dominio":null,"observacao":null,"snv":null,"fonte":null,"idm_origem":"BR150130","mun_origem":"Barcarena","est_origem":"PA","idm_estino":"BR150130","mun_estino":"Barcarena","est_estino":"PA","idantaq":null,"Camada Sim":"67","FLUXO":29153248.54},"geometry":{"type":"MultiLineString","coordinates":[[[-48.676889,-1.376872],[-48.646935,-1.342368],[-48.617863,-1.32088],[-48.590688,-1.310767],[-48.56667,-1.303182]]]}}
]
}
